Наименование маршрута,name,query,url,short_name,address,coords,lat,lon,source,N_point,city
Конный маршрут по природным достопримечательностям - скальникам Олхинского плато,"Ольхонское плато, скала Витязь",Скальник Витязь,https://yandex.ru/maps/-/CCUcvKSm8D,Скальник Витязь,"Иркутская область, Шелеховский район, Подкаменское муниципальное образование, Скальник Витязь","51.974820, 104.104524",51.97482,104.104524,,1,Ольхонское плато
Конный маршрут по природным достопримечательностям - скальникам Олхинского плато,"Ольхонское плато, скала Старая крепость",https://yandex.ru/maps/org/skalnik_staraya_krepost/160846154162/?ll=104.146345%2C51.971414&mode=search&sll=104.146345%2C51.981418&sspn=0.081244%2C0.040057&text=Скальник%20%22Старая%22%20Крепость&z=12.62,https://yandex.ru/maps/-/CCUcvZTaDB,Скальник Старая крепость,"Иркутская область, Шелеховский район, Большелугское муниципальное образование","51.993011, 104.140778",51.993011,104.140778,,2,Ольхонское плато
Конный маршрут по природным достопримечательностям - скальникам Олхинского плато,"Ольхонское плато, скала Старуха Изергиль",https://yandex.ru/maps/org/skalnik_starukha/59053104311/?ll=104.135232%2C51.946686&mode=search&sctx=ZAAAAAgBEAAaKAoSCbg7a7ddCVpAETNwQEtX%2FElAEhIJBWoxeJj2yT8R626e6pCbuT8iBgABAgMEBSgKOABAmI4GSAFiHXJlbGV2X3VzZV9nZW9zZWFyY2hfZ2VvYWRkcj0wYidtaWRkbGVfd2l6ZXh0cmE9dXNlX2dlb3NlYXJjaF9nZW9hZGRyPTBiIW1pZGRsZV93aXpleHRyYT1obnN3X2VtYmVkZGluZ3M9MWoCcnWdAc3MTD2gAQCoAQC9AddU44DCAQa3udv%2B2wHqAQDyAQD4AQCCAh%2FQodGC0LDRgNGD0YXQsCDQmNC30LXRgNCz0LjQu9GMigIAkgIAmgIMZGVza3RvcC1tYXBz&sll=104.135232%2C51.946686&sspn=0.082951%2C0.040930&text=Старуха%20Изергиль&z=13.91,https://yandex.ru/maps/-/CCUcvKcfPB,Скальник Старуха,"Иркутская область, Шелеховский район, Подкаменское муниципальное образование","51.946688, 104.135230",51.946688,104.13523,,3,Ольхонское плато
Конный маршрут по природным достопримечательностям - скальникам Олхинского плато,"Ольхонское плато, скала Ворона",https://yandex.ru/maps/org/skalny_ostanets_vorona/36282482716/?ll=103.847043%2C52.044807&mode=search&sll=103.847043%2C52.044147&text=Скальник%20Ворона&z=10,https://yandex.ru/maps/-/CCUgEARw0D,Скальный останец Ворона,"Иркутская область, Шелеховский район","51.943058, 103.931165",51.943058,103.931165,,4,Ольхонское плато
Конный маршрут по природным достопримечательностям - скальникам Олхинского плато,"Ольхонское плато, скала Фараон",https://yandex.ru/maps/geo/skalnik_faraon/4406106440/?ll=103.836965%2C51.961773&z=13.92,https://yandex.ru/maps/-/CCUcvKsg8C,Скальник Фараон,"Скальник Фараон, Подкаменское муниципальное образование, Шелеховский район, Иркутская область","51.961772, 103.836964",51.961772,103.836964,,5,Ольхонское плато
Конный маршрут по природным достопримечательностям - скальникам Олхинского плато,"Ольхонское плато, скала Клеопатра",Скальник Клеопатра,https://yandex.ru/maps/-/CCUcvKDRTC,Клеопатра,"Подаптечная ул., 2, Иркутск","52.286546, 104.308385",52.286546,104.308385,,6,Ольхонское плато
Прогулка по старому Усолью,"Иркутская область, г. Усолье-Сибирское, Остров Варничный","Иркутская область, г. Усолье-Сибирское, Остров Варничный",https://yandex.ru/maps/-/CCUcvKx6SC,парк Остров Варничный,"парк Остров Варничный, Усолье-Сибирское, Иркутская область","52.762855, 103.673013",52.762855,103.673013,,1,Усолье-Сибирское
Прогулка по старому Усолью,"Иркутская область, г. Усолье-Сибирское, Курорт «Усолье»","Иркутская область, г. Усолье-Сибирское, Курорт «Усолье»",https://yandex.ru/maps/-/CCUcvOAThC,Усолье,"ул. Горького, 7, Усолье-Сибирское","52.759536, 103.663786",52.759536,103.663786,,2,Усолье-Сибирское
Прогулка по старому Усолью,"Иркутская область, г. Усолье-Сибирское, Улица Карла Маркса","Иркутская область, г. Усолье-Сибирское, Улица Карла Маркса",https://yandex.ru/maps/-/CCUcvOQ22B,улица Карла Маркса,"улица Карла Маркса, Усолье-Сибирское, Иркутская область","52.760272, 103.656349",52.760272,103.656349,,3,Усолье-Сибирское
Прогулка по старому Усолью,"Иркутская область, г. Усолье-Сибирское, Спасо-Преображенский храм","Иркутская область, г. Усолье-Сибирское, Спасо-Преображенский храм",https://yandex.ru/maps/-/CCUgI-s6CB,Церковь Спаса Преображения,"ул. Карла Маркса, 19, Усолье-Сибирское","52.759093, 103.658612",52.759093,103.658612,,4,Усолье-Сибирское
Прогулка по старому Усолью,"Иркутская область, г. Усолье-Сибирское, Усадьба Пономарева","Иркутская область, г. Усолье-Сибирское, Усадьба Пономарева",https://yandex.ru/maps/-/CCUgAHXa0A,Усадьба купца Пономарёва Приска Федоровича,"Красноармейская ул., 16, Усолье-Сибирское","52.757889, 103.662526",52.757889,103.662526,,5,Усолье-Сибирское
Прогулка по старому Усолью,"Иркутская область, г. Усолье-Сибирское, Усадьба Рассушина","Иркутская область, г. Усолье-Сибирское, Усадьба Рассушина",https://yandex.ru/maps/-/CCUgAXej2A,Усадьба В.А. Рассушина,"Иркутская область, Усолье-Сибирское, улица Мира","52.759290, 103.668242",52.75929,103.668242,,6,Усолье-Сибирское
Свирский ледовый переход,"Иркутская область, г. Свирск, Лыжная база",https://yandex.ru/maps/org/lyzhnaya_baza/169767687536/?ll=103.344436%2C53.101228&mode=search&sll=103.344436%2C53.101228&text=лыжная%20база%20свирск&z=16,https://yandex.ru/maps/-/CCUgEAf1kA,Лыжная база,"Лесная ул., 1, Свирск","53.101228, 103.344436",53.101228,103.344436,https://svirsk.ru/dejatelnost/turizm/,1,Свирск
Свирский ледовый переход,"Иркутская область, Урочище Федяево",https://yandex.ru/maps/geo/urochishche_fedyayevo/1499066694/?ll=103.330409%2C53.230050&mode=search&sctx=ZAAAAAgAEAAaKAoSCbpoyHiUElpAESy3tBoSI0pAEhIJO1PovMYugT8ReSKI83ACgz8iBgABAgMEBSgKOABA080GSAFiHXJlbGV2X3VzZV9nZW9zZWFyY2hfZ2VvYWRkcj0wYidtaWRkbGVfd2l6ZXh0cmE9dXNlX2dlb3NlYXJjaF9nZW9hZGRyPTBiIW1pZGRsZV93aXpleHRyYT1obnN3X2VtYmVkZGluZ3M9MWoCcnWdAc3MTD2gAQCoAQC9AVLbGqTCAQQAAAAA6gEA8gEA%2BAEAggId0YPRgNC%2B0YfQuNGJ0LUg0YTQtdC00Y%2FQtdCy0L6KAgCSAgYxMDAxMTiaAgxkZXNrdG9wLW1hcHM%3D&sll=103.330409%2C53.230050&sspn=0.012984%2C0.014051&text=урочище%20федяево&z=15.41,https://yandex.ru/maps/-/CCUcvOR2SA,урочище Федяево,"урочище Федяево, Каменно-Ангарское муниципальное образование, Черемховский район, Иркутская область","53.230061, 103.330458",53.230061,103.330458,,2,Свирск
Великий чайный путь по Кругоморскому тракту,"Иркутская область, Слюдянский район, п.Култук","Иркутская область, Слюдянский район, п.Култук",https://yandex.ru/maps/-/CCUcvOb1pD,рабочий посёлок Култук,"рабочий посёлок Култук, Слюдянский район, Иркутская область","51.725458, 103.709296",51.725458,103.709296,,1,Слюдянский район
Великий чайный путь по Кругоморскому тракту,"Иркутская область, Слюдянский район, Пик Черского","Иркутская область, Слюдянский район, Пик Черского",https://yandex.ru/maps/-/CCUcvOf~HA,Пик Черского,"Пик Черского, Утуликское муниципальное образование, Слюдянский район, Иркутская область","51.515983, 103.626489",51.515983,103.626489,,2,Слюдянский район
Великий чайный путь по Кругоморскому тракту,"Иркутская область, Слюдянский район, р.Утулик","Иркутская область, Слюдянский район, р.Утулик",https://yandex.ru/maps/-/CCUgAHTc3D,река Утулик,река Утулик,"51.426724, 103.670282",51.426724,103.670282,,3,Слюдянский район
Великий чайный путь по Кругоморскому тракту,"Иркутская область, Слюдянский район, п.Утулик","Иркутская область, Слюдянский район, п.Утулик",https://yandex.ru/maps/-/CCUcvOGr3A,посёлок Утулик,"посёлок Утулик, Слюдянский район, Иркутская область","51.544396, 104.056692",51.544396,104.056692,,4,Слюдянский район
Великий чайный путь по Кругоморскому тракту,"Иркутская область, Слюдянский район, п.Мурино","Иркутская область, Слюдянский район, п.Мурино",https://yandex.ru/maps/-/CCUcvOWa8B,посёлок Мурино,"посёлок Мурино, Новоснежнинское муниципальное образование, Слюдянский район, Иркутская область","51.475886, 104.405939",51.475886,104.405939,,5,Слюдянский район
Екатерининская верста,"Иркутская область, Слюдянский район, п.Култук","Иркутская область, Слюдянский район, п.Култук",https://yandex.ru/maps/-/CCUcvOb1pD,рабочий посёлок Култук,"рабочий посёлок Култук, Слюдянский район, Иркутская область","51.725458, 103.709296",51.725458,103.709296,,1,Слюдянский район
Екатерининская верста,"Иркутская область, Слюдянский район, г.Слюдянка","Иркутская область, Слюдянский район, г.Слюдянка",https://yandex.ru/maps/-/CCUcvOcHsD,Слюдянка,"Слюдянка, Иркутская область","51.656501, 103.718845",51.656501,103.718845,,2,Слюдянский район
Екатерининская верста,"Иркутская область, Слюдянский район, п.Утулик","Иркутская область, Слюдянский район, п.Утулик",https://yandex.ru/maps/-/CCUcvOGr3A,посёлок Утулик,"посёлок Утулик, Слюдянский район, Иркутская область","51.544396, 104.056692",51.544396,104.056692,,3,Слюдянский район
Екатерининская верста,"Иркутская область, Слюдянский район, п.Мурино","Иркутская область, Слюдянский район, п.Мурино",https://yandex.ru/maps/-/CCUcvOWa8B,посёлок Мурино,"посёлок Мурино, Новоснежнинское муниципальное образование, Слюдянский район, Иркутская область","51.475886, 104.405939",51.475886,104.405939,,4,Слюдянский район
Остров Ольхон,"Иркутская область, Ольхонский район, о. Ольхон, Мыс Хобой","Иркутская область, Ольхонский район, о. Ольхон, Мыс Хобой",https://yandex.ru/maps/-/CCUcvOsBpB,мыс Хобой,"мыс Хобой, Ольхонский район, Иркутская область","53.410625, 107.789507",53.410625,107.789507,,1,Ольхонский район
Остров Ольхон,"Иркутская область, Ольхонский район, о. Ольхон, Мыс Бурхан","Иркутская область, Ольхонский район, о. Ольхон, Мыс Бурхан",https://yandex.ru/maps/-/CCUcvODixA,мыс Бурхан,"мыс Бурхан, Ольхонский район, Иркутская область","53.203829, 107.338948",53.203829,107.338948,,2,Ольхонский район
Остров Ольхон,"Иркутская область, Ольхонский район, о. Ольхон, Остров Огой","Иркутская область, Ольхонский район, о. Ольхон, Остров Огой",https://yandex.ru/maps/-/CCUcvOHdOA,остров Огой,"остров Огой, Ольхонский район, Иркутская область","53.128613, 106.998935",53.128613,106.998935,,3,Ольхонский район
Остров Ольхон,"Иркутская область, Ольхонский район, о. Ольхон, Малые ушканьи острова","Иркутская область, Ольхонский район, о. Ольхон, Малые ушканьи острова",https://yandex.ru/maps/-/CCUgAHv3kC,пристань Ушканьи острова,"пристань Ушканьи острова, Баргузинский район, Республика Бурятия","53.855856, 108.711942",53.855856,108.711942,,4,Ольхонский район
Остров Ольхон,"Иркутская область, Ольхонский район, о. Ольхон, Мыс Сагаан-Хушун","Иркутская область, Ольхонский район, о. Ольхон, Мыс Сагаан-Хушун",https://yandex.ru/maps/-/CCUgAHGAHD,Мыс Цаган-Хушун,"Иркутская область, Ольхонский район","53.171990, 106.981090",53.17199,106.98109,,5,Ольхонский район
По тропам наших предков: Куяда – Бугульдейка – Куртун ,"Иркутская область, Ольхонский район, Куяда","Иркутская область, Ольхонский район, Куяда",https://yandex.ru/maps/-/CCUcvSEQlA,деревня Куяда,"деревня Куяда, Ольхонский район, Иркутская область","52.559247, 106.131747",52.559247,106.131747,,1,Ольхонский район
По тропам наших предков: Куяда – Бугульдейка – Куртун ,"Иркутская область, Ольхонский район, Мраморный карьер","Иркутская область, Ольхонский район, Мраморный карьер",https://yandex.ru/maps/-/CCUcvSQgDB,Мраморный карьер,"Мраморный карьер, Ольхонский район, Иркутская область","52.558776, 106.092140",52.558776,106.09214,,2,Ольхонский район
По тропам наших предков: Куяда – Бугульдейка – Куртун ,"Иркутская область, Ольхонский район, Бугульдейка","Иркутская область, Ольхонский район, Бугульдейка",https://yandex.ru/maps/-/CCUgAHD0gA,поселок Бугульдейка,"поселок Бугульдейка, Ольхонский район, Иркутская область","52.546571, 106.069170",52.546571,106.06917,,3,Ольхонский район
По тропам наших предков: Куяда – Бугульдейка – Куртун ,"Иркутская область, Ольхонский район, Куртун ","Иркутская область, Ольхонский район, Куртун ",https://yandex.ru/maps/-/CCUcvSqqHD,река Куртун,"река Куртун, Ольхонский район, Иркутская область","52.606956, 105.786973",52.606956,105.786973,,4,Ольхонский район
По тропам наших предков: Бугульдейка - Куртун – Загота –Заозёрное,"Иркутская область, Ольхонский район, Бугульдейка","Иркутская область, Ольхонский район, Бугульдейка",https://yandex.ru/maps/-/CCUgAHD0gA,поселок Бугульдейка,"поселок Бугульдейка, Ольхонский район, Иркутская область","52.546571, 106.069170",52.546571,106.06917,,1,Ольхонский район
По тропам наших предков: Бугульдейка - Куртун – Загота –Заозёрное,"Иркутская область, Ольхонский район, Куртун","Иркутская область, Ольхонский район, Куртун",https://yandex.ru/maps/-/CCUcvSqqHD,река Куртун,"река Куртун, Ольхонский район, Иркутская область","52.606956, 105.786973",52.606956,105.786973,,2,Ольхонский район
По тропам наших предков: Бугульдейка - Куртун – Загота –Заозёрное,"Иркутская область, Ольхонский район, Загота","Иркутская область, Ольхонский район, Загота",https://yandex.ru/maps/-/CCUcvSbEsB,река Загота,"река Загота, Ольхонский район, Иркутская область","52.592991, 105.521171",52.592991,105.521171,,3,Ольхонский район
По тропам наших предков: Бугульдейка - Куртун – Загота –Заозёрное,"Иркутская область, Ольхонский район, Заозёрное","Иркутская область, Ольхонский район, Заозёрное",https://yandex.ru/maps/-/CCUcvSfxoA,садоводческое некоммерческое товарищество Заозёрное,"садоводческое некоммерческое товарищество Заозёрное, Гостилицкое сельское поселение, Ломоносовский район, Ленинградская область","52.640957, 105.80693",52.640957,105.80693,,4,Ольхонский район
Богатырские пещеры,"Иркутская область, Нижнеудинский район, усадьба Михинных","Иркутская область, Нижнеудинский район, усадьба Михинных",https://yandex.ru/maps/-/CCUgAHr-KB,Порогское муниципальное образование,"Порогское муниципальное образование, Нижнеудинский район, Иркутская область","54.496544, 99.005179",54.496544,99.005179,,1,Нижнеудинский район
Богатырские пещеры,"Иркутская область, Нижнеудинский район, Богатырские пещеры (Нижнеудинские пещеры)","Иркутская область, Нижнеудинский район, Богатырские пещеры (Нижнеудинские пещеры)",https://yandex.ru/maps/-/CCUgAHCEwD,Нижнеудинские пещеры,"Иркутская область, Нижнеудинский район, Порогское муниципальное образование","54.474197, 98.975945",54.474197,98.975945,,2,Нижнеудинский район
р.п. Листвянка - п. БольшоеГолоустное,"Иркутская область, Иркутский район, п. Листвянка","Иркутская область, Иркутский район, п. Листвянка",https://yandex.ru/maps/-/CCUcvSWVOC,рабочий посёлок Листвянка,"рабочий посёлок Листвянка, Листвянское муниципальное образование, Иркутский район","51.859990, 104.863191",51.85999,104.863191,,1,Иркутский район
р.п. Листвянка - п. БольшоеГолоустное,"Иркутская область, Иркутский район, р. Емельяниха","Иркутская область, Иркутский район, р. Емельяниха",https://yandex.ru/maps/-/CCUcvScdCC,река Емельяниха,"река Емельяниха, Листвянское муниципальное образование, Иркутский район","51.868166, 104.936224",51.868166,104.936224,,2,Иркутский район
р.п. Листвянка - п. БольшоеГолоустное,"Иркутская область, Иркутский район, р. Черная","Иркутская область, Иркутский район, р. Черная",https://yandex.ru/maps/-/CCUcvSs-1A,река Чёрная,"река Чёрная, Большереченское муниципальное образование, Иркутский район","52.018008, 104.717170",52.018008,104.71717,,3,Иркутский район
р.п. Листвянка - п. БольшоеГолоустное,"Иркутская область, Иркутский район, п. Бол.Коты","Иркутская область, Иркутский район, п. Бол.Коты",https://yandex.ru/maps/-/CCUcvSDCPD,посёлок Большие Коты,"посёлок Большие Коты, Листвянское муниципальное образование, Иркутский район","51.904376, 105.074996",51.904376,105.074996,,4,Иркутский район
р.п. Листвянка - п. БольшоеГолоустное,"Иркутская область, Иркутский район, мыс Соболев","Иркутская область, Иркутский район, мыс Соболев",https://yandex.ru/maps/-/CCUcvSTQDD,мыс Соболев,"мыс Соболев, Листвянское муниципальное образование, Иркутский район","51.899486, 105.155125",51.899486,105.155125,,5,Иркутский район
р.п. Листвянка - п. БольшоеГолоустное,"Иркутская область, Иркутский район, мыс Кадильный","Иркутская область, Иркутский район, мыс Кадильный",https://yandex.ru/maps/-/CCUcvSXS-D,мыс Большой Кадильный,"мыс Большой Кадильный, Листвянское муниципальное образование, Иркутский район","51.916610, 105.221789",51.91661,105.221789,,6,Иркутский район
р.п. Листвянка - п. БольшоеГолоустное,"Иркутская область, Иркутский район, падь Малая Кадильная","Иркутская область, Иркутский район, падь Малая Кадильная",https://yandex.ru/maps/-/CCUgAHcMKD,Листвянское муниципальное образование,"Листвянское муниципальное образование, Иркутский район","51.937858, 105.252247",51.937858,105.252247,,7,Иркутский район
р.п. Листвянка - п. БольшоеГолоустное,"Иркутская область, Иркутский район, падь Ушканья","Иркутская область, Иркутский район, падь Ушканья",https://yandex.ru/maps/-/CCUcvStldC,урочище Ушканья Падь,"урочище Ушканья Падь, Голоустненское муниципальное образование, Иркутский район","51.988208, 105.313399",51.988208,105.313399,,8,Иркутский район
р.п. Листвянка - п. БольшоеГолоустное,"Иркутская область, Иркутский район, п. Большое Голоустное","Иркутская область, Иркутский район, п. Большое Голоустное",https://yandex.ru/maps/-/CCUcvWAFsB,посёлок Большое Голоустное,"посёлок Большое Голоустное, Голоустненское муниципальное образование, Иркутский район","52.038539, 105.409097",52.038539,105.409097,,9,Иркутский район
р.п. Листвянка – падь Крестовая – пер. Черный  - падь Черная,"Иркутская область, Иркутский район, п. Листвянка","Иркутская область, Иркутский район, п. Листвянка",https://yandex.ru/maps/-/CCUcvSWVOC,рабочий посёлок Листвянка,"рабочий посёлок Листвянка, Листвянское муниципальное образование, Иркутский район","51.859990, 104.863191",51.85999,104.863191,https://baikal-1.ru/tourism/routes-and-maps/,1,Иркутский район
р.п. Листвянка – падь Крестовая – пер. Черный  - падь Черная,"Иркутская область, Иркутский район, Падь Крестовая","Иркутская область, Иркутский район, Падь Крестовая",https://yandex.ru/maps/-/CCUgAHg0pB,река Крестовка,"река Крестовка, Листвянское муниципальное образование, Иркутский район","51.893356, 104.905095",51.893356,104.905095,https://baikal-1.ru/tourism/routes-and-maps/krestovaya-valley/,2,Иркутский район
р.п. Листвянка – падь Крестовая – пер. Черный  - падь Черная,"Иркутская область, Иркутский район, Перевал Черный","Иркутская область, Иркутский район, Перевал Черный",https://yandex.ru/maps/-/CCUgAHs9cC,Листвянское муниципальное образование,"Листвянское муниципальное образование, Иркутский район","51.906583, 104.979825",51.906583,104.979825,,3,Иркутский район
р.п. Листвянка – падь Крестовая – пер. Черный  - падь Черная,"Иркутская область, Иркутский район, Падь Черная","Иркутская область, Иркутский район, Падь Черная",https://yandex.ru/maps/-/CCUgAHw1gD,Падь Чёрная,"Иркутская область, Иркутский район, Листвянское муниципальное образование","51.889405, 105.037262",51.889405,105.037262,,4,Иркутский район
падь Семениха – оз. Сухое,"Иркутская область, Иркутский район, Падь Семениха","Иркутская область, Иркутский район, Падь Семениха",https://yandex.ru/maps/-/CCUgAHw2-D,Голоустненское муниципальное образование,"Голоустненское муниципальное образование, Иркутский район","52.017500, 105.351667",52.0175,105.351667,https://wikimapia.org/34145484/ru/Падь-Озерко-она-же-Прямая-Белозерцевская-Семёниха,1,Иркутский район
падь Семениха – оз. Сухое,"Иркутская область, Иркутский район, Оз. Сухое","Иркутская область, Иркутский район, Оз. Сухое",https://yandex.ru/maps/-/CCUcvWFy-A,озеро Сухое,"озеро Сухое, Голоустненское муниципальное образование, Иркутский район","52.020220, 105.349754",52.02022,105.349754,,2,Иркутский район
Большое Голоустное – Бугульдейка,"Иркутская область, Иркутский район, Большое Голоустное","Иркутская область, Иркутский район, Большое Голоустное",https://yandex.ru/maps/-/CCUcvWVIWA,пристань Большое Голоустное,"пристань Большое Голоустное, Голоустненское муниципальное образование, Иркутский район","52.025485, 105.405674",52.025485,105.405674,,1,Иркутский район
Большое Голоустное – Бугульдейка,"Иркутская область, Иркутский район, перевал Еловый","Иркутская область, Иркутский район, перевал Еловый",https://yandex.ru/maps/-/CCUgAHsk2A,река Еловка,"река Еловка, Голоустненское муниципальное образование, Иркутский район","52.110424, 105.504009",52.110424,105.504009,,2,Иркутский район
Большое Голоустное – Бугульдейка,"Иркутская область, Иркутский район, перевал Кедровый","Иркутская область, Иркутский район, перевал Кедровый",https://yandex.ru/maps/-/CCUgAHwKWC,Голоустненское муниципальное образование,"Голоустненское муниципальное образование, Иркутский район","52.222087, 105.615443",52.222087,105.615443,,3,Иркутский район
Большое Голоустное – Бугульдейка,"Иркутская область, Иркутский район, бухта Синичка","Иркутская область, Иркутский район, бухта Синичка",https://yandex.ru/maps/-/CCUcvWvdhC,бухта Синичка,"бухта Синичка, Голоустненское муниципальное образование, Иркутский район","52.256210, 105.696028",52.25621,105.696028,,4,Иркутский район
Большое Голоустное – Бугульдейка,"Иркутская область, Иркутский район, бухта Песчаная","Иркутская область, Иркутский район, бухта Песчаная",https://yandex.ru/maps/-/CCUcvWSILD,пристань Бухта Песчаная,"пристань Бухта Песчаная, Голоустненское муниципальное образование, Иркутский район","52.261474, 105.702720",52.261474,105.70272,,5,Иркутский район
Большое Голоустное – Бугульдейка,"Иркутская область, Иркутский район, бухта Бабушка","Иркутская область, Иркутский район, бухта Бабушка",https://yandex.ru/maps/-/CCURQXDVDA,бухта Бабушка,"бухта Бабушка, Голоустненское муниципальное образование, Иркутский район","52.265498, 105.713653",52.265498,105.713653,,6,Иркутский район
Большое Голоустное – Бугульдейка,"Иркутская область, Иркутский район, п. Бугульдейка","Иркутская область, Иркутский район, п. Бугульдейка",https://yandex.ru/maps/-/CCUgAHD0gA,поселок Бугульдейка,"поселок Бугульдейка, Ольхонский район, Иркутская область","52.546571, 106.069170",52.546571,106.06917,,7,Иркутский район
Большое Голоустное – Падь Тарахаиха – озеро Сухое – Падь Ушканья,"Иркутская область, Иркутский район, Большое Голоустное","Иркутская область, Иркутский район, Большое Голоустное",https://yandex.ru/maps/-/CCUcvWVIWA,пристань Большое Голоустное,"пристань Большое Голоустное, Голоустненское муниципальное образование, Иркутский район","52.025485, 105.405674",52.025485,105.405674,https://tripmir.com/routes/99/bolshoe_goloustnoe-pad_tarahaiha-ozero_suhoe_–.html,1,Иркутский район
Большое Голоустное – Падь Тарахаиха – озеро Сухое – Падь Ушканья,"Иркутская область, Иркутский район, Падь Тарахаиха","Иркутская область, Иркутский район, Падь Тарахаиха",https://yandex.ru/maps/-/CCUgAHHskB,Голоустненское муниципальное образование,"Голоустненское муниципальное образование, Иркутский район","52.011050, 105.366069",52.01105,105.366069,https://tripmir.com/routes/99/bolshoe_goloustnoe-pad_tarahaiha-ozero_suhoe_–.html,2,Иркутский район
Большое Голоустное – Падь Тарахаиха – озеро Сухое – Падь Ушканья,"Иркутская область, Иркутский район,  Озеро Сухое","Иркутская область, Иркутский район,  Озеро Сухое",https://yandex.ru/maps/-/CCUcvWFy-A,озеро Сухое,"озеро Сухое, Голоустненское муниципальное образование, Иркутский район","52.020220, 105.349754",52.02022,105.349754,https://tripmir.com/routes/99/bolshoe_goloustnoe-pad_tarahaiha-ozero_suhoe_–.html,3,Иркутский район
Большое Голоустное – Падь Тарахаиха – озеро Сухое – Падь Ушканья,"Иркутская область, Иркутский район, Падь Ушканья","Иркутская область, Иркутский район, Падь Ушканья",https://yandex.ru/maps/-/CCUcvStldC,урочище Ушканья Падь,"урочище Ушканья Падь, Голоустненское муниципальное образование, Иркутский район","51.988208, 105.313399",51.988208,105.313399,https://tripmir.com/routes/99/bolshoe_goloustnoe-pad_tarahaiha-ozero_suhoe_–.html,4,Иркутский район
Тропа к пещере Часовня,"Иркутская область, Иркутский район, Падь Малая Кадильная","Иркутская область, Иркутский район, Падь Малая Кадильная",https://yandex.ru/maps/-/CCUgAHcMKD,Листвянское муниципальное образование,"Листвянское муниципальное образование, Иркутский район","51.937858, 105.252247",51.937858,105.252247,,1,Иркутский район
Тропа к пещере Часовня,"Иркутская область, Иркутский район, Пещера Часовня","Иркутская область, Иркутский район, Пещера Часовня",https://yandex.ru/maps/-/CCUgAHhXCC,Листвянское муниципальное образование,"Листвянское муниципальное образование, Иркутский район","51.941390, 105.248877",51.94139,105.248877,,2,Иркутский район
Семь чудес Братского района,"Иркутская область, Братский район, п. Турма, Каменные столбы","Иркутская область, Братский район, п. Турма, Каменные столбы",https://yandex.ru/maps/-/CCUcv0A0pA,Турманские столбы,"Турманские столбы, Братский район, Иркутская область","56.153172, 100.827554",56.153172,100.827554,,1,Братский район
Семь чудес Братского района,"Иркутская область, Братский район, с. Кузнецовка, родник","Иркутская область, Братский район, с. Кузнецовка, родник",https://yandex.ru/maps/-/CCUgAHdhoA,село Кузнецовка,"село Кузнецовка, Братский район, Иркутская область","56.087248, 101.243591",56.087248,101.243591,,2,Братский район
Семь чудес Братского района,"Иркутская область, Братский район, п. Зяба, Каменистая речка","Иркутская область, Братский район, п. Зяба, Каменистая речка",https://yandex.ru/maps/-/CCUcv0av3A,поселок Зяба,"поселок Зяба, Братский район, Иркутская область","56.379003, 102.129707",56.379003,102.129707,,3,Братский район
Семь чудес Братского района,"Иркутская область, Братский район,  п. Озерный, Рудная гора","Иркутская область, Братский район,  п. Озерный, Рудная гора",https://yandex.ru/maps/-/CCUcv0eXPA,посёлок Озёрный,"посёлок Озёрный, Братский район, Иркутская область","55.875864, 102.085079",55.875864,102.085079,,4,Братский район
Семь чудес Братского района,"Иркутская область, Братский район, п. Тарма, Николаевский завод","Иркутская область, Братский район, п. Тарма, Николаевский завод",https://yandex.ru/maps/-/CCUgM4SEGD,Развалины печей (Северные),"Братский район, Иркутская область","55.997720, 101.317080",55.99772,101.31708,https://vk.com/wall-211203204_139,5,Братский район
Семь чудес Братского района,"Иркутская область, Братский район, п. Тарма, Николаевский завод","Иркутская область, Братский район, п. Тарма, Николаевский завод",https://yandex.ru/maps/-/CCUgM4DM8B,Развалины печей (Южные),"Братский район, Иркутская область","55.992830, 101.322470",55.99283,101.32247,https://vk.com/wall-211203204_139,6,Братский район
Семь чудес Братского района,"Иркутская область, Братский район,  п. Добчур, водопад","Иркутская область, Братский район,  п. Добчур, водопад",https://yandex.ru/maps/-/CCUcv0BeDB,поселок Добчур,"поселок Добчур, Братский район, Иркутская область","55.341986, 101.147992",55.341986,101.147992,,7,Братский район
Семь чудес Братского района,"Иркутская область, Братский район,  мемориальный комплекс нескольких исторических эпох «Деревня «Анчириково»","Иркутская область, Братский район,  мемориальный комплекс нескольких исторических эпох «Деревня «Анчириково»",https://yandex.ru/maps/org/taksofon/111383269183/,Деревная Анчирикова,"Иркутская область, Братский район, деревня Анчирикова","56.467026, 101.516030",56.467026,101.51603,,8,Братский район
"Ангарск – город, рождённый победой","Иркутская область, г. Ангарск, Памятник политкаторжанам","Иркутская область, г. Ангарск, Памятник политкаторжанам",https://yandex.ru/maps/-/CCUgIPGJLD,Декабристам,"Иркутская область, Ангарск, Московская улица","52.552208, 103.875328",52.552208,103.875328,,1,Ангарск
"Ангарск – город, рождённый победой","Иркутская область, г. Ангарск, Стела «Крылья»","Иркутская область, г. Ангарск, Стела «Крылья»",https://yandex.ru/maps/org/krylya/49090994781/,Крылья,"Иркутская область, Ангарск, сквер Почётных Граждан","52.551919, 103.875404",52.551919,103.875404,,2,Ангарск
"Ангарск – город, рождённый победой","Иркутская область, г. Ангарск, Первый кирпичный дом","Иркутская область, г. Ангарск, Первый кирпичный дом",https://yandex.ru/maps/-/CCUgAXqwKB,"Октябрьская улица, 9","Октябрьская улица, 9, Ангарск, Иркутская область, 665830","52.554773, 103.876273",52.554773,103.876273,,3,Ангарск
"Ангарск – город, рождённый победой","Иркутская область, г. Ангарск, Первые детские ясли","Иркутская область, г. Ангарск, Первые детские ясли",https://yandex.ru/maps/-/CCUgIPSa3A,Челюстно-лицевая клиника,"Сибирская ул., 6","52.553196, 103.876541",52.553196,103.876541,,4,Ангарск
"Ангарск – город, рождённый победой","Иркутская область, г. Ангарск, Сквер «Пионер»","Иркутская область, г. Ангарск, Сквер «Пионер»",https://yandex.ru/maps/-/CCUgMAXECB,сквер Пионер,"Иркутская область, Ангарск, сквер Пионер","52.551937, 103.883885",52.551937,103.883885,,5,Ангарск
"Ангарск – город, рождённый победой","Иркутская область, г. Ангарск, Дворец ветеранов «Победа»","Иркутская область, г. Ангарск, Дворец ветеранов «Победа»",https://yandex.ru/maps/-/CCUgAXeCTA,Дворец ветеранов Победа,"ул. Кирова, 26, Ангарск","52.551084, 103.884741",52.551084,103.884741,,6,Ангарск
"Ангарск – город, рождённый победой","Иркутская область, г. Ангарск, Стела «Ангарск – город, рождённый Победой»","Иркутская область, г. Ангарск, Стела «Ангарск – город, рождённый Победой»",https://yandex.ru/maps/-/CCUcvKXnOC,"Ангарск — город, рождённый победой","Иркутская область, Ангарск, улица Ленина","52.548920, 103.906000",52.54892,103.906,,7,Ангарск
"Ангарск – город, рождённый победой","Иркутская область, г. Ангарск, Ангарские ворота","Иркутская область, г. Ангарск, Ангарские ворота",https://yandex.ru/maps/-/CCUcvKh6DA,площадь Ангарские Ворота,"площадь Ангарские Ворота, Ангарск, Иркутская область","52.546204, 103.894870",52.546204,103.89487,,8,Ангарск
"Ангарск – город, рождённый победой","Иркутская область, г. Ангарск, Площадь им. Ленина","Иркутская область, г. Ангарск, Площадь им. Ленина",https://yandex.ru/maps/-/CCUcvKxBlD,площадь Ленина,"площадь Ленина, Ангарск, Иркутская область","52.544440, 103.888079",52.54444,103.888079,,9,Ангарск
"Ангарск – город, рождённый победой","Иркутская область, г. Ангарск, Музей минералов","Иркутская область, г. Ангарск, Музей минералов",https://yandex.ru/maps/-/CCUcvOADGA,Музей минералов,"4, 73-й квартал, Ангарск","52.542248, 103.884854",52.542248,103.884854,,10,Ангарск
"Ангарск – город, рождённый победой","Иркутская область, г. Ангарск, Музей часов","Иркутская область, г. Ангарск, Музей часов",https://yandex.ru/maps/org/muzey_chasov/1007489050/,Музей часов,"13, 74-й квартал, Ангарск","52.542331, 103.889640",52.542331,103.88964,,11,Ангарск
"Ангарск – город, рождённый победой","Иркутская область, г. Ангарск,  Аллея любви","Иркутская область, г. Ангарск,  Аллея любви",https://yandex.ru/maps/-/CCUcvOUXtC,аллея Любви,"аллея Любви, Центральный парк культуры и отдыха имени 10-летия города Ангарска, Ангарск, Иркутская область","52.542945, 103.873903",52.542945,103.873903,,12,Ангарск
"Ангарск – город, рождённый победой","Иркутская область, г. Ангарск,  Стадион «Ангара»","Иркутская область, г. Ангарск,  Стадион «Ангара»",https://yandex.ru/maps/-/CCUcvOerhC,Ангара,"ул. Ворошилова, 2А, Ангарск","52.540191, 103.874994",52.540191,103.874994,,13,Ангарск
"Ангарск – город, рождённый победой","Иркутская область, г. Ангарск, Монумент «Дружба народов»","Иркутская область, г. Ангарск, Монумент «Дружба народов»",https://yandex.ru/maps/-/CCUgAXEL3A,Цветок,"Иркутская область, Ангарск, улица Глинки","52.541997, 103.882045",52.541997,103.882045,,14,Ангарск
"Ангарск – город, рождённый победой","Иркутская область, г. Ангарск, Улица Московская","Иркутская область, г. Ангарск, Улица Московская",https://yandex.ru/maps/-/CCUgAXUmcD,Московская улица,"Московская улица, Ангарск, Иркутская область","52.544971, 103.880919",52.544971,103.880919,,15,Ангарск
"Ангарск – город, рождённый победой","Иркутская область, г. Ангарск, Парк Строителей","Иркутская область, г. Ангарск, Парк Строителей",https://yandex.ru/maps/-/CCUcvOV4SD,парк Строителей,"Иркутская область, Ангарск, парк Строителей","52.534450, 103.887813",52.53445,103.887813,,16,Ангарск
"Ангарск – город, рождённый победой","Иркутская область, г. Ангарск,  Свято-Троицкий кафедральный собор","Иркутская область, г. Ангарск,  Свято-Троицкий кафедральный собор",https://yandex.ru/maps/-/CCUgMAveOD,Кафедральный собор Святой Троицы,"Троицкая ул., 1, Ангарск","52.528038, 103.871098",52.528038,103.871098,,17,Ангарск
"Ангарск – город, рождённый победой","Иркутская область, г. Ангарск, Скульптурная композиция «Святые благоверные Пётр и ФевронияМуромские»","Иркутская область, г. Ангарск, Скульптурная композиция «Святые благоверные Пётр и ФевронияМуромские»",https://yandex.ru/maps/-/CCUgAXaV8C,Памятник Петру и Февронье Муромским,"Иркутская область, Ангарск, 96-й квартал","52.526989, 103.870505",52.526989,103.870505,,18,Ангарск
"Ангарск – город, рождённый победой","Иркутская область, г. Ангарск, Мозаичные панно","Иркутская область, г. Ангарск, Мозаичные панно",https://yandex.ru/maps/-/CCUgAXEtCA,"182-й квартал, 8","182-й квартал, 8, Ангарск, Иркутская область","52.507298, 103.839713",52.507298,103.839713,https://glagol38.ru/text/14-10-2018/angarskaja_mozaika,19,Ангарск
"Ангарск – город, рождённый победой","Иркутская область, г. Ангарск, Мозаичные панно","Иркутская область, г. Ангарск, Мозаичные панно",https://yandex.ru/maps/-/CCUgAXUvGD,"188-й квартал, 6","188-й квартал, 6, Ангарск, Иркутская область","52.506816, 103.839102",52.506816,103.839102,https://glagol38.ru/text/14-10-2018/angarskaja_mozaika,20,Ангарск
"Ангарск – город, рождённый победой","Иркутская область, г. Ангарск, Мозаичные панно","Иркутская область, г. Ангарск, Мозаичные панно",https://yandex.ru/maps/-/CCUgAXa-SA,"188-й квартал, 1","188-й квартал, 1, Ангарск, Иркутская область","52.507824, 103.836533",52.507824,103.836533,https://glagol38.ru/text/14-10-2018/angarskaja_mozaika,21,Ангарск
"Ангарск – город, рождённый победой","Иркутская область, г. Ангарск, Мозаичные панно","Иркутская область, г. Ангарск, Мозаичные панно",https://yandex.ru/maps/-/CCUgAXqQgB,"188-й квартал, 17","188-й квартал, 17, Ангарск, Иркутская область","52.507819, 103.835815",52.507819,103.835815,https://glagol38.ru/text/14-10-2018/angarskaja_mozaika,22,Ангарск
"Ангарск – город, рождённый победой","Иркутская область, г. Ангарск, Мозаичные панно","Иркутская область, г. Ангарск, Мозаичные панно",https://yandex.ru/maps/-/CCUgAXufhB,"182-й квартал, 14","182-й квартал, 14, Ангарск, Иркутская область","52.508800, 103.836839",52.5088,103.836839,https://glagol38.ru/text/14-10-2018/angarskaja_mozaika,23,Ангарск
"Ангарск – город, рождённый победой","Иркутская область, г. Ангарск, Мозаичные панно","Иркутская область, г. Ангарск, Мозаичные панно",https://yandex.ru/maps/-/CCUgAXEl1C,"182-й квартал, 13","182-й квартал, 13, Ангарск, Иркутская область","52.508307, 103.837189",52.508307,103.837189,https://glagol38.ru/text/14-10-2018/angarskaja_mozaika,24,Ангарск
"Ангарск – город, рождённый победой","Иркутская область, г. Ангарск, Мозаичные панно","Иркутская область, г. Ангарск, Мозаичные панно",https://yandex.ru/maps/-/CCUgAXUzdD,"188-й квартал, 15","188-й квартал, 15, Ангарск, Иркутская область","52.506936, 103.835240",52.506936,103.83524,https://glagol38.ru/text/14-10-2018/angarskaja_mozaika,25,Ангарск
"Ангарск – город, рождённый победой","Иркутская область, г. Ангарск, Мозаичные панно","Иркутская область, г. Ангарск, Мозаичные панно",https://yandex.ru/maps/-/CCUgAXeEKB,"188-й квартал, 3","188-й квартал, 3, Ангарск, Иркутская область","52.507139, 103.837665",52.507139,103.837665,https://glagol38.ru/text/14-10-2018/angarskaja_mozaika,26,Ангарск
"Ангарск – город, рождённый победой","Иркутская область, г. Ангарск, Мозаичные панно","Иркутская область, г. Ангарск, Мозаичные панно",https://yandex.ru/maps/-/CCUgAXqBkC,"188-й квартал, 2","188-й квартал, 2, Ангарск, Иркутская область","52.507517, 103.837243",52.507517,103.837243,https://glagol38.ru/text/14-10-2018/angarskaja_mozaika,27,Ангарск
"Ангарск – город, рождённый победой","Иркутская область, г. Ангарск, Мозаичные панно","Иркутская область, г. Ангарск, Мозаичные панно",https://yandex.ru/maps/-/CCUgAXEtdD,"188-й квартал, 16","188-й квартал, 16, Ангарск, Иркутская область","52.507397, 103.835123",52.507397,103.835123,https://glagol38.ru/text/14-10-2018/angarskaja_mozaika,28,Ангарск
"Ангарск – город, рождённый победой","Иркутская область, г. Ангарск, Мозаичные панно","Иркутская область, г. Ангарск, Мозаичные панно",https://yandex.ru/maps/-/CCUgAXU0LD,"188-й квартал, 7","188-й квартал, 7, Ангарск, Иркутская область","52.506366, 103.839354",52.506366,103.839354,https://glagol38.ru/text/14-10-2018/angarskaja_mozaika,29,Ангарск
"Ангарск – город, рождённый победой","Иркутская область, г. Ангарск, Мозаичные панно","Иркутская область, г. Ангарск, Мозаичные панно",https://yandex.ru/maps/-/CCUgAXa2WC,"182-й квартал, 7","182-й квартал, 7, Ангарск, Иркутская область","52.507479, 103.840522",52.507479,103.840522,https://glagol38.ru/text/14-10-2018/angarskaja_mozaika,30,Ангарск
"Ангарск – город, рождённый победой","Иркутская область, г. Ангарск, Мозаичные панно","Иркутская область, г. Ангарск, Мозаичные панно",https://yandex.ru/maps/-/CCUgAXqMhB,"182-й квартал, 16","182-й квартал, 16, Ангарск, Иркутская область","52.509364, 103.837234",52.509364,103.837234,https://glagol38.ru/text/14-10-2018/angarskaja_mozaika,31,Ангарск
"Ангарск – город, рождённый победой","Иркутская область, г. Ангарск, Мозаичные панно","Иркутская область, г. Ангарск, Мозаичные панно",https://yandex.ru/maps/-/CCUgAXujtB,"182-й квартал, 1","182-й квартал, 1, Ангарск, Иркутская область","52.509458, 103.837970",52.509458,103.83797,https://glagol38.ru/text/14-10-2018/angarskaja_mozaika,32,Ангарск
"Ангарск – город, рождённый победой","Иркутская область, г. Ангарск, Мозаичные панно","Иркутская область, г. Ангарск, Мозаичные панно",https://yandex.ru/maps/-/CCUgAXBKXB,"178-й квартал, 1","178-й квартал, 1, Ангарск, Иркутская область","52.510176, 103.837782",52.510176,103.837782,https://glagol38.ru/text/14-10-2018/angarskaja_mozaika,33,Ангарск
"Ангарск – город, рождённый победой","Иркутская область, г. Ангарск,  Музей Победы","Иркутская область, г. Ангарск,  Музей Победы",https://yandex.ru/maps/org/muzey_pobedy/152666710853/,Музей Победы,"15А, микрорайон 12А, Ангарск","52.512630, 103.862075",52.51263,103.862075,,34,Ангарск
Город устремленный в будущее,"Иркутская область, г. Ангарск,  Памятник политкаторжанам","Иркутская область, г. Ангарск,  Памятник политкаторжанам",https://yandex.ru/maps/-/CCUgIPGJLD,Декабристам,"Иркутская область, Ангарск, Московская улица","52.552208, 103.875328",52.552208,103.875328,,1,Ангарск
Город устремленный в будущее,"Иркутская область, г. Ангарск,  Аллея любви","Иркутская область, г. Ангарск,  Аллея любви",https://yandex.ru/maps/-/CCUcvOUXtC,аллея Любви,"аллея Любви, Центральный парк культуры и отдыха имени 10-летия города Ангарска, Ангарск, Иркутская область","52.542945, 103.873903",52.542945,103.873903,,2,Ангарск
Город устремленный в будущее,"Иркутская область, г. Ангарск,  Площадь им.Ленина","Иркутская область, г. Ангарск,  Площадь им.Ленина",https://yandex.ru/maps/-/CCUcvKxBlD,площадь Ленина,"площадь Ленина, Ангарск, Иркутская область","52.544440, 103.888079",52.54444,103.888079,,3,Ангарск
Город устремленный в будущее,"Иркутская область, г. Ангарск,  Новая Набережная","Иркутская область, г. Ангарск,  Новая Набережная",https://yandex.ru/maps/-/CCUcvOsmdB,Набережная улица,"Набережная улица, посёлок Набережный, Железнодорожное муниципальное образование, Усольский район, Иркутская область","52.614715, 103.872115",52.614715,103.872115,,4,Ангарск
Город устремленный в будущее,"Иркутская область, г. Ангарск,  ДК «Современник»","Иркутская область, г. Ангарск,  ДК «Современник»",https://yandex.ru/maps/-/CCUcvOwtCB,Дворец культуры Современник,"1, 181-й квартал, Ангарск","52.508725, 103.835152",52.508725,103.835152,,5,Ангарск
Город устремленный в будущее,"Иркутская область, г. Ангарск,   Дворец спорта «Ермак»","Иркутская область, г. Ангарск,   Дворец спорта «Ермак»",https://yandex.ru/maps/-/CCUcvOHoKC,Дворец спорта Ермак,"6, 192-й квартал, Ангарск","52.505272, 103.841460",52.505272,103.84146,,6,Ангарск
Город устремленный в будущее,"Иркутская область, г. Ангарск,  Музей часов","Иркутская область, г. Ангарск,  Музей часов",https://yandex.ru/maps/org/muzey_chasov/1007489050/,Музей часов,"13, 74-й квартал, Ангарск","52.542331, 103.889640",52.542331,103.88964,,7,Ангарск
Город устремленный в будущее,"Иркутская область, г. Ангарск,  Музей Победы","Иркутская область, г. Ангарск,  Музей Победы",https://yandex.ru/maps/org/muzey_pobedy/152666710853/,Музей Победы,"15А, микрорайон 12А, Ангарск","52.512630, 103.862075",52.51263,103.862075,,8,Ангарск
Образы Петербурга в Ангарске,"Иркутская область, г. Ангарск,  Ангарские ворота","Иркутская область, г. Ангарск,  Ангарские ворота",https://yandex.ru/maps/-/CCUcvKh6DA,площадь Ангарские Ворота,"площадь Ангарские Ворота, Ангарск, Иркутская область","52.546204, 103.894870",52.546204,103.89487,,1,Ангарск
Образы Петербурга в Ангарске,"Иркутская область, г. Ангарск,  Площадь им. Ленина","Иркутская область, г. Ангарск,  Площадь им. Ленина",https://yandex.ru/maps/-/CCUcvKxBlD,площадь Ленина,"площадь Ленина, Ангарск, Иркутская область","52.544440, 103.888079",52.54444,103.888079,,2,Ангарск
Образы Петербурга в Ангарске,"Иркутская область, г. Ангарск,  Музей минералов","Иркутская область, г. Ангарск,  Музей минералов",https://yandex.ru/maps/-/CCUcvSAN~C,Музей минералов,"4, 73-й квартал, Ангарск","52.542248, 103.884854",52.542248,103.884854,,3,Ангарск
Образы Петербурга в Ангарске,"Иркутская область, г. Ангарск,  Музей часов","Иркутская область, г. Ангарск,  Музей часов",https://yandex.ru/maps/org/muzey_chasov/1007489050/,Музей часов,"13, 74-й квартал, Ангарск","52.542331, 103.889640",52.542331,103.88964,,4,Ангарск
Образы Петербурга в Ангарске,"Иркутская область, г. Ангарск,  «Лес памяти»","Иркутская область, г. Ангарск,  «Лес памяти»",https://yandex.ru/maps/-/CCUC6BUidB,Ангарск,"Ангарск, Иркутская область","52.544358, 103.888249",52.544358,103.888249,,5,Ангарск
Образы Петербурга в Ангарске,"Иркутская область, г. Ангарск,   Ленинградский проспект","Иркутская область, г. Ангарск,   Ленинградский проспект",https://yandex.ru/maps/-/CCUcvSUUgB,Ленинградский проспект,"Ленинградский проспект, Ангарск, Иркутская область","52.512817, 103.850044",52.512817,103.850044,,6,Ангарск
Образы Петербурга в Ангарске,"Иркутская область, г. Ангарск,  Ресторан «Невский»","Иркутская область, г. Ангарск,  Ресторан «Невский»",https://yandex.ru/maps/-/CCUcvSa9xC,Ресторан Nevskiy,"12, корп. 1, 19-й микрорайон, Ангарск","52.508214, 103.848102",52.508214,103.848102,,7,Ангарск
Образы Петербурга в Ангарске,"Иркутская область, г. Ангарск,  Виртуальный «Русский музей»","Иркутская область, г. Ангарск,  Виртуальный «Русский музей»",https://yandex.ru/maps/-/CCUgIPCjsB,"18-й микрорайон, 1","18-й микрорайон, 1, Ангарск, Иркутская область","52.502074, 103.848292",52.502074,103.848292,,8,Ангарск
Образы Петербурга в Ангарске,"Иркутская область, г. Ангарск,  Художественный центр","Иркутская область, г. Ангарск,  Художественный центр",https://yandex.ru/maps/-/CCUcvSukWA,МБУК Художественный центр города Ангарска,"ул. Карла Маркса, 41/14, Ангарск","52.538111, 103.892222",52.538111,103.892222,,9,Ангарск
Образы Петербурга в Ангарске,"Иркутская область, г. Ангарск,  Улица Карла Маркса","Иркутская область, г. Ангарск,  Улица Карла Маркса",https://yandex.ru/maps/-/CCUcvSFR~A,улица Карла Маркса,"улица Карла Маркса, Ангарск, Иркутская область","52.530823, 103.897286",52.530823,103.897286,,10,Ангарск
Однодневный развлекательно-познавательный тур  «Моя Родина - Ангарск»,"Иркутская область, г. Ангарск,  Музей часов","Иркутская область, г. Ангарск,  Музей часов",https://yandex.ru/maps/org/muzey_chasov/1007489050/,Музей часов,"13, 74-й квартал, Ангарск","52.542331, 103.889640",52.542331,103.88964,,1,Ангарск
Однодневный развлекательно-познавательный тур  «Моя Родина - Ангарск»,"Иркутская область, г. Ангарск,  Монумент «Дружба народов»","Иркутская область, г. Ангарск,  Монумент «Дружба народов»",https://yandex.ru/maps/-/CCUgAXEL3A,Цветок,"Иркутская область, Ангарск, улица Глинки","52.541997, 103.882045",52.541997,103.882045,,2,Ангарск
Однодневный развлекательно-познавательный тур  «Моя Родина - Ангарск»,"Иркутская область, г. Ангарск,  Аллея Любви","Иркутская область, г. Ангарск,  Аллея Любви",https://yandex.ru/maps/-/CCUcvOUXtC,аллея Любви,"аллея Любви, Центральный парк культуры и отдыха имени 10-летия города Ангарска, Ангарск, Иркутская область","52.542945, 103.873903",52.542945,103.873903,,3,Ангарск
Однодневный развлекательно-познавательный тур  «Моя Родина - Ангарск»,"Иркутская область, г. Ангарск,  Фабрика мороженого «Ангария»","Иркутская область, г. Ангарск,  Фабрика мороженого «Ангария»",https://yandex.ru/maps/org/angariya/109907198145/,Ангария,"3/1, 108-й квартал, Ангарск","52.537620, 103.899771",52.53762,103.899771,,4,Ангарск
Однодневный развлекательно-познавательный тур  «Моя Родина - Ангарск»,"Иркутская область, г. Ангарск,  Ледовый дворец «Ермак»","Иркутская область, г. Ангарск,  Ледовый дворец «Ермак»",https://yandex.ru/maps/-/CCUcvSCMPB,Дворец спорта Ермак,"6, 192-й квартал, Ангарск","52.505272, 103.841460",52.505272,103.84146,,5,Ангарск
«Память о героизме народа в Ангарске» ,"Иркутская область, г. Ангарск,  Памятник «Голуби мира»","Иркутская область, г. Ангарск,  Памятник «Голуби мира»",https://yandex.ru/maps/org/golubi_mira/163251833473/,Голуби мира,"Иркутская область, Ангарск, микрорайон 12А","52.512202, 103.861581",52.512202,103.861581,,1,Ангарск
«Память о героизме народа в Ангарске» ,"Иркутская область, г. Ангарск,  Музей Победы","Иркутская область, г. Ангарск,  Музей Победы",https://yandex.ru/maps/org/muzey_pobedy/152666710853/,Музей Победы,"15А, микрорайон 12А, Ангарск","52.512630, 103.862075",52.51263,103.862075,,2,Ангарск
«Память о героизме народа в Ангарске» ,"Иркутская область, г. Ангарск,  Памятный камень «В честь воинов-афганцев»","Иркутская область, г. Ангарск,  Памятный камень «В честь воинов-афганцев»",https://yandex.ru/maps/-/CCUgAPWDwD,парк Победы,"парк Победы, Ангарск, Иркутская область","52.512500, 103.863889",52.5125,103.863889,,3,Ангарск
«Память о героизме народа в Ангарске» ,"Иркутская область, г. Ангарск,   «Лес памяти»","Иркутская область, г. Ангарск,   «Лес памяти»",https://yandex.ru/maps/-/CCUC6BUidB,Ангарск,"Ангарск, Иркутская область","52.544358, 103.888249",52.544358,103.888249,,4,Ангарск
«Память о героизме народа в Ангарске» ,"Иркутская область, г. Ангарск,   Памятник воину-интернационалисту","Иркутская область, г. Ангарск,   Памятник воину-интернационалисту",https://yandex.ru/maps/-/CCUcvSsg0A,Воинам-интернационалистам,"Иркутская область, Ангарск, 95-й квартал","52.537378, 103.872250",52.537378,103.87225,,5,Ангарск
«Память о героизме народа в Ангарске» ,"Иркутская область, г. Ангарск,  Улица Победы","Иркутская область, г. Ангарск,  Улица Победы",https://yandex.ru/maps/-/CCUgAXaOPA,улица Победы,"улица Победы, Ангарск, Иркутская область","52.555885, 103.880829",52.555885,103.880829,,6,Ангарск
«Память о героизме народа в Ангарске» ,"Иркутская область, г. Ангарск,  Дворец ветеранов «Победа»","Иркутская область, г. Ангарск,  Дворец ветеранов «Победа»",https://yandex.ru/maps/-/CCUgAXeCTA,Дворец ветеранов Победа,"ул. Кирова, 26, Ангарск","52.551084, 103.884741",52.551084,103.884741,,7,Ангарск
«Память о героизме народа в Ангарске» ,"Иркутская область, г. Ангарск, Сквер «Пионер»","Иркутская область, г. Ангарск, Сквер «Пионер»",https://yandex.ru/maps/-/CCUgMAXECB,сквер Пионер,"Иркутская область, Ангарск, сквер Пионер","52.551937, 103.883885",52.551937,103.883885,,8,Ангарск
«Память о героизме народа в Ангарске» ,"Иркутская область, г. Ангарск,  Стела «Ангарск – город, рождённый Победой»","Иркутская область, г. Ангарск,  Стела «Ангарск – город, рождённый Победой»",https://yandex.ru/maps/-/CCUcvSdyhD,"Ангарск — город, рождённый победой","Иркутская область, Ангарск, улица Ленина","52.548920, 103.906000",52.54892,103.906,,9,Ангарск
Дорогой Героев,"Иркутская область, Аларский район, с. Табарсук","Иркутская область, Аларский район, с. Табарсук",https://yandex.ru/maps/-/CCUcvShHcC,село Табарсук,"село Табарсук, Аларский район, Иркутская область","53.430384, 102.905968",53.430384,102.905968,,1,Аларский район
Дорогой Героев,"Иркутская область, Аларский район, с. Бахтай","Иркутская область, Аларский район, с. Бахтай",https://yandex.ru/maps/-/CCUcvSxm9C,село Бахтай,"село Бахтай, Аларский район, Иркутская область","53.504280, 103.112222",53.50428,103.112222,,2,Аларский район
Дорогой Героев,"Иркутская область, Аларский район, п. Ангарский","Иркутская область, Аларский район, п. Ангарский",https://yandex.ru/maps/-/CCUcvWAxcA,посёлок Ангарский,"посёлок Ангарский, Аларский район, Иркутская область","53.462336, 103.358899",53.462336,103.358899,,3,Аларский район
По Вампиловским местам Кутулика,"Иркутская область, Аларский район, п. Кутулик, Библиотека им. А. Вампилова","Иркутская область, Аларский район, п. Кутулик, Библиотека им. А. Вампилова",https://yandex.ru/maps/-/CCUcvWQK-C,МБУК Межпоселенческая центральная библиотека имени А.В. Вампилова,"Советская ул., 35, посёлок Кутулик","53.341426, 102.797634",53.341426,102.797634,,1,Аларский район
По Вампиловским местам Кутулика,"Иркутская область, Аларский район, п. Кутулик, памятник А. Вампилову","Иркутская область, Аларский район, п. Кутулик, памятник А. Вампилову",https://yandex.ru/maps/-/CCUgAHDdDB,А.В. Вампилов,"Советская ул., 33, посёлок Кутулик","53.341062, 102.798135",53.341062,102.798135,,2,Аларский район
По Вампиловским местам Кутулика,"Иркутская область, Аларский район, п. Кутулик, дом А. Вампилова","Иркутская область, Аларский район, п. Кутулик, дом А. Вампилова",https://yandex.ru/maps/-/CCUgAHTitC,"Советская улица, 35","Советская улица, 35, посёлок Кутулик, Аларский район, Иркутская область, 669452","53.341457, 102.797694",53.341457,102.797694,http://wiki.irkutsk.ru/index.php/Дом-музей_Вампилова,3,Аларский район
По Вампиловским местам Кутулика,"Иркутская область, Аларский район, п. Кутулик, церковь И. Предтечи","Иркутская область, Аларский район, п. Кутулик, церковь И. Предтечи",https://yandex.ru/maps/-/CCUcvWulpB,Церковь пророка Иоанна Предтечи,"Советская ул., 109, посёлок Кутулик","53.352191, 102.785046",53.352191,102.785046,,4,Аларский район
Озеро Аляты,"Иркутская область, Аларский район, с. Аляты","Иркутская область, Аларский район, с. Аляты",https://yandex.ru/maps/-/CCUcvWF0HC,село Аляты,"село Аляты, Аларский район, Иркутская область","53.210128, 102.231962",53.210128,102.231962,,1,Аларский район
Озеро Аляты,"Иркутская область, Аларский район, Озеро Аляты","Иркутская область, Аларский район, Озеро Аляты",https://yandex.ru/maps/-/CCUcvWR3pB,озеро Аляты,"озеро Аляты, Аларский район, Иркутская область","53.213375, 102.198347",53.213375,102.198347,,2,Аларский район
Озеро Аляты,"Иркутская область, Аларский район, Целебный источник Аршан","Иркутская область, Аларский район, Целебный источник Аршан",https://yandex.ru/maps/-/CCUcvWbJlC,деревня Аршан,"деревня Аршан, Аларский район, Иркутская область","53.135945, 102.756354",53.135945,102.756354,,3,Аларский район
От Кутулика до Алари,"Иркутская область, Аларский район, п. Кутулик","Иркутская область, Аларский район, п. Кутулик",https://yandex.ru/maps/-/CCUfB6AI2D,посёлок Кутулик,"посёлок Кутулик, Аларский район, Иркутская область","53.343559, 102.793984",53.343559,102.793984,,1,Аларский район
От Кутулика до Алари,"Иркутская область, Аларский район, с. Аларь","Иркутская область, Аларский район, с. Аларь",https://yandex.ru/maps/-/CCUcvWvpTB,село Аларь,"село Аларь, Аларский район, Иркутская область","53.069851, 102.543247",53.069851,102.543247,,2,Аларский район
От Кутулика до Алари,"Иркутская область, Аларский район, п. Забитуй","Иркутская область, Аларский район, п. Забитуй",https://yandex.ru/maps/-/CCUcvWGtDD,посёлок Забитуй,"посёлок Забитуй, Аларский район, Иркутская область","53.274487, 102.828956",53.274487,102.828956,,3,Аларский район
От Кутулика до Алари,"Иркутская область, Аларский район, с. Нарены","Иркутская область, Аларский район, с. Нарены",https://yandex.ru/maps/-/CCUcvWWC1A,деревня Нарены,"деревня Нарены, Аларский район, Иркутская область","53.228643, 102.800560",53.228643,102.80056,,4,Аларский район
От Кутулика до Алари,"Иркутская область, Аларский район, с. Куйта","Иркутская область, Аларский район, с. Куйта",https://yandex.ru/maps/-/CCUcvWg1gC,село Куйта,"село Куйта, Аларский район, Иркутская область","53.183075, 102.746994",53.183075,102.746994,,5,Аларский район
От Кутулика до Алари,"Иркутская область, Аларский район, с. Идеал","Иркутская область, Аларский район, с. Идеал",https://yandex.ru/maps/-/CCUcvWwnSC,село Идеал,"село Идеал, Аларский район, Иркутская область","53.158595, 102.694864",53.158595,102.694864,,6,Аларский район
От Кутулика до Алари,"Иркутская область, Аларский район, с. Алзобей","Иркутская область, Аларский район, с. Алзобей",https://yandex.ru/maps/-/CCUcvWHItB,деревня Алзобей,"деревня Алзобей, Аларский район, Иркутская область","53.114508, 102.629179",53.114508,102.629179,,7,Аларский район
От Кутулика до Алари,"Иркутская область, Аларский район, с. Аларь","Иркутская область, Аларский район, с. Аларь",https://yandex.ru/maps/-/CCUcvWvpTB,село Аларь,"село Аларь, Аларский район, Иркутская область","53.069851, 102.543247",53.069851,102.543247,,8,Аларский район
Сакральные места Алари,"Иркутская область, Аларский район, п. Кутулик, Церковь И. Предтечи","Иркутская область, Аларский район, п. Кутулик, Церковь И. Предтечи",https://yandex.ru/maps/-/CCUcvWTP-C,Церковь пророка Иоанна Предтечи,"Советская ул., 109, посёлок Кутулик","53.352191, 102.785046",53.352191,102.785046,,1,Аларский район
Сакральные места Алари,"Иркутская область, Аларский район, п. Кутулик, Кутуликский дацан","Иркутская область, Аларский район, п. Кутулик, Кутуликский дацан",https://yandex.ru/maps/-/CCUgAHH9DD,Аларский дацан,"Иркутская область, Аларский район","53.361313, 102.791526",53.361313,102.791526,,2,Аларский район
Сакральные места Алари,"Иркутская область, Аларский район, с. Шаховск, мечеть","Иркутская область, Аларский район, с. Шаховск, мечеть",https://yandex.ru/maps/-/CCUgAHT9lC,"Центральная улица, 39","Центральная улица, 39, деревня Шаховская, Аларский район, Иркутская область, 669451","53.524220, 102.807378",53.52422,102.807378,,3,Аларский район
Сакральные места Алари 1,"Иркутская область, Аларский район, п. Кутулик","Иркутская область, Аларский район, п. Кутулик",https://yandex.ru/maps/-/CCUfB6AI2D,посёлок Кутулик,"посёлок Кутулик, Аларский район, Иркутская область","53.343559, 102.793984",53.343559,102.793984,,1,Аларский район
Сакральные места Алари 2,"Иркутская область, Аларский район, с. Александровск","Иркутская область, Аларский район, с. Александровск",https://yandex.ru/maps/-/CCUcv0A7cA,село Александровск,"село Александровск, Аларский район, Иркутская область","53.338366, 102.657333",53.338366,102.657333,,1,Аларский район
Сакральные места Алари 3,"Иркутская область, Аларский район, с. Иваническ","Иркутская область, Аларский район, с. Иваническ",https://yandex.ru/maps/-/CCUgAHXwOB,Администрация муниципального образования Иваническ,"Юбилейная ул., 7, село Иваническое","53.200512, 102.337146",53.200512,102.337146,,1,Аларский район
Сакральные места Алари 4,"Иркутская область, Аларский район, с. Аляты","Иркутская область, Аларский район, с. Аляты",https://yandex.ru/maps/-/CCUcvWF0HC,село Аляты,"село Аляты, Аларский район, Иркутская область","53.210128, 102.231962",53.210128,102.231962,,1,Аларский район
Сакральные места Алари 2,"Иркутская область, Аларский район, п. Кутулик ","Иркутская область, Аларский район, п. Кутулик ",https://yandex.ru/maps/-/CCUfB6AI2D,посёлок Кутулик,"посёлок Кутулик, Аларский район, Иркутская область","53.343559, 102.793984",53.343559,102.793984,,2,Аларский район
Сакральные места Алари 3,"Иркутская область, Аларский район, с. Бахтай","Иркутская область, Аларский район, с. Бахтай",https://yandex.ru/maps/-/CCUcvSxm9C,село Бахтай,"село Бахтай, Аларский район, Иркутская область","53.504280, 103.112222",53.50428,103.112222,,2,Аларский район
Сакральные места Алари 4,"Иркутская область, Аларский район, д. Нельхай","Иркутская область, Аларский район, д. Нельхай",https://yandex.ru/maps/-/CCUcv0enWB,деревня Нельхай,"деревня Нельхай, Аларский район, Иркутская область","53.357685, 103.130161",53.357685,103.130161,,2,Аларский район
Сакральные места Алари 3,"Иркутская область, Аларский район, п. Кутулик","Иркутская область, Аларский район, п. Кутулик",https://yandex.ru/maps/-/CCUfB6AI2D,посёлок Кутулик,"посёлок Кутулик, Аларский район, Иркутская область","53.343559, 102.793984",53.343559,102.793984,,3,Аларский район
Сакральные места Алари 4,"Иркутская область, Аларский район, п. Забитуй ","Иркутская область, Аларский район, п. Забитуй ",https://yandex.ru/maps/-/CCUcvWGtDD,посёлок Забитуй,"посёлок Забитуй, Аларский район, Иркутская область","53.274487, 102.828956",53.274487,102.828956,,3,Аларский район
Сакральные места Алари 5,"Иркутская область, Аларский район, с. Куйта","Иркутская область, Аларский район, с. Куйта",https://yandex.ru/maps/-/CCUcvWg1gC,село Куйта,"село Куйта, Аларский район, Иркутская область","53.183075, 102.746994",53.183075,102.746994,,1,Аларский район
Сакральные места Алари 6,"Иркутская область, Аларский район, с. Идеал","Иркутская область, Аларский район, с. Идеал",https://yandex.ru/maps/-/CCUcvWwnSC,село Идеал,"село Идеал, Аларский район, Иркутская область","53.158595, 102.694864",53.158595,102.694864,,1,Аларский район
Сакральные места Алари 7,"Иркутская область, Аларский район, с. Алзобей","Иркутская область, Аларский район, с. Алзобей",https://yandex.ru/maps/-/CCUcvWHItB,деревня Алзобей,"деревня Алзобей, Аларский район, Иркутская область","53.114508, 102.629179",53.114508,102.629179,,1,Аларский район
Сакральные места Алари 8,"Иркутская область, Аларский район, с. Аларь","Иркутская область, Аларский район, с. Аларь",https://yandex.ru/maps/-/CCUcvWvpTB,село Аларь,"село Аларь, Аларский район, Иркутская область","53.069851, 102.543247",53.069851,102.543247,,1,Аларский район
Сакральные места Алари 9,"Иркутская область, Аларский район, д. Улзет ","Иркутская область, Аларский район, д. Улзет ",https://yandex.ru/maps/-/CCUcv0BIsA,деревня Улзет,"деревня Улзет, Аларский район, Иркутская область","53.110092, 102.505311",53.110092,102.505311,,1,Аларский район
Сакральные места Алари 10,"Иркутская область, Аларский район, «Баторова роща»","Иркутская область, Аларский район, «Баторова роща»",https://yandex.ru/maps/-/CCUcvKSJhC,Аларский район,"Аларский район, Иркутская область","53.317623, 102.758573",53.317623,102.758573,,1,Аларский район
Сакральные места Алари 11,"Иркутская область, Аларский район, д. Куркат","Иркутская область, Аларский район, д. Куркат",https://yandex.ru/maps/-/CCUcvKWk9D,деревня Куркат,"деревня Куркат, Аларский район, Иркутская область","53.173679, 102.425307",53.173679,102.425307,,1,Аларский район
Сакральные места Алари 12,"Иркутская область, Аларский район, д. Кукунур","Иркутская область, Аларский район, д. Кукунур",https://yandex.ru/maps/-/CCUcvKgmkB,деревня Кукунур,"деревня Кукунур, Аларский район, Иркутская область","53.186447, 102.513144",53.186447,102.513144,,1,Аларский район
Сакральные места Алари 13,"Иркутская область, Аларский район, д. Готол","Иркутская область, Аларский район, д. Готол",https://yandex.ru/maps/-/CCUcvKsH8C,деревня Готол,"деревня Готол, Аларский район, Иркутская область","53.189048, 102.539725",53.189048,102.539725,,1,Аларский район
Сакральные места Алари 14,"Иркутская область, Аларский район, д. Ныгда","Иркутская область, Аларский район, д. Ныгда",https://yandex.ru/maps/-/CCUcvKDjhC,деревня Ныгда,"деревня Ныгда, Аларский район, Иркутская область","53.017212, 102.682512",53.017212,102.682512,,1,Аларский район
Ретро-кафе на колесах,"Иркутская область, г. Свирск, Смотровая площадка «Орёл»","Иркутская область, г. Свирск, Смотровая площадка «Орёл»",https://yandex.ru/maps/-/CCUgAHhmtB,Смотровая площадка,"Иркутская область, Черемховский район, Зерновское муниципальное образование","53.053813, 103.331960",53.053813,103.33196,,1,Свирск
Ретро-кафе на колесах,"Иркутская область, г. Свирск, Мемориал «Память»","Иркутская область, г. Свирск, Мемориал «Память»",https://yandex.ru/maps/-/CCUgIPWzsD,Мемориал погибшим в Великой Отечественной войне 1941-1945 гг,"Иркутская область, Свирск","53.075281, 103.342158",53.075281,103.342158,,2,Свирск
Ретро-кафе на колесах,"Иркутская область, г. Свирск, ФОК «Олимп»","Иркутская область, г. Свирск, ФОК «Олимп»",https://yandex.ru/maps/-/CCUgIPcf0C,Физкультурно-оздоровительный комплекс Олимп,"ул. Щорса, 7","53.074605, 103.340547",53.074605,103.340547,,3,Свирск
Ретро-кафе на колесах,"Иркутская область, г. Свирск, Сквер «Творимир»","Иркутская область, г. Свирск, Сквер «Творимир»",https://yandex.ru/maps/-/CCUgAHt4xC,Аллея скульптур,"Иркутская область, Свирск","53.075697, 103.338868",53.075697,103.338868,,4,Свирск
Ретро-кафе на колесах,"Иркутская область, г. Свирск, Смотровая площадка «Лебеди»","Иркутская область, г. Свирск, Смотровая площадка «Лебеди»",https://yandex.ru/maps/-/CCUgAHrD~D,Микрорайон,"Иркутская область, Свирск, улица Мира","53.083842, 103.328742",53.083842,103.328742,,5,Свирск
Ретро-кафе на колесах,"Иркутская область, г. Свирск, Паромная переправа","Иркутская область, г. Свирск, Паромная переправа",https://yandex.ru/maps/-/CCUgAHDSXC,паромная переправа Свирск,"паромная переправа Свирск, Черемховский район, Иркутская область","53.098658, 103.354892",53.098658,103.354892,,6,Свирск
Ретро-кафе на колесах,"Иркутская область, г. Свирск, Парк КиО","Иркутская область, г. Свирск, Парк КиО",https://yandex.ru/maps/-/CCUcvOaAwB,Парк культуры и отдыха г. Свирска,"ул. Ленина, 2/4, Свирск","53.072904, 103.347737",53.072904,103.347737,,7,Свирск
Свирская зима,"Иркутская область, г. Свирск, Сквер «Творимир»","Иркутская область, г. Свирск, Сквер «Творимир»",https://yandex.ru/maps/-/CCUgAHt4xC,Аллея скульптур,"Иркутская область, Свирск","53.075697, 103.338868",53.075697,103.338868,,1,Свирск
Свирская зима,"Иркутская область, г. Свирск, ДК «Русь»","Иркутская область, г. Свирск, ДК «Русь»",https://yandex.ru/maps/-/CCUgIPSRoB,Русь,"ул. Хасановских Боёв, 1, Свирск","53.076113, 103.338438",53.076113,103.338438,,2,Свирск
Свирская зима,"Иркутская область, г. Свирск, Смотровая площадка «Орёл»","Иркутская область, г. Свирск, Смотровая площадка «Орёл»",https://yandex.ru/maps/-/CCUgAHhmtB,Смотровая площадка,"Иркутская область, Черемховский район, Зерновское муниципальное образование","53.053813, 103.331960",53.053813,103.33196,,3,Свирск
Свирская зима,"Иркутская область, г. Свирск, Свирская Ривьера","Иркутская область, г. Свирск, Свирская Ривьера",https://yandex.ru/maps/-/CCUcvOui~A,Свирская ривьера,"Иркутская область, городской округ Свирск","53.074000, 103.347446",53.074,103.347446,,4,Свирск
Свирская зима,"Иркутская область, г. Свирск, Парк культуры и отдых","Иркутская область, г. Свирск, Парк культуры и отдых",https://yandex.ru/maps/-/CCUcvOaAwB,Парк культуры и отдыха г. Свирска,"ул. Ленина, 2/4, Свирск","53.072904, 103.347737",53.072904,103.347737,,5,Свирск
Прогулки в прошлое,"Иркутская область, г. Свирск, ДК «Русь»","Иркутская область, г. Свирск, ДК «Русь»",https://yandex.ru/maps/-/CCUgIPSRoB,Русь,"ул. Хасановских Боёв, 1, Свирск","53.076113, 103.338438",53.076113,103.338438,,1,Свирск
Прогулки в прошлое,"Иркутская область, г. Свирск, Сквер «Творимир»","Иркутская область, г. Свирск, Сквер «Творимир»",https://yandex.ru/maps/-/CCUgAHt4xC,Аллея скульптур,"Иркутская область, Свирск","53.075697, 103.338868",53.075697,103.338868,,2,Свирск
Прогулки в прошлое,"Иркутская область, г. Свирск, Улица Дзержинского","Иркутская область, г. Свирск, Улица Дзержинского",https://yandex.ru/maps/-/CCUcvOR4XA,улица Дзержинского,"улица Дзержинского, Свирск, Иркутская область","53.076165, 103.343879",53.076165,103.343879,,3,Свирск
Прогулки в прошлое,"Иркутская область, г. Свирск, Школа №1","Иркутская область, г. Свирск, Школа №1",https://yandex.ru/maps/org/shkola_1/50471536001/,Школа № 1,"ул. Дзержинского, 4, Свирск","53.076678, 103.340435",53.076678,103.340435,,4,Свирск
Прогулки в прошлое,"Иркутская область, г. Свирск, Мемориал «Память»","Иркутская область, г. Свирск, Мемориал «Память»",https://yandex.ru/maps/-/CCUgIPWzsD,Мемориал погибшим в Великой Отечественной войне 1941-1945 гг,"Иркутская область, Свирск","53.075281, 103.342158",53.075281,103.342158,,5,Свирск
Прогулки в прошлое,"Иркутская область, г. Свирск, Свирские куранты","Иркутская область, г. Свирск, Свирские куранты",https://yandex.ru/maps/-/CCUgAHhJPA,Жанровая скульптура,"Иркутская область, Свирск, улица Ленина","53.076319, 103.346051",53.076319,103.346051,,6,Свирск
Прогулки в прошлое,"Иркутская область, г. Свирск, Булыжная мостовая","Иркутская область, г. Свирск, Булыжная мостовая",https://yandex.ru/maps/-/CCUcvKxUgD,Свирск,"Свирск, Иркутская область","53.066572, 103.342253",53.066572,103.342253,,7,Свирск
Прогулки в прошлое,"Иркутская область, г. Свирск, Набережная","Иркутская область, г. Свирск, Набережная",https://yandex.ru/maps/-/CCUgAHtehC,городской округ Свирск,"городской округ Свирск, Иркутская область","53.075756, 103.347124",53.075756,103.347124,,8,Свирск
Прогулки в прошлое,"Иркутская область, г. Свирск, Сквер моряков и речников","Иркутская область, г. Свирск, Сквер моряков и речников",https://yandex.ru/maps/-/CCUcvKxUgD,Свирск,"Свирск, Иркутская область","53.066572, 103.342253",53.066572,103.342253,,9,Свирск
Прогулки в прошлое,"Иркутская область, г. Свирск, Поющее дерево","Иркутская область, г. Свирск, Поющее дерево",https://yandex.ru/maps/-/CCUgAXqSSB,Поющее дерево,"Иркутская область, городской округ Свирск","53.071456, 103.348888",53.071456,103.348888,,10,Свирск
Обзорная экскурсия по городу Свирску,"Иркутская область, г. Свирск, Смотровая площадка «Орёл»","Иркутская область, г. Свирск, Смотровая площадка «Орёл»",https://yandex.ru/maps/-/CCUgAHhmtB,Смотровая площадка,"Иркутская область, Черемховский район, Зерновское муниципальное образование","53.053813, 103.331960",53.053813,103.33196,,1,Свирск
Обзорная экскурсия по городу Свирску,"Иркутская область, г. Свирск, Свирская Ривьера","Иркутская область, г. Свирск, Свирская Ривьера",https://yandex.ru/maps/-/CCUcvOui~A,Свирская ривьера,"Иркутская область, городской округ Свирск","53.074000, 103.347446",53.074,103.347446,,2,Свирск
Обзорная экскурсия по городу Свирску,"Иркутская область, г. Свирск, Парк КиО","Иркутская область, г. Свирск, Парк КиО",https://yandex.ru/maps/-/CCUcvOaAwB,Парк культуры и отдыха г. Свирска,"ул. Ленина, 2/4, Свирск","53.072904, 103.347737",53.072904,103.347737,,3,Свирск
Обзорная экскурсия по городу Свирску,"Иркутская область, г. Свирск, Музей мышьяка","Иркутская область, г. Свирск, Музей мышьяка",https://yandex.ru/maps/-/CCUgMUrPsA,Музей мышьяка,"ул. Ленина, 37, Свирск","53.077464, 103.345552",53.077464,103.345552,,4,Свирск
Обзорная экскурсия по городу Свирску,"Иркутская область, г. Свирск, Сквер «Творимир»","Иркутская область, г. Свирск, Сквер «Творимир»",https://yandex.ru/maps/-/CCUgAHt4xC,Аллея скульптур,"Иркутская область, Свирск","53.075697, 103.338868",53.075697,103.338868,,5,Свирск
Обзорная экскурсия по городу Свирску,"Иркутская область, г. Свирск, Мемориал «Память»","Иркутская область, г. Свирск, Мемориал «Память»",https://yandex.ru/maps/-/CCUgIPWzsD,Мемориал погибшим в Великой Отечественной войне 1941-1945 гг,"Иркутская область, Свирск","53.075281, 103.342158",53.075281,103.342158,,6,Свирск
Обзорная экскурсия по городу Свирску,"Иркутская область, г. Свирск, Смотровая площадка «Лебеди»","Иркутская область, г. Свирск, Смотровая площадка «Лебеди»",https://yandex.ru/maps/-/CCUgAHrD~D,Микрорайон,"Иркутская область, Свирск, улица Мира","53.083842, 103.328742",53.083842,103.328742,,7,Свирск
Обзорная автобусная экскурсия по г. Братску,"Иркутская область, г. Братск, памятник Пушкину","Иркутская область, г. Братск, памятник Пушкину",https://yandex.ru/maps/org/a_s_pushkin/16842131136/,А.С. Пушкин,"Иркутская область, Братск, улица Кирова","56.153306, 101.628864",56.153306,101.628864,,1,Братск
Обзорная автобусная экскурсия по г. Братску,"Иркутская область, г. Братск,  памятник Жукову","Иркутская область, г. Братск,  памятник Жукову",https://yandex.ru/maps/-/CCUcvOD0hB,Памятник маршалу Г.К. Жукову ,"Иркутская область, Братск, жилой район Центральный, 19-й микрорайон","56.148972, 101.644187",56.148972,101.644187,,2,Братск
Обзорная автобусная экскурсия по г. Братску,"Иркутская область, г. Братск, Мемориал Славы","Иркутская область, г. Братск, Мемориал Славы",https://yandex.ru/maps/org/memorial_slavy/175992850887/,Мемориал Славы,"Иркутская область, городской округ Братск","56.153934, 101.648199",56.153934,101.648199,,3,Братск
Обзорная автобусная экскурсия по г. Братску,"Иркутская область, г. Братск, Поселок Энергетик","Иркутская область, г. Братск, Поселок Энергетик",https://yandex.ru/maps/-/CCUcvOdEGB,жилой район Энергетик,"жилой район Энергетик, Братск, Иркутская область","56.311456, 101.749971",56.311456,101.749971,,4,Братск
Обзорная автобусная экскурсия по г. Братску,"Иркутская область, г. Братск, Братская ГЭС","Иркутская область, г. Братск, Братская ГЭС",https://yandex.ru/maps/-/CCUcvOh8gD,Братская ГЭС,"Иркутская область, городской округ Братск, А-331 Вилюй, 238-й километр, 331","56.291888, 101.780151",56.291888,101.780151,,5,Братск
Обзорная автобусная экскурсия по г. Братску,"Иркутская область, г. Братск, Музей Братск ГЭСстрой","Иркутская область, г. Братск, Музей Братск ГЭСстрой",https://yandex.ru/maps/org/muzey_istoriii_bratskgesstroya_i_goroda_bratska/1046440327/,Музей историии Братскгэсстроя и города Братска,"ул. Гидростроителей, 54, поселок Падун","56.291296, 101.726238",56.291296,101.726238,,6,Братск
Обзорная автобусная экскурсия по г. Братску,"Иркутская область, г. Братск, Памятник С.Б. Погодаева ","Иркутская область, г. Братск, Памятник С.Б. Погодаева ",https://yandex.ru/maps/-/CCUgAHdQCD,С.Б. Погодаев,"Иркутская область, Братск, 1-й микрорайон","56.304931, 101.759226",56.304931,101.759226,,7,Братск
Обзорная автобусная экскурсия по г. Братску,"Иркутская область, г. Братск, Усадьба «Конный мир»","Иркутская область, г. Братск, Усадьба «Конный мир»",https://yandex.ru/maps/org/usadba_konny_mir/1831885624/,Усадьба Конный мир,"19, Братск","56.290841, 101.652102",56.290841,101.652102,,8,Братск
Обзорная автобусная экскурсия по г. Братску,"Иркутская область, г. Братск, Ангарская деревня","Иркутская область, г. Братск, Ангарская деревня",https://yandex.ru/maps/-/CCUcvSURCB,территория Ангарская деревня,"территория Ангарская деревня, городской округ Братск, Иркутская область","56.220919, 101.680945",56.220919,101.680945,,9,Братск
Обзорная автобусная экскурсия по г. Братску,"Иркутская область, г. Братск, Досуговый центр «Формула»","Иркутская область, г. Братск, Досуговый центр «Формула»",https://yandex.ru/maps/-/CCUgM4d9hB,Формула,"Комсомольская ул., 37","56.158201, 101.612723",56.158201,101.612723,,10,Братск
Маршрут «Зеленая линия» ,"Иркутская область, г. Иркутск, Памятник императору Александру III","Иркутская область, г. Иркутск, Памятник императору Александру III",https://yandex.ru/maps/-/CCUcvSqYkC,Александр III,"Иркутск, Площадь у памятника Александру III","52.275502, 104.277159",52.275502,104.277159,,1,Иркутск
Маршрут «Зеленая линия» ,"Иркутская область, г. Иркутск, Белый Дом (Центр историко-культурного наследия ИГУ)","Иркутская область, г. Иркутск, Белый Дом (Центр историко-культурного наследия ИГУ)",https://yandex.ru/maps/-/CCUcvSu1PA,Центр по сохранению историко-культурного наследия Иркутской области,"ул. 5-й Армии, 2, Иркутск","52.287687, 104.266880",52.287687,104.26688,,2,Иркутск
Маршрут «Зеленая линия» ,"Иркутская область, г. Иркутск, Краеведческий музей (Восточно-Сибирский отдел Императорского Русского Географического общества)","Иркутская область, г. Иркутск, Краеведческий музей (Восточно-Сибирский отдел Императорского Русского Географического общества)",https://yandex.ru/maps/org/irkutskiy_oblastnoy_krayevedcheskiy_muzey_im_n_n_muravyeva_amurskogo_otdel_istorii/1053307818/,Иркутский областной краеведческий музей им. Н. Н. Муравьева-Амурского Отдел истории,"ул. Карла Маркса, 2, Иркутск","52.275740, 104.278115",52.27574,104.278115,,3,Иркутск
Маршрут «Зеленая линия» ,"Иркутская область, г. Иркутск, Драматический театр им. Н.П. Охлопкова","Иркутская область, г. Иркутск, Драматический театр им. Н.П. Охлопкова",https://yandex.ru/maps/-/CCUcvSVaOC,Иркутский академический драматический театр имени Н.П. Охлопкова,"ул. Карла Маркса, 14, Иркутск","52.277443, 104.281842",52.277443,104.281842,,4,Иркутск
Маршрут «Зеленая линия» ,"Иркутская область, г. Иркутск, Памятник В.И. Ленину","Иркутская область, г. Иркутск, Памятник В.И. Ленину",https://yandex.ru/maps/org/vladimir_ilyich_lenin/41668198421/,Владимир Ильич Ленин,"Иркутск, улица Ленина","52.279398, 104.282672",52.279398,104.282672,,5,Иркутск
Маршрут «Зеленая линия» ,"Иркутская область, г. Иркутск,  Поликлиника №2 (Иркутское отделение русско-азиатского банка) ","Иркутская область, г. Иркутск,  Поликлиника №2 (Иркутское отделение русско-азиатского банка) ",https://yandex.ru/maps/org/ogbuz_igkb_3_poliklinika/1016604419/,Русско-Азиатский банк,"ул. Ленина, 38, Иркутск","52.279934, 104.282100",52.279934,104.2821,,6,Иркутск
Маршрут «Зеленая линия» ,"Иркутская область, г. Иркутск, Байкальский государственный университет (ранее – Александро-Мариинское училище)","Иркутская область, г. Иркутск, Байкальский государственный университет (ранее – Александро-Мариинское училище)",https://yandex.ru/maps/-/CCUcvSvxHD,ФГБОУ ВО Байкальский Государственный университет,"ул. Ленина, 11, корп. 3, Иркутск","52.281438, 104.283060",52.281438,104.28306,,7,Иркутск
Маршрут «Зеленая линия» ,"Иркутская область, г. Иркутск, Церковь во имя Михаила Архангела (св. Харлампия)","Иркутская область, г. Иркутск, Церковь во имя Михаила Архангела (св. Харлампия)",https://yandex.ru/profile/-/CCUgMEEz2B,Михаило-Архангельская Харлампиевская церковь,"ул. 5-й Армии, 59","52.281465, 104.277489",52.281465,104.277489,,8,Иркутск
Маршрут «Зеленая линия» ,"Иркутская область, г. Иркутск, Художественный музей им. В.П. Сукачева (ранее – мужская классическая гимназия)","Иркутская область, г. Иркутск, Художественный музей им. В.П. Сукачева (ранее – мужская классическая гимназия)",https://yandex.ru/maps/org/gbuk_irkutskiy_oblastnoy_khudozhestvenny_muzey_imeni_v_p_sukachyova/1194546146/,ГБУК Иркутский областной художественный музей имени В. П. Сукачёва,"ул. Ленина, 5, Иркутск","52.283958, 104.281599",52.283958,104.281599,,9,Иркутск
Маршрут «Зеленая линия» ,"Иркутская область, г. Иркутск, офтальмологическое отделение факультетских клиник ИГМУ (Базановский воспитательный дом)","Иркутская область, г. Иркутск, офтальмологическое отделение факультетских клиник ИГМУ (Базановский воспитательный дом)",https://yandex.ru/maps/org/bazanovskiy_vospitatelny_dom/113858668119/,Базановский воспитательный дом,"ул. Свердлова, 14, Иркутск","52.284076, 104.280413",52.284076,104.280413,,10,Иркутск
Маршрут «Зеленая линия» ,"Иркутская область, г. Иркутск,  Памятник русско-японской дружбы","Иркутская область, г. Иркутск,  Памятник русско-японской дружбы",https://yandex.ru/maps/-/CCUgMBA7DA,Монумент российско-японских связей," ул. Канадзавы, 1, Иркутск","52.285345, 104.278100",52.285345,104.2781,,11,Иркутск
Маршрут «Зеленая линия» ,"Иркутская область, г. Иркутск, Администрация г. Иркутска","Иркутская область, г. Иркутск, Администрация г. Иркутска",https://yandex.ru/maps/-/CCUgMBQKcC,Администрация города Иркутска,"ул. Ленина, 14, Иркутск","52.286912, 104.279713",52.286912,104.279713,,12,Иркутск
Маршрут «Зеленая линия» ,"Иркутская область, г. Иркутск, Сквер им. С.М. Кирова","Иркутская область, г. Иркутск, Сквер им. С.М. Кирова",https://yandex.ru/maps/-/CCUcvSHU1D,Сквер имени Кирова,"Иркутск, сквер имени Кирова","52.286737, 104.281224",52.286737,104.281224,,13,Иркутск
Маршрут «Зеленая линия» ,"Иркутская область, г. Иркутск, Правительство Иркутской области (ранее – Дом Советов)","Иркутская область, г. Иркутск, Правительство Иркутской области (ранее – Дом Советов)",https://yandex.ru/maps/-/CCUgMBu5-A,Правительство Иркутской области,"ул. Ленина, 1А, Иркутск","52.290252, 104.280379",52.290252,104.280379,,14,Иркутск
Маршрут «Зеленая линия» ,"Иркутская область, г. Иркутск, Органный зал Иркутской филармонии (Римско-католический костёл)  ","Иркутская область, г. Иркутск, Органный зал Иркутской филармонии (Римско-католический костёл)  ",https://yandex.ru/maps/org/rimsko_katolicheskaya_tserkov/37730042596/,Римско-католическая церковь,"ул. Сухэ-Батора, 1, Иркутск","52.290448, 104.282409",52.290448,104.282409,,15,Иркутск
Маршрут «Зеленая линия» ,"Иркутская область, г. Иркутск, Спасская церковь","Иркутская область, г. Иркутск, Спасская церковь",https://yandex.ru/maps/-/CCUcvSh6wD,Церковь Спаса Нерукотворного Образа,"ул. Сухэ-Батора, 2, Иркутск","52.291117, 104.281304",52.291117,104.281304,,16,Иркутск
Маршрут «Зеленая линия» ,"Иркутская область, г. Иркутск, Вечный огонь (мемориальный комплекс «Иркутяне в годы Великой Отечественной войны 1941–1945 гг.»)","Иркутская область, г. Иркутск, Вечный огонь (мемориальный комплекс «Иркутяне в годы Великой Отечественной войны 1941–1945 гг.»)",https://yandex.ru/maps/org/vechny_ogon/207380747367/,Вечный огонь,"Иркутск, сквер У Вечного Огня","52.290968, 104.280236",52.290968,104.280236,,17,Иркутск
Маршрут «Зеленая линия» ,"Иркутская область, г. Иркутск, Собор Богоявления","Иркутская область, г. Иркутск, Собор Богоявления",https://yandex.ru/maps/-/CCUcvWAjoA,Собор Богоявления Господня,"ул. Сухэ-Батора, 1А, Иркутск","52.292250, 104.282525",52.29225,104.282525,,18,Иркутск
Маршрут «Зеленая линия» ,"Иркутская область, г. Иркутск, Московские триумфальные ворота","Иркутская область, г. Иркутск, Московские триумфальные ворота",https://yandex.ru/maps/-/CCUcvWQetC,Московские ворота,"Иркутск, улица Нижняя Набережная","52.293581, 104.286167",52.293581,104.286167,,19,Иркутск
Маршрут «Зеленая линия» ,"Иркутская область, г. Иркутск, Городской выставочный центр им. В.С. Рогаля","Иркутская область, г. Иркутск, Городской выставочный центр им. В.С. Рогаля",https://yandex.ru/maps/-/CCUcvWUd1B,Городской выставочный центр имени В. С. Рогаля,"ул. Халтурина, 3, Иркутск","52.289413, 104.287338",52.289413,104.287338,,20,Иркутск
Маршрут «Зеленая линия» ,"Иркутская область, г. Иркутск, Иркутский областной художественный колледж (Дом И.М. Файнберга). ","Иркутская область, г. Иркутск, Иркутский областной художественный колледж (Дом И.М. Файнберга). ",https://yandex.ru/maps/org/dom_i_m_faynberga/245206461579/,Дом И.М. Файнберга,"ул. Халтурина, 1, Иркутск","52.288928, 104.286780",52.288928,104.28678,,21,Иркутск
Маршрут «Зеленая линия» ,"Иркутская область, г. Иркутск, Дворец детского и юношеского творчества (Особняк А.Ф. Второва). ","Иркутская область, г. Иркутск, Дворец детского и юношеского творчества (Особняк А.Ф. Второва). ",https://yandex.ru/maps/-/CCUcvWqlCB,Дворец детского и юношеского творчества,"ул. Желябова, 5, Иркутск","52.287805, 104.285361",52.287805,104.285361,,22,Иркутск
Маршрут «Зеленая линия» ,"Иркутская область, г. Иркутск, Иркутский областной суд (Усадьба Трапезниковых)","Иркутская область, г. Иркутск, Иркутский областной суд (Усадьба Трапезниковых)",https://yandex.ru/maps/-/CCUcvWBK2B,Иркутский областной суд,"Байкальская ул., 121, Иркутск","52.264456, 104.311439",52.264456,104.311439,,23,Иркутск
Маршрут «Зеленая линия» ,"Иркутская область, г. Иркутск, Гостиница «Гранд-Отель» (ныне – торговое здание)","Иркутская область, г. Иркутск, Гостиница «Гранд-Отель» (ныне – торговое здание)",https://yandex.ru/maps/-/CCUgIPC0SB,"улица Литвинова, 1","улица Литвинова, 1, Иркутск, 664003","52.284547, 104.288431",52.284547,104.288431,,24,Иркутск
Маршрут «Зеленая линия» ,"Иркутская область, г. Иркутск, отдел природы Краеведческого музея (Торговый дом Макушина и Посохина)","Иркутская область, г. Иркутск, отдел природы Краеведческого музея (Торговый дом Макушина и Посохина)",https://yandex.ru/maps/org/otdel_prirody_irkutskogo_oblastnogo_krayevedcheskogo_muzeya/215313713078/,Отдел природы Иркутского областного краеведческого музея,"ул. Карла Маркса, 11, Иркутск","52.281413, 104.283974",52.281413,104.283974,,25,Иркутск
Маршрут «Зеленая линия» ,"Иркутская область, г. Иркутск, Кинотеатр «Художественный» ","Иркутская область, г. Иркутск, Кинотеатр «Художественный» ",https://yandex.ru/maps/-/CCUcvWbPsC,Художественный,"ул. Карла Маркса, 24, Иркутск","52.280849, 104.283764",52.280849,104.283764,,26,Иркутск
Маршрут «Зеленая линия» ,"Иркутская область, г. Иркутск, Театр Юного Зрителя им. А.В. Вампилова","Иркутская область, г. Иркутск, Театр Юного Зрителя им. А.В. Вампилова",https://yandex.ru/maps/-/CCUcvWrVCB,Иркутский областной театр юного зрителя имени А. Вампилова,"ул. Ленина, 23, Иркутск","52.277537, 104.285267",52.277537,104.285267,,27,Иркутск
Маршрут «Зеленая линия» ,"Иркутская область, г. Иркутск, Иркутская областная филармония (ранее – Общественное собрание)","Иркутская область, г. Иркутск, Иркутская областная филармония (ранее – Общественное собрание)",https://yandex.ru/maps/-/CCUcvWCLXC,Иркутская областная филармония Концертный зал,"ул. Дзержинского, 2, Иркутск","52.278016, 104.285322",52.278016,104.285322,,28,Иркутск
Маршрут «Зеленая линия» ,"Иркутская область, г. Иркутск, Крестовоздвиженская церковь","Иркутская область, г. Иркутск, Крестовоздвиженская церковь",https://yandex.ru/maps/-/CCUcvWSC2B,Церковь Воздвижения Честного Креста Господня,"ул. Седова, 1, Иркутск","52.276351, 104.288324",52.276351,104.288324,,29,Иркутск
Маршруты Иркутска: исторический центр ,"Иркутск, Спасская церковь. Крипта над захоронением останков первых жителей Иркутска у Спасской церкви",Спасская церковь. Крипта над захоронением останков первых жителей Иркутска у Спасской церкви,https://yandex.ru/maps/-/CCUcvWcgcC,Спасо-Преображенский храм,"пер. Волконского, 1, Иркутск","52.287673, 104.303638",52.287673,104.303638,,1,Иркутск
Маршруты Иркутска: исторический центр ,"Иркутская область, г. Иркутск, Римско-католический костёл Успения Божией Матери","Иркутская область, г. Иркутск, Римско-католический костёл Успения Божией Матери",https://yandex.ru/maps/-/CCUcvSDBPB,Римско-католическая церковь,"ул. Сухэ-Батора, 1, Иркутск","52.290448, 104.282409",52.290448,104.282409,,2,Иркутск
Маршруты Иркутска: исторический центр ,"Иркутская область, г. Иркутск, Собор Богоявления Господня","Иркутская область, г. Иркутск, Собор Богоявления Господня",https://yandex.ru/maps/-/CCUcvWw~0A,Собор Богоявления Господня,"ул. Сухэ-Батора, 1А, Иркутск","52.292250, 104.282525",52.29225,104.282525,,3,Иркутск
Маршруты Иркутска: исторический центр ,"Иркутская область, г. Иркутск, Памятник Якову Похабову","Иркутская область, г. Иркутск, Памятник Якову Похабову",https://yandex.ru/maps/org/osnovatelyam_irkutska/93372538147/,Основателям Иркутска,"Иркутск, улица Нижняя Набережная","52.292641, 104.281658",52.292641,104.281658,,4,Иркутск
Маршруты Иркутска: исторический центр ,"Иркутская область, г. Иркутск, Бюст Афанасия Павлантьевича Белобородова","Иркутская область, г. Иркутск, Бюст Афанасия Павлантьевича Белобородова",https://yandex.ru/maps/-/CCUgAHXj-D,Памятник А. П. Белобородову,"Иркутск, сквер У Вечного Огня","52.291691, 104.280032",52.291691,104.280032,,5,Иркутск
Маршруты Иркутска: исторический центр ,"Иркутская область, г. Иркутск, Сукачевский сад","Иркутская область, г. Иркутск, Сукачевский сад",https://yandex.ru/maps/-/CCUgIPCGtA,сквер у Вечного Огня,"сквер у Вечного Огня, Иркутск","52.291378, 104.279276",52.291378,104.279276,,6,Иркутск
Маршруты Иркутска: исторический центр ,"Иркутская область, г. Иркутск, Мемориал иркутянам, погибшим в Великой Отечественной Войне","Иркутская область, г. Иркутск, Мемориал иркутянам, погибшим в Великой Отечественной Войне",https://yandex.ru/maps/-/CCUgIPWWOA,Вечный огонь,"Иркутск, сквер У Вечного Огня","52.290968, 104.280236",52.290968,104.280236,,7,Иркутск
Маршруты Иркутска: исторический центр ,"Иркутская область, г. Иркутск, Памятник святым Петру и Февронии","Иркутская область, г. Иркутск, Памятник святым Петру и Февронии",https://yandex.ru/maps/-/CCUcvWxdGC,Святые Пётр и Феврония Муромские,"ул. Сухэ-Батора, 2, Иркутск","52.291274, 104.280875",52.291274,104.280875,,8,Иркутск
История ремесленной слободы ,"Иркутская область, г. Иркутск, Художественный музей В.П. Сукачева","Иркутская область, г. Иркутск, Художественный музей В.П. Сукачева",https://yandex.ru/maps/org/gbuk_irkutskiy_oblastnoy_khudozhestvenny_muzey_imeni_v_p_sukachyova/1194546146/,ГБУК Иркутский областной художественный музей имени В. П. Сукачёва,"ул. Ленина, 5, Иркутск","52.283958, 104.281599",52.283958,104.281599,,1,Иркутск
История ремесленной слободы ,"Иркутская область, г. Иркутск, Иркутский государственный цирк","Иркутская область, г. Иркутск, Иркутский государственный цирк",https://yandex.ru/maps/-/CCUcv0UYdD,Иркутский государственный цирк,"Пролетарская ул., 13, Иркутск","52.287623, 104.287202",52.287623,104.287202,,2,Иркутск
История ремесленной слободы ,"Иркутская область, г. Иркутск, Православная женская гимназия","Иркутская область, г. Иркутск, Православная женская гимназия",https://yandex.ru/maps/-/CCUcv0aWgC,Православная женская гимназия,"ул. Декабрьских Событий, 3, Иркутск","52.292272, 104.288281",52.292272,104.288281,,3,Иркутск
История ремесленной слободы ,"Иркутская область, г. Иркутск, Ремесленное училище","Иркутская область, г. Иркутск, Ремесленное училище",https://yandex.ru/maps/org/irkutskiy_tekhnikum_mashinostroyeniya_im_n_p_trapeznikova/170995545134/,Иркутский техникум машиностроения им. Н. П. Трапезникова,"ул. Рабочего Штаба, 6, Иркутск","52.301138, 104.298536",52.301138,104.298536,,4,Иркутск
История ремесленной слободы ,"Иркутская область, г. Иркутск, Памятник Александру Васильевичу Колчаку","Иркутская область, г. Иркутск, Памятник Александру Васильевичу Колчаку",https://yandex.ru/maps/-/CCUcvKWS8B,А. В. Колчак,"Иркутск, предместье Марата","52.300035, 104.295058",52.300035,104.295058,,5,Иркутск
История ремесленной слободы ,"Иркутская область, г. Иркутск, Некрополь в ограде Знаменского монастыря","Иркутская область, г. Иркутск, Некрополь в ограде Знаменского монастыря",https://yandex.ru/maps/-/CCUgMAwIOD,Знаменский женский епархиальный монастырь,"Ангарская ул., 14, Иркутск","52.301036, 104.294216",52.301036,104.294216,,6,Иркутск
История ремесленной слободы ,"Иркутская область, г. Иркутск, Знаменский монастырь","Иркутская область, г. Иркутск, Знаменский монастырь",https://yandex.ru/maps/-/CCUgMAwIOD,Знаменский женский епархиальный монастырь,"Ангарская ул., 14, Иркутск","52.301036, 104.294216",52.301036,104.294216,,7,Иркутск
История ремесленной слободы ,"Иркутская область, г. Иркутск, Иркутский завод «Кедр»","Иркутская область, г. Иркутск, Иркутский завод «Кедр»",https://yandex.ru/maps/-/CCUgIPvk9D,Ликероводочный завод Кедр,"ул. Рабочего Штаба, 27/1","52.305943, 104.297805",52.305943,104.297805,,8,Иркутск
История ремесленной слободы ,"Иркутская область, г. Иркутск, Начальное училище имени Пономарева","Иркутская область, г. Иркутск, Начальное училище имени Пономарева",https://yandex.ru/maps/-/CCUgMBDuLC,Начальное училище имени Пономарева,"улица Рабочего Штаба, 27/2, Иркутск","52.306402, 104.297971",52.306402,104.297971,https://www.izi.travel/ru/e662-marshruty-irkutska-istoriya-remeslennoy-slobody/ru,9,Иркутск
История ремесленной слободы ,"Иркутская область, г. Иркутск, Покровская церковь","Иркутская область, г. Иркутск, Покровская церковь",https://yandex.ru/maps/-/CCUgMEFQ3D,Церковь Покрова Пресвятой Богородицы,"ул. Рабочего Штаба, 21А, Иркутск","52.306694, 104.297410",52.306694,104.29741,,10,Иркутск
Маршруты Иркутска: трамвайный (маршрут №1),"Иркутская область, г. Иркутск, Центральный рынок","Иркутская область, г. Иркутск, Центральный рынок",https://yandex.ru/maps/org/tsentralny/1101165983/,Центральный,"ул. Чехова, 22, Иркутск","52.282860, 104.295704",52.28286,104.295704,,1,Иркутск
Маршруты Иркутска: трамвайный (маршрут №1),"Иркутская область, г. Иркутск, Улица Софьи Перовской","Иркутская область, г. Иркутск, Улица Софьи Перовской",https://yandex.ru/maps/-/CCUcvKtU8C,улица Софьи Перовской,"улица Софьи Перовской, Иркутск","52.280536, 104.298977",52.280536,104.298977,,2,Иркутск
Маршруты Иркутска: трамвайный (маршрут №1),"Иркутская область, г. Иркутск, Улица Партизанская  ","Иркутская область, г. Иркутск, Улица Партизанская  ",https://yandex.ru/maps/-/CCUcvKxoLD,Партизанская улица,"Партизанская улица, Иркутск","52.274563, 104.307789",52.274563,104.307789,,3,Иркутск
Маршруты Иркутска: трамвайный (маршрут №1),"Иркутская область, г. Иркутск, Торговый центр «Иркутский» (бывший завод карданных валов)","Иркутская область, г. Иркутск, Торговый центр «Иркутский» (бывший завод карданных валов)",https://yandex.ru/maps/org/irkutskiy_zavod_kardannykh_valov/1105567161/,Иркутский завод карданных валов,"Советская ул., 58, Иркутск","52.276470, 104.305184",52.27647,104.305184,,4,Иркутск
Маршруты Иркутска: трамвайный (маршрут №1),"Иркутская область, г. Иркутск, Улица Красных мадьяр","Иркутская область, г. Иркутск, Улица Красных мадьяр",https://yandex.ru/maps/-/CCUcvOUAOC,улица Красных Мадьяр,"улица Красных Мадьяр, Иркутск","52.275979, 104.312919",52.275979,104.312919,,5,Иркутск
Маршруты Иркутска: трамвайный (маршрут №1),"Иркутская область, г. Иркутск, Особняк туберкулезной больницы","Иркутская область, г. Иркутск, Особняк туберкулезной больницы",https://yandex.ru/maps/-/CCUgMFabCA,"ОГБУЗ Иркутская областная клиническая туберкулезная больница, филиал № 1","Партизанская ул., 74, Иркутск","52.273654, 104.307975",52.273654,104.307975,,6,Иркутск
Маршруты Иркутска: трамвайный (маршрут №1),"Иркутская область, г. Иркутск, Метеостанция (Иркутская магнитно-метеорологическая обсерватория)","Иркутская область, г. Иркутск, Метеостанция (Иркутская магнитно-метеорологическая обсерватория)",https://yandex.ru/maps/org/irkutskoye_upravleniye_po_gidrometeorologii_i_monitoringu_okruzhayushchey_sredy/1052825530/,Иркутское управление по гидрометеорологии и мониторингу окружающей среды,"Партизанская ул., 76, Иркутск","52.272000, 104.308891",52.272,104.308891,,7,Иркутск
Маршруты Иркутска: трамвайный (маршрут №1),"Иркутская область, г. Иркутск, Диагностический центр","Иркутская область, г. Иркутск, Диагностический центр",https://yandex.ru/maps/-/CCUgIPSS8A,Диагностический центр,"Иркутск, Байкальская улица","52.266554, 104.309675",52.266554,104.309675,,8,Иркутск
Маршруты Иркутска: трамвайный (маршрут №1),"Иркутская область, г. Иркутск, Иркутский областной суд","Иркутская область, г. Иркутск, Иркутский областной суд",https://yandex.ru/maps/org/irkutskiy_oblastnoy_sud/1023634282/,Иркутский областной суд,"Байкальская ул., 121, Иркутск","52.264456, 104.311439",52.264456,104.311439,,9,Иркутск
Маршруты Иркутска: трамвайный (маршрут №1),"Иркутская область, г. Иркутск, Улица Карла Либнехта","Иркутская область, г. Иркутск, Улица Карла Либнехта",https://yandex.ru/maps/-/CCUcvOR~pA,улица Карла Либкнехта,"улица Карла Либкнехта, Иркутск","52.277864, 104.311787",52.277864,104.311787,,10,Иркутск
Маршруты Иркутска: трамвайный (маршрут №1),"Иркутская область, г. Иркутск, Улица Лопатина","Иркутская область, г. Иркутск, Улица Лопатина",https://yandex.ru/maps/-/CCUcvOb9cC,улица Лопатина,"улица Лопатина, Иркутск","52.266115, 104.316000",52.266115,104.316,,11,Иркутск
Маршруты Иркутска: трамвайный (маршрут №1),"Иркутская область, г. Иркутск, Улица Лыткина","Иркутская область, г. Иркутск, Улица Лыткина",https://yandex.ru/maps/-/CCUcvOr4XC,улица Лыткина,"улица Лыткина, Иркутск","52.267768, 104.317626",52.267768,104.317626,,12,Иркутск
Маршруты Иркутска: трамвайный (маршрут №1),"Иркутская область, г. Иркутск, Улица Пискунова","Иркутская область, г. Иркутск, Улица Пискунова",https://yandex.ru/maps/-/CCUcvOvDXB,улица Пискунова,"улица Пискунова, Иркутск","52.270248, 104.316135",52.270248,104.316135,,13,Иркутск
Маршруты Иркутска: трамвайный (маршрут №1),"Иркутская область, г. Иркутск, Улицы Советские (бывшие Иерусалимские)","Иркутская область, г. Иркутск, Улицы Советские (бывшие Иерусалимские)",https://yandex.ru/maps/-/CCUgAHDs9C,Советская улица,"Советская улица, Иркутск","52.279974, 104.325333",52.279974,104.325333,,14,Иркутск
Маршруты Иркутска: трамвайный (маршрут №1),"Иркутская область, г. Иркутск, Улица Трилиссера","Иркутская область, г. Иркутск, Улица Трилиссера",https://yandex.ru/maps/-/CCUcvOWmsB,улица Трилиссера,"улица Трилиссера, Иркутск","52.274607, 104.316072",52.274607,104.316072,,15,Иркутск
Маршруты Иркутска: трамвайный (маршрут №1),"Иркутская область, г. Иркутск, Танк Т-34 «Иркутский комсомолец»","Иркутская область, г. Иркутск, Танк Т-34 «Иркутский комсомолец»",https://yandex.ru/maps/-/CCUgIPGzcB,Танк Иркутский Комсомолец,"Иркутск, Октябрьский округ","52.279082, 104.317515",52.279082,104.317515,,16,Иркутск
Маршруты Иркутска: трамвайный (маршрут №1),"Иркутская область, г. Иркутск, Дворец бракосочетаний","Иркутская область, г. Иркутск, Дворец бракосочетаний",https://yandex.ru/maps/org/dvorets_brakosochetaniya/229581131789/,Дворец Бракосочетания,"ул. Декабрьских Событий, 106, Иркутск","52.280365, 104.314374",52.280365,104.314374,,17,Иркутск
Маршруты Иркутска: трамвайный (маршрут №1),"Иркутская область, г. Иркутск, Площадь Декабристов","Иркутская область, г. Иркутск, Площадь Декабристов",https://yandex.ru/maps/-/CCUcvOwk0A,площадь Декабристов,"площадь Декабристов, Иркутск","52.282250, 104.313054",52.28225,104.313054,,18,Иркутск
Маршруты Иркутска: трамвайный (маршрут №1),"Иркутская область, г. Иркутск, Памятник иркутянам, погибшим при исполнении воинского долга","Иркутская область, г. Иркутск, Памятник иркутянам, погибшим при исполнении воинского долга",https://yandex.ru/maps/-/CCUcvOHfLC,"Памятник иркутянам, погибшим при исполнении воинского долга","Иркутск, площадь Декабристов","52.282104, 104.312907",52.282104,104.312907,,19,Иркутск
Маршруты Иркутска: трамвайный (маршрут №1),"Иркутская область, г. Иркутск, Училище еврейского общества (Филиал средней школы №9)","Иркутская область, г. Иркутск, Училище еврейского общества (Филиал средней школы №9)",https://yandex.ru/maps/-/CCUgMFBpXD,Школа № 9,"Ямская ул., 32","52.282813, 104.309618",52.282813,104.309618,,20,Иркутск
Маршруты Иркутска: трамвайный (маршрут №1),"Иркутская область, г. Иркутск, Улица Ямская","Иркутская область, г. Иркутск, Улица Ямская",https://yandex.ru/maps/-/CCUcvOd1CD,Ямская улица,"Ямская улица, Иркутск","52.282905, 104.309343",52.282905,104.309343,,21,Иркутск
Маршруты Иркутска: трамвайный (маршрут №1),"Иркутская область, г. Иркутск, Улица Иосифа Уткина","Иркутская область, г. Иркутск, Улица Иосифа Уткина",https://yandex.ru/maps/-/CCUcvOtJ2A,улица Иосифа Уткина,"улица Иосифа Уткина, Иркутск","52.285164, 104.309128",52.285164,104.309128,,22,Иркутск
Маршруты Иркутска: трамвайный (маршрут №1),"Иркутская область, г. Иркутск, Музей городского быта","Иркутская область, г. Иркутск, Музей городского быта",https://yandex.ru/maps/-/CCUcvOxsSC,"Музей истории города Иркутска имени А. М. Сибирякова, филиал Музей городского быта","ул. Декабрьских Событий, 77А, Иркутск","52.286013, 104.304103",52.286013,104.304103,,23,Иркутск
Маршруты Иркутска: трамвайный (маршрут №1),"Иркутская область, г. Иркутск, Музей чая","Иркутская область, г. Иркутск, Музей чая",https://yandex.ru/maps/org/muzey_chaya/61056964190/,Музей чая,"ул. Декабрьских Событий, 77Б, Иркутск, этаж 2","52.285955, 104.304240",52.285955,104.30424,,24,Иркутск
Маршруты Иркутска: трамвайный (маршрут №1),"Иркутская область, г. Иркутск, Кружевной дом","Иркутская область, г. Иркутск, Кружевной дом",https://yandex.ru/maps/-/CCUcvSQddA,Кружева,"Партизанская ул., 28, Иркутск","52.280193, 104.301318",52.280193,104.301318,,25,Иркутск
Маршруты Иркутска: трамвайный (маршрут №1),"Иркутская область, г. Иркутск, Усадьба декабриста С.Г.Волконского","Иркутская область, г. Иркутск, Усадьба декабриста С.Г.Волконского",https://yandex.ru/maps/-/CCUcvSasWC,сквер С.Г. Волконского,"сквер С.Г. Волконского, Иркутск","52.288486, 104.305912",52.288486,104.305912,,26,Иркутск
Маршруты Иркутска: трамвайный (маршрут №1),"Иркутская область, г. Иркутск, Спасо-преображенская церковь","Иркутская область, г. Иркутск, Спасо-преображенская церковь",https://yandex.ru/profile/-/CCUgMEglOA,Спасо-Преображенский храм,"пер. Волконского, 1","52.287673, 104.303638",52.287673,104.303638,,27,Иркутск
Маршруты Иркутска: трамвайный (маршрут №1),"Иркутская область, г. Иркутск, Улица Тимирязева","Иркутская область, г. Иркутск, Улица Тимирязева",https://yandex.ru/maps/-/CCUcvSuf~D,улица Тимирязева,"улица Тимирязева, Иркутск","52.281787, 104.296417",52.281787,104.296417,,28,Иркутск
Маршруты Иркутска: трамвайный (маршрут №1),"Иркутская область, г. Иркутск, Пожарная каланча","Иркутская область, г. Иркутск, Пожарная каланча",https://yandex.ru/maps/-/CCUcvSFQwC,Пожарная каланча,"ул. Марата, 10, Иркутск","52.288142, 104.275443",52.288142,104.275443,,29,Иркутск
Маршруты Иркутска: трамвайный (маршрут №1),"Иркутская область, г. Иркутск, Театральное училище","Иркутская область, г. Иркутск, Театральное училище",https://yandex.ru/maps/-/CCUcvSR8OA,Иркутское театральное училище,"ул. Тимирязева, 20, Иркутск","52.280609, 104.295424",52.280609,104.295424,,30,Иркутск
Маршруты Иркутска: трамвайный (маршрут №1),"Иркутская область, г. Иркутск, Лицей № 3 г. Иркутска","Иркутская область, г. Иркутск, Лицей № 3 г. Иркутска",https://yandex.ru/maps/-/CCUcvSbcxC,МБОУ г. Иркутска Лицей № 3,"ул. Тимирязева, 14, Иркутск","52.279670, 104.294600",52.27967,104.2946,,31,Иркутск
Маршруты Иркутска: трамвайный (маршрут №1),"Иркутская область, г. Иркутск, Улицы Грязнова и Лапина","Иркутская область, г. Иркутск, Улицы Грязнова и Лапина",https://yandex.ru/maps/-/CCUcvSrHwA,улица Грязнова,"улица Грязнова, Иркутск","52.279115, 104.288628",52.279115,104.288628,,32,Иркутск
Маршруты Иркутска: трамвайный (маршрут №1),"Иркутская область, г. Иркутск, Улица Подгорная","Иркутская область, г. Иркутск, Улица Подгорная",https://yandex.ru/maps/-/CCUcvSCsLD,Подгорная улица,"Подгорная улица, Иркутск","52.278453, 104.298941",52.278453,104.298941,,33,Иркутск
Маршруты Иркутска: трамвайный (маршрут №1),"Иркутская область, г. Иркутск,  Крестовоздвиженская церковь","Иркутская область, г. Иркутск,  Крестовоздвиженская церковь",https://yandex.ru/maps/-/CCUcvSSR3C,Церковь Воздвижения Честного Креста Господня,"ул. Седова, 1, Иркутск","52.276351, 104.288324",52.276351,104.288324,,34,Иркутск
Маршруты Иркутска: трамвайный (маршрут №1),"Иркутская область, г. Иркутск, Памятник бабру","Иркутская область, г. Иркутск, Памятник бабру",https://yandex.ru/maps/-/CCUcvScITA,Бабр,"Иркутск, улица Седова","52.275998, 104.286576",52.275998,104.286576,,35,Иркутск
Маршруты Иркутска: трамвайный (маршрут №1),"Иркутская область, г. Иркутск, Иркутская слобода (130-ый квартал)","Иркутская область, г. Иркутск, Иркутская слобода (130-ый квартал)",https://yandex.ru/maps/-/CCUcvKWooB,130-й квартал,"130-й квартал, Иркутск","52.273704, 104.289994",52.273704,104.289994,,36,Иркутск
Маршруты Иркутска: трамвайный (маршрут №1),"Иркутская область, г. Иркутск, Амурские ворота","Иркутская область, г. Иркутск, Амурские ворота",https://yandex.ru/maps/org/amurskiye_vorota/148861421100/,Амурские ворота,"ул. Седова, 62, стр. 1-3, Иркутск","52.269848, 104.297272",52.269848,104.297272,,37,Иркутск
Маршруты Иркутска: трамвайный (маршрут №1),"Иркутская область, г. Иркутск, Театр Юного Зрителя им. А.В. Вампилова","Иркутская область, г. Иркутск, Театр Юного Зрителя им. А.В. Вампилова",https://yandex.ru/maps/-/CCUcvWrVCB,Иркутский областной театр юного зрителя имени А. Вампилова,"ул. Ленина, 23, Иркутск","52.277537, 104.285267",52.277537,104.285267,,38,Иркутск
Маршруты Иркутска: трамвайный (маршрут №1),"Иркутская область, г. Иркутск, Здание русско-азиатского банка (поликлиника №2)","Иркутская область, г. Иркутск, Здание русско-азиатского банка (поликлиника №2)",https://yandex.ru/maps/org/ogbuz_igkb_3_poliklinika/1016604419/,Русско-Азиатский банк,"ул. Ленина, 38, Иркутск","52.279934, 104.282100",52.279934,104.2821,,39,Иркутск
Маршруты Иркутска: трамвайный (маршрут №1),"Иркутская область, г. Иркутск, Харлампиевская церковь","Иркутская область, г. Иркутск, Харлампиевская церковь",https://yandex.ru/maps/-/CCUcvSTakA,Михаило-Архангельская Харлампиевская церковь,"ул. 5-й Армии, 59, Иркутск","52.281465, 104.277489",52.281465,104.277489,,40,Иркутск
Маршруты Иркутска: трамвайный (маршрут №1),"Иркутская область, г. Иркутск, Улица Марата","Иркутская область, г. Иркутск, Улица Марата",https://yandex.ru/maps/-/CCUcvSXcsA,улица Марата,"улица Марата, Иркутск","52.285291, 104.277822",52.285291,104.277822,,41,Иркутск
Маршруты Иркутска: трамвайный (маршрут №1),"Иркутская область, г. Иркутск, Дом литераторов","Иркутская область, г. Иркутск, Дом литераторов",https://yandex.ru/maps/-/CCUcvShY8C,Иркутский дом литераторов,"ул. Степана Разина, 40, Иркутск","52.281936, 104.278466",52.281936,104.278466,,42,Иркутск
Маршруты Иркутска: трамвайный (маршрут №1),"Иркутская область, г. Иркутск, Дом всероссийского общества слепых","Иркутская область, г. Иркутск, Дом всероссийского общества слепых",https://yandex.ru/maps/-/CCUcvStkHB,Всероссийское общество слепых,"ул. Степана Разина, 30, Иркутск","52.282868, 104.277175",52.282868,104.277175,,43,Иркутск
Маршруты Иркутска: трамвайный (маршрут №1),"Иркутская область, г. Иркутск, Иркутский главпочтамт","Иркутская область, г. Иркутск, Иркутский главпочтамт",https://yandex.ru/maps/-/CCUcvWAy0D,Иркутский почтамт Контрольно-справочный участок № 664025,"ул. Степана Разина, 23, Иркутск","52.283907, 104.276716",52.283907,104.276716,,44,Иркутск
Маршруты Иркутска: трамвайный (маршрут №1),"Иркутская область, г. Иркутск, Улица Российская","Иркутская область, г. Иркутск, Улица Российская",https://yandex.ru/maps/-/CCUcvWEPsB,Российская улица,"Российская улица, Иркутск","52.285423, 104.275423",52.285423,104.275423,,45,Иркутск
Маршруты Иркутска: трамвайный (маршрут №1),"Иркутская область, г. Иркутск,  Троицкая церковь","Иркутская область, г. Иркутск,  Троицкая церковь",https://yandex.ru/maps/-/CCUcvWUXWB,Церковь Троицы Живоначальной,"ул. 5-й Армии, 8, Иркутск","52.285486, 104.270468",52.285486,104.270468,,46,Иркутск
Маршруты Иркутска: трамвайный (маршрут №1),"Иркутская область, г. Иркутск, Улица Чкалова","Иркутская область, г. Иркутск, Улица Чкалова",https://yandex.ru/maps/-/CCUcvWeSpC,улица Чкалова,"улица Чкалова, Иркутск","52.287808, 104.273312",52.287808,104.273312,,47,Иркутск
Маршруты Иркутска: трамвайный (маршрут №1),"Иркутская область, г. Иркутск, Здание прогимназии Гайдук","Иркутская область, г. Иркутск, Здание прогимназии Гайдук",https://yandex.ru/maps/-/CCUgIPc0-A,"улица 5-й Армии, 2","улица 5-й Армии, 2, Иркутск, 664025","52.287693, 104.266889",52.287693,104.266889,,48,Иркутск
Маршруты Иркутска: трамвайный (маршрут №1),"Иркутская область, г. Иркутск, Глазковский мост","Иркутская область, г. Иркутск, Глазковский мост",https://yandex.ru/maps/-/CCUcvWBwgC,Глазковский мост,"Глазковский мост, Иркутск","52.287649, 104.263152",52.287649,104.263152,,49,Иркутск
Маршруты Иркутска: трамвайный (маршрут №1),"Иркутская область, г. Иркутск, Улица Маяковского","Иркутская область, г. Иркутск, Улица Маяковского",https://yandex.ru/maps/-/CCUcvWRN0A,улица Маяковского,"улица Маяковского, Иркутск","52.286167, 104.244943",52.286167,104.244943,,50,Иркутск
Маршруты Иркутска: трамвайный (маршрут №1),"Иркутская область, г. Иркутск, УлицаЧелнокова и бюст Н.В.Челнокова","Иркутская область, г. Иркутск, УлицаЧелнокова и бюст Н.В.Челнокова",https://yandex.ru/maps/-/CCUcvOGfCA,Иркутск,Иркутск,"52.289588, 104.280606",52.289588,104.280606,,51,Иркутск
Маршруты Иркутска: трамвайный (маршрут №1),"Иркутская область, г. Иркутск, Лицей № 36 РЖД","Иркутская область, г. Иркутск, Лицей № 36 РЖД",https://yandex.ru/maps/-/CCUcvWfR2A,Лицей № 36 РЖД,"Профсоюзная ул., 3, Иркутск","52.287209, 104.255939",52.287209,104.255939,,52,Иркутск
Маршруты Иркутска: трамвайный (маршрут №1),"Иркутская область, г. Иркутск, Глазковское городское начальное училище (Здание МВД на транспорте)","Иркутская область, г. Иркутск, Глазковское городское начальное училище (Здание МВД на транспорте)",https://yandex.ru/maps/-/CCUgIPvgSD,"улица Челнокова, 1","улица Челнокова, 1, Иркутск, 664005","52.284365, 104.258310",52.284365,104.25831,http://irkipedia.ru/content/glazkovskoe_gorodskoe_nachalnoe_uchilishche_imeni_svyatogo_knyazya_vladimira,53,Иркутск
Маршруты Иркутска: трамвайный (маршрут №1),"Иркутская область, г. Иркутск, Детский приют имени Платона Петровича Сукачева ( поликлиника №5)","Иркутская область, г. Иркутск, Детский приют имени Платона Петровича Сукачева ( поликлиника №5)",https://yandex.ru/maps/-/CCUcvWCX1C,ОГБУЗ ИГБ № 5,"ул. Шмидта, 20А, Иркутск","52.275075, 104.252989",52.275075,104.252989,,54,Иркутск
Маршруты Иркутска: трамвайный (маршрут №1),"Иркутская область, г. Иркутск, Вокзал станции Иркутск- Пассажирский","Иркутская область, г. Иркутск, Вокзал станции Иркутск- Пассажирский",https://yandex.ru/maps/-/CCUcvWSKsD,Иркутск-Пассажирский,"ул. Челнокова, 3/1, Иркутск","52.282444, 104.259752",52.282444,104.259752,,55,Иркутск
Маршруты Иркутска: трамвайный (маршрут №1),"Иркутская область, г. Иркутск, Гостиница Онанашвили","Иркутская область, г. Иркутск, Гостиница Онанашвили",https://yandex.ru/maps/-/CCUgIPGz~B,Привокзальная,"ул. Терешковой, 2","52.282144, 104.259168",52.282144,104.259168,https://dzen.ru/a/YZeqpEG3PyC5XqRL,56,Иркутск
Маршруты Иркутска: трамвайный (маршрут №1),"Иркутская область, г. Иркутск, Николо-Инокентьевская церковь","Иркутская область, г. Иркутск, Николо-Инокентьевская церковь",https://yandex.ru/maps/-/CCUcvWsjKB,Николо-Иннокентьевская церковь,"Профсоюзная ул., 45А, Иркутск","52.280430, 104.259249",52.28043,104.259249,,57,Иркутск
Маршруты Иркутска: трамвайный (маршрут №1),"Иркутская область, г. Иркутск, Дом Ивана Ивановича Молчанова-Сибирского","Иркутская область, г. Иркутск, Дом Ивана Ивановича Молчанова-Сибирского",https://yandex.ru/maps/-/CCUgAHTISD,"улица Терешковой, 20","улица Терешковой, 20, Иркутск, 664005","52.280139, 104.256109",52.280139,104.256109,,58,Иркутск
Маршруты Иркутска: трамвайный (маршрут №1),"Иркутская область, г. Иркутск, Улица Терешковой","Иркутская область, г. Иркутск, Улица Терешковой",https://yandex.ru/maps/-/CCUgAHTtCA,улица Терешковой,"улица Терешковой, Иркутск","52.278189, 104.250351",52.278189,104.250351,,59,Иркутск
Маршруты Иркутска: трамвайный (маршрут №1),"Иркутская область, г. Иркутск, Кинотеатр Чайка","Иркутская область, г. Иркутск, Кинотеатр Чайка",https://yandex.ru/maps/-/CCUcvWXd1C,Кинотеатр Чайка,"ул. Терешковой, 23, Иркутск","52.278498, 104.252965",52.278498,104.252965,,60,Иркутск
Маршруты Иркутска: трамвайный (маршрут №1),"Иркутская область, г. Иркутск,  Роща «Звездочка»","Иркутская область, г. Иркутск,  Роща «Звездочка»",https://yandex.ru/maps/-/CCUcvWho~B,роща Звёздочка,"роща Звёздочка, Иркутск","52.273566, 104.260619",52.273566,104.260619,,61,Иркутск
Маршруты Иркутска: трамвайный (маршрут №1),"Иркутская область, г. Иркутск, «Литературные» улицы Глазковского предместья ","Иркутская область, г. Иркутск, «Литературные» улицы Глазковского предместья ",https://yandex.ru/maps/-/CCUcvWRN0A,улица Маяковского,"улица Маяковского, Иркутск","52.286167, 104.244943",52.286167,104.244943,http://wiki.irkutsk.ru/index.php/Предместье_Глазково,62,Иркутск
Маршруты Иркутска: трамвайный (маршрут №1),"Иркутская область, г. Иркутск, «Литературные» улицы Глазковского предместья ","Иркутская область, г. Иркутск, «Литературные» улицы Глазковского предместья ",https://yandex.ru/maps/-/CCUgIPSpSA,улица Жуковского,"улица Жуковского, Иркутск","52.268540, 104.254959",52.26854,104.254959,http://wiki.irkutsk.ru/index.php/Предместье_Глазково,63,Иркутск
Маршруты Иркутска: трамвайный (маршрут №1),"Иркутская область, г. Иркутск, «Литературные» улицы Глазковского предместья ","Иркутская область, г. Иркутск, «Литературные» улицы Глазковского предместья ",https://yandex.ru/maps/-/CCUgIPG~LB,улица Тургенева,"улица Тургенева, Иркутск","52.292414, 104.250486",52.292414,104.250486,http://wiki.irkutsk.ru/index.php/Предместье_Глазково,64,Иркутск
Маршруты Иркутска: трамвайный (маршрут №1),"Иркутская область, г. Иркутск, «Литературные» улицы Глазковского предместья ","Иркутская область, г. Иркутск, «Литературные» улицы Глазковского предместья ",https://yandex.ru/maps/-/CCUgIPCHcC,улица Гоголя,"улица Гоголя, Иркутск","52.278095, 104.254232",52.278095,104.254232,http://wiki.irkutsk.ru/index.php/Предместье_Глазково,65,Иркутск
Маршруты Иркутска: трамвайный (маршрут №1),"Иркутская область, г. Иркутск, «Литературные» улицы Глазковского предместья ","Иркутская область, г. Иркутск, «Литературные» улицы Глазковского предместья ",https://yandex.ru/maps/-/CCUgIPgI1A,улица Чайковского,"улица Чайковского, Иркутск","52.279302, 104.241063",52.279302,104.241063,http://wiki.irkutsk.ru/index.php/Предместье_Глазково,66,Иркутск
Маршруты Иркутска: трамвайный (маршрут №1),"Иркутская область, г. Иркутск, «Литературные» улицы Глазковского предместья ","Иркутская область, г. Иркутск, «Литературные» улицы Глазковского предместья ",https://yandex.ru/maps/-/CCUgIPvTCB,улица Пушкина,"улица Пушкина, Иркутск","52.280663, 104.255274",52.280663,104.255274,http://wiki.irkutsk.ru/index.php/Предместье_Глазково,67,Иркутск
Маршруты Иркутска: трамвайный (маршрут №1),"Иркутская область, г. Иркутск, Старое глазковское кладбище","Иркутская область, г. Иркутск, Старое глазковское кладбище",https://yandex.ru/maps/-/CCUcv0AT-C,Глазковское кладбище,"Иркутск, Глазковское кладбище","52.260759, 104.255997",52.260759,104.255997,,68,Иркутск
Маршруты Иркутска: трамвайный (маршрут №1),"Иркутская область, г. Иркутск, Улица Колхозная (бывшая Чехова)","Иркутская область, г. Иркутск, Улица Колхозная (бывшая Чехова)",https://yandex.ru/maps/-/CCUcv0Qp-A,Колхозная улица,"Колхозная улица, Иркутск","52.267068, 104.257942",52.267068,104.257942,,69,Иркутск
Маршруты Иркутска: трамвайный (маршрут №1),"Иркутская область, г. Иркутск, Католический кафедральный собор непорочного сердца Божьей Матери","Иркутская область, г. Иркутск, Католический кафедральный собор непорочного сердца Божьей Матери",https://yandex.ru/maps/-/CCUcv0a7PA,Кафедральный собор Непорочного Сердца Божией Матери,"ул. Грибоедова, 110, Иркутск","52.262732, 104.256962",52.262732,104.256962,,70,Иркутск
Маршруты Иркутска: трамвайный (маршрут №1),"Иркутская область, г. Иркутск, Студгородок","Иркутская область, г. Иркутск, Студгородок",https://yandex.ru/maps/-/CCUcv0etxB,микрорайон Студгородок,"микрорайон Студгородок, Свердловский округ, Иркутск","52.262439, 104.260691",52.262439,104.260691,,71,Иркутск
Маршруты Иркутска: по главным улицам ,"Иркутская область, г. Иркутск, Театр Юного Зрителя им. А.В. Вампилова","Иркутская область, г. Иркутск, Театр Юного Зрителя им. А.В. Вампилова",https://yandex.ru/maps/-/CCUcvWrVCB,Иркутский областной театр юного зрителя имени А. Вампилова,"ул. Ленина, 23, Иркутск","52.277537, 104.285267",52.277537,104.285267,,1,Иркутск
Маршруты Иркутска: по главным улицам ,"Иркутская область, г. Иркутск, Офицерский флигель «американских» казарм","Иркутская область, г. Иркутск, Офицерский флигель «американских» казарм",https://yandex.ru/maps/-/CCUgAHdWsD,"улица Красного Восстания, 9","улица Красного Восстания, 9, Иркутск, 664003","52.275864, 104.285835",52.275864,104.285835,http://irkipedia.ru/content/amerikanskie_kazarmy,2,Иркутск
Маршруты Иркутска: по главным улицам ,"Иркутская область, г. Иркутск, Памятник бабру","Иркутская область, г. Иркутск, Памятник бабру",https://yandex.ru/maps/-/CCUcvScITA,Бабр,"Иркутск, улица Седова","52.275998, 104.286576",52.275998,104.286576,,3,Иркутск
Маршруты Иркутска: по главным улицам ,"Иркутская область, г. Иркутск, Крестовоздвиженская церковь","Иркутская область, г. Иркутск, Крестовоздвиженская церковь",https://yandex.ru/maps/-/CCUcvWSC2B,Церковь Воздвижения Честного Креста Господня,"ул. Седова, 1, Иркутск","52.276351, 104.288324",52.276351,104.288324,,4,Иркутск
Маршруты Иркутска: по главным улицам ,"Иркутская область, г. Иркутск, 130-й квартал (Иркутская слобода)","Иркутская область, г. Иркутск, 130-й квартал (Иркутская слобода)",https://yandex.ru/maps/-/CCUcvKWooB,130-й квартал,"130-й квартал, Иркутск","52.273704, 104.289994",52.273704,104.289994,,5,Иркутск
Маршруты Иркутска: по главным улицам ,"Иркутская область, г. Иркутск, Анатомический корпус Иркутского медицинского университета","Иркутская область, г. Иркутск, Анатомический корпус Иркутского медицинского университета",https://yandex.ru/maps/-/CCUcvKgR-B,"Иркутский государственный медицинский университет, анатомический корпус","ул. Красного Восстания, 3, Иркутск","52.274419, 104.283250",52.274419,104.28325,,6,Иркутск
Маршруты Иркутска: по главным улицам ,"Иркутская область, г. Иркутск, Иркутский государственный медицинский университет","Иркутская область, г. Иркутск, Иркутский государственный медицинский университет",https://yandex.ru/maps/org/irkutskiy_gosudarstvenny_meditsinskiy_universitet/234393092892/,Иркутский Государственный Медицинский университет,"ул. Красного Восстания, 1, Иркутск","52.273625, 104.281617",52.273625,104.281617,,7,Иркутск
Маршруты Иркутска: по главным улицам ,"Иркутская область, г. Иркутск, Факультетские клиники Иркутского медицинского университета","Иркутская область, г. Иркутск, Факультетские клиники Иркутского медицинского университета",https://yandex.ru/maps/org/fgbou_vo_igmu_mz_rf/1036223641/,ФГБОУ ВО Игму МЗ РФ,"бул. Гагарина, 18, Иркутск","52.274238, 104.280481",52.274238,104.280481,,8,Иркутск
Маршруты Иркутска: по главным улицам ,"Иркутская область, г. Иркутск, Институт математики, экономики и информатики ИГУ","Иркутская область, г. Иркутск, Институт математики, экономики и информатики ИГУ",https://yandex.ru/maps/org/institut_matematiki_i_informatsionnykh_tekhnologiy/132756616975/,Институт математики и информационных технологий,"бул. Гагарина, 20, Иркутск","52.275033, 104.279640",52.275033,104.27964,,9,Иркутск
Маршруты Иркутска: по главным улицам ,"Иркутская область, г. Иркутск, Александровский сквер у памятника Александру III","Иркутская область, г. Иркутск, Александровский сквер у памятника Александру III",https://yandex.ru/maps/org/aleksandr_iii/220630145915/,Александр III,"Иркутск, Площадь у памятника Александру III","52.275502, 104.277159",52.275502,104.277159,,10,Иркутск
Маршруты Иркутска: по главным улицам ,"Иркутская область, г. Иркутск, Памятник императору Александру III","Иркутская область, г. Иркутск, Памятник императору Александру III",https://yandex.ru/maps/-/CCUcvSqYkC,Александр III,"Иркутск, Площадь у памятника Александру III","52.275502, 104.277159",52.275502,104.277159,,11,Иркутск
Маршруты Иркутска: по главным улицам ,"Иркутская область, г. Иркутск, Иркутский областной краеведческий музей","Иркутская область, г. Иркутск, Иркутский областной краеведческий музей",https://yandex.ru/maps/org/irkutskiy_oblastnoy_krayevedcheskiy_muzey_im_n_n_muravyeva_amurskogo_otdel_istorii/1053307818/,Иркутский областной краеведческий музей им. Н. Н. Муравьева-Амурского Отдел истории,"ул. Карла Маркса, 2, Иркутск","52.275740, 104.278115",52.27574,104.278115,,12,Иркутск
Маршруты Иркутска: по главным улицам ,"Иркутская область, г. Иркутск, «Белый дом»","Иркутская область, г. Иркутск, «Белый дом»",https://yandex.ru/maps/-/CCUgMFbBTA,Булый дом,"бул. Гагарина, 24, Иркутск","52.276263, 104.277181",52.276263,104.277181,,13,Иркутск
Маршруты Иркутска: по главным улицам ,"Иркутская область, г. Иркутск, Место братской могилы борцов за советскую власть","Иркутская область, г. Иркутск, Место братской могилы борцов за советскую власть",https://yandex.ru/maps/-/CCUgAHhw3A,Борцам революции,"бул. Гагарина, 24","52.276337, 104.277655",52.276337,104.277655,,14,Иркутск
Маршруты Иркутска: по главным улицам ,"Иркутская область, г. Иркутск, Иркутский академический драматический театр имени Н. П. Охлопкова","Иркутская область, г. Иркутск, Иркутский академический драматический театр имени Н. П. Охлопкова",https://yandex.ru/maps/-/CCUcvOQsOA,Иркутский академический драматический театр имени Н.П. Охлопкова,"ул. Карла Маркса, 14, Иркутск","52.277443, 104.281842",52.277443,104.281842,,15,Иркутск
Маршруты Иркутска: по главным улицам ,"Иркутская область, г. Иркутск, Дом актера (бывший особняк купца Бутина)","Иркутская область, г. Иркутск, Дом актера (бывший особняк купца Бутина)",https://yandex.ru/maps/org/osobnyak_kuptsa_m_d_butina/197618953940/,Особняк купца М.Д. Бутина,"Хасановский пер., 1, Иркутск","52.277954, 104.282135",52.277954,104.282135,,16,Иркутск
Маршруты Иркутска: по главным улицам ,"Иркутская область, г. Иркутск, Памятник М.Д. Бутину","Иркутская область, г. Иркутск, Памятник М.Д. Бутину",https://yandex.ru/maps/org/pamyatnik_kuptsu_butinu_mikhailu_dmitriyevichu/219220393515/,Памятник купцу Бутину Михаилу Дмитриевичу,"ул. Ленина, 46, Иркутск","52.277898, 104.282448",52.277898,104.282448,,17,Иркутск
Маршруты Иркутска: по главным улицам ,"Иркутская область, г. Иркутск, Памятник Александру Валентиновичу Вампилову","Иркутская область, г. Иркутск, Памятник Александру Валентиновичу Вампилову",https://yandex.ru/maps/-/CCUcvOuu0C,Памятник А. Вампилову,"Иркутск, улица Карла Маркса","52.278570, 104.281035",52.27857,104.281035,,18,Иркутск
Маршруты Иркутска: по главным улицам ,"Иркутская область, г. Иркутск,  Управление ВСЖД","Иркутская область, г. Иркутск,  Управление ВСЖД",https://yandex.ru/maps/-/CCUcvOBpHC,Управление ВСЖД,"ул. Карла Маркса, 7, Иркутск","52.278997, 104.281031",52.278997,104.281031,,19,Иркутск
Маршруты Иркутска: по главным улицам ,"Иркутская область, г. Иркутск, Русско-азиатский банк ( Поликлиника №2)","Иркутская область, г. Иркутск, Руссско-азиатский банк ( Поликлиника №2)",https://yandex.ru/maps/org/ogbuz_igkb_3_poliklinika/1016604419/,Русско-Азиатский банк,"ул. Ленина, 38, Иркутск","52.279934, 104.282100",52.279934,104.2821,,20,Иркутск
Маршруты Иркутска: по главным улицам ,"Иркутская область, г. Иркутск, Памятник Владимиру Ильичу Ленину","Иркутская область, г. Иркутск, Памятник Владимиру Ильичу Ленину",https://yandex.ru/maps/org/vladimir_ilyich_lenin/41668198421/,Владимир Ильич Ленин,"Иркутск, улица Ленина","52.279398, 104.282672",52.279398,104.282672,,21,Иркутск
Маршруты Иркутска: по главным улицам ,"Иркутская область, г. Иркутск, Здание гостиницы Гиллера","Иркутская область, г. Иркутск, Здание гостиницы Гиллера",https://yandex.ru/maps/-/CCUgIPW7hA,Гостиница Централь,"ул. Ленина, 13, Иркутск","52.279995, 104.283016",52.279995,104.283016,,22,Иркутск
Маршруты Иркутска: по главным улицам ,"Иркутская область, г. Иркутск,   Байкальский Государственный Университет","Иркутская область, г. Иркутск,   Байкальский Государственный Университет",https://yandex.ru/maps/org/fgbou_vo_baykalskiy_gosudarstvenny_universitet/1247930554/,ФГБОУ ВО Байкальский Государственный университет,"ул. Ленина, 11, корп. 3, Иркутск","52.281438, 104.283060",52.281438,104.28306,,23,Иркутск
Маршруты Иркутска: по главным улицам ,"Иркутская область, г. Иркутск, Кинотеатр «Художественный»","Иркутская область, г. Иркутск, Кинотеатр «Художественный»",https://yandex.ru/maps/-/CCUcvOCM3B,Художественный,"ул. Карла Маркса, 24, Иркутск","52.280849, 104.283764",52.280849,104.283764,,24,Иркутск
Маршруты Иркутска: по главным улицам ,"Иркутская область, г. Иркутск, Типография № 1 им. В.М. Посохина","Иркутская область, г. Иркутск, Типография № 1 им. В.М. Посохина",https://yandex.ru/maps/-/CCUcvOSUoB,Иркутская областная типография № 1,"ул. Сергеева, 3, корп. 4, Иркутск","52.267741, 104.223572",52.267741,104.223572,,25,Иркутск
Маршруты Иркутска: по главным улицам ,"Иркутская область, г. Иркутск, Кинотеатр «Гигант»",https://yandex.ru/maps/org/don_otello/1230165677/?ll=104.285179%2C52.281846&mode=search&sll=104.285179%2C52.281845&text=дон%20отелло&z=16,https://yandex.ru/maps/-/CCUgEAxldA,Don Otello,"ул. Грязнова, 1","52.281900, 104.285117",52.2819,104.285117,http://irkipedia.ru/content/gigant_kinoteatr,26,Иркутск
Маршруты Иркутска: по главным улицам ,"Иркутская область, г. Иркутск, Кинематограф Дон-Отелло","Иркутская область, г. Иркутск, Кинематограф Дон-Отелло",https://yandex.ru/maps/-/CCUcvOgYKB,Don Otello,"ул. Грязнова, 1, Иркутск","52.281900, 104.285117",52.2819,104.285117,,27,Иркутск
Маршруты Иркутска: по главным улицам ,"Иркутская область, г. Иркутск,  Музыкальный колледж имени Фридерика Шопена","Иркутская область, г. Иркутск,  Музыкальный колледж имени Фридерика Шопена",https://yandex.ru/maps/-/CCUcvOs8cC,Иркутский областной музыкальный колледж имени Фредерика Шопена,"ул. Карла Маркса, 28, Иркутск","52.283179, 104.286821",52.283179,104.286821,,28,Иркутск
Маршруты Иркутска: по главным улицам ,"Иркутская область, г. Иркутск, Магазин «Алмаз» (бывшая гостиница «Деко»)","Иркутская область, г. Иркутск, Магазин «Алмаз» (бывшая гостиница «Деко»)",https://yandex.ru/maps/-/CCUgIPGHGD,Алмаз,"ул. Сухэ-Батора, 17А, Иркутск","52.283346, 104.286257",52.283346,104.286257,,29,Иркутск
Маршруты Иркутска: по главным улицам ,"Иркутская область, г. Иркутск, Гостиница «Гранд- Отель»","Иркутская область, г. Иркутск, Гостиница «Гранд- Отель»",https://yandex.ru/maps/-/CCUgIPC0SB,"улица Литвинова, 1","улица Литвинова, 1, Иркутск, 664003","52.284547, 104.288431",52.284547,104.288431,,30,Иркутск
Маршруты Иркутска: по главным улицам ,"Иркутская область, г. Иркутск, Здание бывшего Мариинского приюта","Иркутская область, г. Иркутск, Здание бывшего Мариинского приюта",https://yandex.ru/maps/-/CCUgMFSATC,Мариинский приют,"улица Карла Маркса, 39, Иркутск, 664011","52.287533, 104.291260",52.287533,104.29126,,31,Иркутск
Маршруты Иркутска: по главным улицам ,"Иркутская область, г. Иркутск, Магазин «Детский мир» (бывшая усадьба Пестерёва)","Иркутская область, г. Иркутск, Магазин «Детский мир» (бывшая усадьба Пестерёва)",https://yandex.ru/maps/-/CCUgIPSgHC,Детский континент,"ул. Урицкого, 3, Иркутск","52.285085, 104.289776",52.285085,104.289776,,32,Иркутск
Маршруты Иркутска: по главным улицам ,"Иркутская область, г. Иркутск, Доходный дом Катышевцевых-Плетюхина","Иркутская область, г. Иркутск, Доходный дом Катышевцевых-Плетюхина",https://yandex.ru/maps/-/CCUgAHtk0C,"улица Горького, 42","улица Горького, 42, Иркутск, 664011","52.285429, 104.288476",52.285429,104.288476,,33,Иркутск
Маршруты Иркутска: по главным улицам ,"Иркутская область, г. Иркутск, Памятник В.И. Ленину на улице Пролетарской","Иркутская область, г. Иркутск, Памятник В.И. Ленину на улице Пролетарской",https://yandex.ru/maps/-/CCUgIPvKtC,Владимир Ильич Ленин,"ул. Свердлова, 36","52.285830, 104.289030",52.28583,104.28903,,34,Иркутск
Маршруты Иркутска: по главным улицам ,"Иркутская область, г. Иркутск, Бывшая усадьба Котельниковых","Иркутская область, г. Иркутск, Бывшая усадьба Котельниковых",https://yandex.ru/maps/-/CCUgAHrPHD,"улица Фурье, 2","улица Фурье, 2, Иркутск, 664003","52.285506, 104.289634",52.285506,104.289634,,35,Иркутск
Маршруты Иркутска: по главным улицам ,"Иркутская область, г. Иркутск, Здание бывшего Медведниковского банка","Иркутская область, г. Иркутск, Здание бывшего Медведниковского банка",https://yandex.ru/maps/-/CCUgAHv-xB,"улица Карла Маркса, 31","улица Карла Маркса, 31, Иркутск, 664011","52.286112, 104.289536",52.286112,104.289536,http://irkipedia.ru/content/medvednikovskiy_bank,36,Иркутск
Маршруты Иркутска: по главным улицам ,"Иркутская область, г. Иркутск,  клиника Л.С. Зисмана (дом Полутовых)","Иркутская область, г. Иркутск,  клиника Л.С. Зисмана (дом Полутовых)",https://yandex.ru/maps/-/CCUgILGWoC,"улица Карла Маркса, 41","улица Карла Маркса, 41, Иркутск, 664011","52.288062, 104.291853",52.288062,104.291853,,37,Иркутск
Маршруты Иркутска: по главным улицам ,"Иркутская область, г. Иркутск, Кинотеатр «Пионер»","Иркутская область, г. Иркутск, Кинотеатр «Пионер»",https://yandex.ru/maps/-/CCUgIPCodB,Кинотеатр Пионер,"Иркутск, улица Карла Маркса","52.289294, 104.293441",52.289294,104.293441,,38,Иркутск
Маршруты Иркутска: по главным улицам ,"Иркутская область, г. Иркутск, Дом офицеров (бывший особняк Колыгиной)","Иркутская область, г. Иркутск, Дом офицеров (бывший особняк Колыгиной)",https://yandex.ru/maps/-/CCUcvSBblC,Дом офицеров,"ул. Карла Маркса, 47, Иркутск","52.289978, 104.294195",52.289978,104.294195,,39,Иркутск
Маршруты Иркутска: по главным улицам ,"Иркутская область, г. Иркутск, Дом Файнберга","Иркутская область, г. Иркутск, Дом Файнберга",https://yandex.ru/maps/-/CCUgAHs20D,Дом И.М. Файнберга,"ул. Халтурина, 1","52.288928, 104.286780",52.288928,104.28678,,40,Иркутск
Маршруты Иркутска: по главным улицам ,"Иркутская область, г. Иркутск, Иркутский цирк","Иркутская область, г. Иркутск, Иркутский цирк",https://yandex.ru/maps/-/CCUcvSbywC,Иркутский государственный цирк,"Пролетарская ул., 13, Иркутск","52.287623, 104.287202",52.287623,104.287202,,41,Иркутск
Маршруты Иркутска: по главным улицам ,"Иркутская область, г. Иркутск, Площадь труда","Иркутская область, г. Иркутск, Площадь труда",https://yandex.ru/maps/-/CCUcvSrFDB,площадь Труда,"площадь Труда, Иркутск","52.287114, 104.286877",52.287114,104.286877,,42,Иркутск
Маршруты Иркутска: по главным улицам ,"Иркутская область, г. Иркутск, Иркутский областной суд","Иркутская область, г. Иркутск, Иркутский областной суд",https://yandex.ru/maps/org/irkutskiy_oblastnoy_sud/1023634282/,Иркутский областной суд,"Байкальская ул., 121, Иркутск","52.264456, 104.311439",52.264456,104.311439,,43,Иркутск
Маршруты Иркутска: по главным улицам ,"Иркутская область, г. Иркутск, Дворец детского и юношеского творчества","Иркутская область, г. Иркутск, Дворец детского и юношеского творчества",https://yandex.ru/maps/-/CCUcvSCBLA,Дворец детского и юношеского творчества,"ул. Желябова, 5, Иркутск","52.287805, 104.285361",52.287805,104.285361,,44,Иркутск
Маршруты Иркутска: по главным улицам ,"Иркутская область, г. Иркутск, Корпус педагогического института ИГУ (бывшая 2-я Хаминовская гимназия)","Иркутская область, г. Иркутск, Корпус педагогического института ИГУ (бывшая 2-я Хаминовская гимназия)",https://yandex.ru/maps/-/CCUcvSSY2D,Педагогический институт Иркутского государственного университета,"ул. Сухэ-Батора, 9","52.286257, 104.282638",52.286257,104.282638,,45,Иркутск
Маршруты Иркутска: по главным улицам ,"Иркутская область, г. Иркутск, Гостиница «Ангара»","Иркутская область, г. Иркутск, Гостиница «Ангара»",https://yandex.ru/maps/-/CCUgMFcD3B,Ангара,"ул. Сухэ-Батора, 7, Иркутск","52.287432, 104.282047",52.287432,104.282047,,46,Иркутск
Маршруты Иркутска: по главным улицам ,"Иркутская область, г. Иркутск,  Биолого-почвенный институт ИГУ","Иркутская область, г. Иркутск,  Биолого-почвенный институт ИГУ",https://yandex.ru/maps/org/biologo_pochvenny_fakultet_irkutskogo_gosudarstvennogo_universiteta/1050279049/,Биолого-почвенный факультет Иркутского государственного университета,"ул. Сухэ-Батора, 5, Иркутск","52.288721, 104.282520",52.288721,104.28252,,47,Иркутск
Маршруты Иркутска: по главным улицам ,"Иркутская область, г. Иркутск, Памятник Михаилу Михайловичу Сперанскому","Иркутская область, г. Иркутск, Памятник Михаилу Михайловичу Сперанскому",https://yandex.ru/maps/org/pamyatnik_grafu_m_m_speranskomu/204452817269/,Памятник графу М. М. Сперанскому,"ул. Сухэ-Батора, 5, Иркутск","52.289082, 104.282023",52.289082,104.282023,,48,Иркутск
Маршруты Иркутска: по главным улицам ,"Иркутская область, г. Иркутск, Римско-католичсекий костел Успения Божией Матери","Иркутская область, г. Иркутск, Римско-католичсекий костел Успения Божией Матери",https://yandex.ru/maps/-/CCUcvSDBPB,Римско-католическая церковь,"ул. Сухэ-Батора, 1, Иркутск","52.290448, 104.282409",52.290448,104.282409,,49,Иркутск
Маршруты Иркутска: по главным улицам ,"Иркутская область, г. Иркутск, Сквер имени святителя Иннокентия (Вениаминова). Собор Богоявления Господня","Иркутская область, г. Иркутск, Сквер имени святителя Иннокентия (Вениаминова). Собор Богоявления Господня",https://yandex.ru/maps/-/CCUcvSHXPC,Собор Богоявления Господня,"ул. Сухэ-Батора, 1А, Иркутск","52.292250, 104.282525",52.29225,104.282525,,50,Иркутск
Маршруты Иркутска: по главным улицам ,"Иркутская область, г. Иркутск, Комплекс Иркутского педагогического института ИГУ","Иркутская область, г. Иркутск, Комплекс Иркутского педагогического института ИГУ",https://yandex.ru/maps/org/pedagogicheskiy_institut_irkutskogo_gosudarstvennogo_universiteta/1084804040/,Педагогический институт Иркутского государственного университета,"ул. Нижняя Набережная, 6, Иркутск","52.292476, 104.284949",52.292476,104.284949,,51,Иркутск
Маршруты Иркутска: по главным улицам ,"Иркутская область, г. Иркутск, Комплекс Иркутского педагогического института ИГУ","Иркутская область, г. Иркутск, Комплекс Иркутского педагогического института ИГУ",https://yandex.ru/maps/org/pedagogicheskiy_institut_irkutskogo_gosudarstvennogo_universiteta/1008526069/,Педагогический институт Иркутского государственного университета,"ул. Сухэ-Батора, 9, Иркутск","52.286257, 104.282638",52.286257,104.282638,,52,Иркутск
Маршруты Иркутска: по главным улицам ,"Иркутская область, г. Иркутск, Московские ворота","Иркутская область, г. Иркутск, Московские ворота",https://yandex.ru/maps/org/moskovskiye_vorota/90840327687/,Московские ворота,"Иркутск, улица Нижняя Набережная","52.293581, 104.286167",52.293581,104.286167,,53,Иркутск
Маршруты Иркутска: по главным улицам ,"Иркутская область, г. Иркутск, Памятник «Первая учительница»","Иркутская область, г. Иркутск, Памятник «Первая учительница»",https://yandex.ru/maps/org/pamyatnik_uchitelyu/117686612164/,Памятник учителю,"Иркутск, улица Нижняя Набережная","52.293081, 104.284148",52.293081,104.284148,,54,Иркутск
Маршруты Иркутска: по главным улицам ,"Иркутская область, г. Иркутск, Памятник Якову Похабову","Иркутская область, г. Иркутск, Памятник Якову Похабову",https://yandex.ru/maps/org/osnovatelyam_irkutska/93372538147/,Основателям Иркутска,"Иркутск, улица Нижняя Набережная","52.292641, 104.281658",52.292641,104.281658,,55,Иркутск
Маршруты Иркутска: по главным улицам ,"Иркутская область, г. Иркутск, Мемориал иркутянам, погибшим в Великой Отечественной войне","Иркутская область, г. Иркутск, Мемориал иркутянам, погибшим в Великой Отечественной войне",https://yandex.ru/maps/org/vechny_ogon/207380747367/,Вечный огонь,"Иркутск, сквер У Вечного Огня","52.290968, 104.280236",52.290968,104.280236,,56,Иркутск
Маршруты Иркутска: по главным улицам ,"Иркутская область, г. Иркутск, Памятник святым Петру и Февронии","Иркутская область, г. Иркутск, Памятник святым Петру и Февронии",https://yandex.ru/maps/-/CCUcvWxdGC,Святые Пётр и Феврония Муромские,"ул. Сухэ-Батора, 2, Иркутск","52.291274, 104.280875",52.291274,104.280875,,57,Иркутск
Маршруты Иркутска: по главным улицам ,"Иркутская область, г. Иркутск, Спасская церковь","Иркутская область, г. Иркутск, Спасская церковь",https://yandex.ru/maps/-/CCUcvSh6wD,Церковь Спаса Нерукотворного Образа,"ул. Сухэ-Батора, 2, Иркутск","52.291117, 104.281304",52.291117,104.281304,,58,Иркутск
Маршруты Иркутска: по главным улицам ,"Иркутская область, г. Иркутск, Крипта над захоронением останков первых жителей Иркутска у Спасской церкви","Иркутская область, г. Иркутск, Крипта над захоронением останков первых жителей Иркутска у Спасской церкви",https://yandex.ru/maps/-/CCUgMEvZpC,Церковь Спаса Нерукотворного Образа,"ул. Сухэ-Батора, 2, Иркутск","52.291117, 104.281304",52.291117,104.281304,,59,Иркутск
Маршруты Иркутска: по главным улицам ,"Иркутская область, г. Иркутск,  Правительство Иркутской области","Иркутская область, г. Иркутск,  Правительство Иркутской области",https://yandex.ru/maps/org/pravitelstvo_irkutskoy_oblasti/1014279065/,Правительство Иркутской области,"ул. Ленина, 1А, Иркутск","52.290252, 104.280379",52.290252,104.280379,,60,Иркутск
Маршруты Иркутска: по главным улицам ,"Иркутская область, г. Иркутск, Здание бывшего губернского казначейства","Иркутская область, г. Иркутск, Здание бывшего губернского казначейства",https://yandex.ru/maps/-/CCUgAHwThA,"улица Ленина, 1","улица Ленина, 1, Иркутск","52.290139, 104.279331",52.290139,104.279331,,61,Иркутск
Маршруты Иркутска: по главным улицам ,"Иркутская область, г. Иркутск, Часовня-памятник во имя Казанской иконы Божьей Матери","Иркутская область, г. Иркутск, Часовня-памятник во имя Казанской иконы Божьей Матери",https://yandex.ru/maps/-/CCUcvWewGB,Часовня Казанской иконы Божией Матери,"Иркутск, площадь Графа Сперанского","52.289655, 104.281037",52.289655,104.281037,,62,Иркутск
Маршруты Иркутска: по главным улицам ,"Иркутская область, г. Иркутск, Сквер имени Кирова","Иркутская область, г. Иркутск, Сквер имени Кирова",https://yandex.ru/maps/-/CCUcvWuKWA,Сквер имени Кирова,"Иркутск, сквер имени Кирова","52.286737, 104.281224",52.286737,104.281224,,63,Иркутск
Маршруты Иркутска: по главным улицам ,"Иркутская область, г. Иркутск,  Правление «Востсибуголь»","Иркутская область, г. Иркутск,  Правление «Востсибуголь»",https://yandex.ru/maps/org/vostochno_sibirskiy_ugol/1056251564/,Восточно-сибирский уголь,"ул. Сухэ-Батора, 4, Иркутск","52.285807, 104.281800",52.285807,104.2818,,64,Иркутск
Маршруты Иркутска: по главным улицам ,"Иркутская область, г. Иркутск, Городская дума","Иркутская область, г. Иркутск, Городская дума",https://yandex.ru/maps/-/CCUcvWRGdC,Городская Дума г. Иркутска,"ул. Ленина, 14, Иркутск","52.286765, 104.279801",52.286765,104.279801,,65,Иркутск
Маршруты Иркутска: по главным улицам ,"Иркутская область, г. Иркутск, Иркутское отделение Государственного банка России","Иркутская область, г. Иркутск, Иркутское отделение Государственного банка России",https://yandex.ru/maps/-/CCUcvWV~sC,"Центральный банк РФ, отделение по Иркутской области Сибирского главного управления Центрального банка Российской Федерации","ул. Ленина, 16, Иркутск","52.285882, 104.280228",52.285882,104.280228,,66,Иркутск
Маршруты Иркутска: по главным улицам ,"Иркутская область, г. Иркутск, Институт социальных наук и геологический факультет ИГУ","Иркутская область, г. Иркутск, Институт социальных наук и геологический факультет ИГУ",https://yandex.ru/maps/org/geologicheskiy_fakultet_irkutskogo_gosudarstvennogo_universiteta/1077570473/,Геологический факультет Иркутского государственного университета,"ул. Ленина, 3, Иркутск","52.284947, 104.280954",52.284947,104.280954,,67,Иркутск
Маршруты Иркутска: по главным улицам ,"Иркутская область, г. Иркутск, Клиника глазных болезней ИГМУ","Иркутская область, г. Иркутск, Клиника глазных болезней ИГМУ",https://yandex.ru/maps/org/klinika_glaznykh_bolezney/204782995095/,Клиника глазных болезней,"ул. Свердлова, 14, Иркутск","52.284202, 104.280504",52.284202,104.280504,,68,Иркутск
Маршруты Иркутска: по главным улицам ,"Иркутская область, г. Иркутск, Иркутский областной художественный музей имени В.П. Сукачева","Иркутская область, г. Иркутск, Иркутский областной художественный музей имени В.П. Сукачева",https://yandex.ru/maps/org/gbuk_irkutskiy_oblastnoy_khudozhestvenny_muzey_imeni_v_p_sukachyova/1194546146/,ГБУК Иркутский областной художественный музей имени В. П. Сукачёва,"ул. Ленина, 5, Иркутск","52.283958, 104.281599",52.283958,104.281599,,69,Иркутск
Маршруты Иркутска: по главным улицам ,"Иркутская область, г. Иркутск,  Иркутский авиационный техникум","Иркутская область, г. Иркутск,  Иркутский авиационный техникум",https://yandex.ru/maps/-/CCUcvWSfhB,Иркутский авиационный техникум,"ул. Ленина, 5А, Иркутск","52.283279, 104.281037",52.283279,104.281037,,70,Иркутск
Маршрут «Православные храмы Иркутска»,"Иркутская область, г. Иркутск, Отдел истории МБУК «Музей истории города Иркутска им. А.М. Сибирякова»","Иркутская область, г. Иркутск, Отдел истории МБУК «Музей истории города Иркутска им. А.М. Сибирякова»",https://yandex.ru/maps/org/mbuk_muzey_istorii_goroda_irkutska_imeni_a_m_sibiryakova/1103092444/,МБУК Музей истории города Иркутска имени А. М. Сибирякова,"ул. Франк-Каменецкого, 16А, Иркутск","52.290715, 104.296381",52.290715,104.296381,,1,Иркутск
Маршрут «Православные храмы Иркутска»,"Иркутская область, г. Иркутск, Спасская церковь","Иркутская область, г. Иркутск, Спасская церковь",https://yandex.ru/maps/-/CCUcvSh6wD,Церковь Спаса Нерукотворного Образа,"ул. Сухэ-Батора, 2, Иркутск","52.291117, 104.281304",52.291117,104.281304,,2,Иркутск
Маршрут «Православные храмы Иркутска»,"Иркутская область, г. Иркутск, Собор Богоявления","Иркутская область, г. Иркутск, Собор Богоявления",https://yandex.ru/maps/-/CCUcvWAjoA,Собор Богоявления Господня,"ул. Сухэ-Батора, 1А, Иркутск","52.292250, 104.282525",52.29225,104.282525,,3,Иркутск
Маршрут «Православные храмы Иркутска»,"Иркутская область, г. Иркутск, Женский Знаменский монастырь","Иркутская область, г. Иркутск, Женский Знаменский монастырь",https://yandex.ru/maps/-/CCUgMAwIOD,Знаменский женский епархиальный монастырь,"Ангарская ул., 14, Иркутск","52.301036, 104.294216",52.301036,104.294216,,4,Иркутск
Маршрут «Православные храмы Иркутска»,"Иркутская область, г. Иркутск, Церковь Казанской иконы Божьей Матери","Иркутская область, г. Иркутск, Церковь Казанской иконы Божьей Матери",https://yandex.ru/maps/-/CCUcvWwC~D,Казанская церковь,"ул. Баррикад, 34/1, Иркутск","52.292226, 104.316626",52.292226,104.316626,,5,Иркутск
Маршрут «Православные храмы Иркутска»,"Иркутская область, г. Иркутск, Спасо-Преображенская церковь","Иркутская область, г. Иркутск, Спасо-Преображенская церковь",https://yandex.ru/profile/-/CCUgMEglOA,Спасо-Преображенский храм,"пер. Волконского, 1","52.287673, 104.303638",52.287673,104.303638,,6,Иркутск
Маршрут «Православные храмы Иркутска»,"Иркутская область, г. Иркутск, Михаило-Архангельская церковь","Иркутская область, г. Иркутск, Михаило-Архангельская церковь",https://yandex.ru/profile/-/CCUgMEEz2B,Михаило-Архангельская Харлампиевская церковь,"ул. 5-й Армии, 59","52.281465, 104.277489",52.281465,104.277489,,7,Иркутск
Маршрут «Православные храмы Иркутска»,"Иркутская область, г. Иркутск, Церковь Честного Животворящего креста  Господня (Крестовоздвиженская)","Иркутская область, г. Иркутск, Церковь Честного Животворящего креста  Господня (Крестовоздвиженская)",https://yandex.ru/maps/-/CCUcvWdNLC,Церковь Воздвижения Честного Креста Господня,"ул. Седова, 1, Иркутск","52.276351, 104.288324",52.276351,104.288324,,8,Иркутск
Маршрут «Иркутск – Листвянка» ,"Иркутская область, г. Иркутск, сквер им. Кирова","Иркутская область, г. Иркутск, сквер им. Кирова",https://yandex.ru/maps/org/skver_imeni_kirova/5134261034/,Сквер имени Кирова,"Иркутск, сквер имени Кирова","52.286737, 104.281224",52.286737,104.281224,,1,Иркутск
Маршрут «Иркутск – Листвянка» ,"Иркутская область, г. Иркутск, ГЭС","Иркутская область, г. Иркутск, ГЭС",https://yandex.ru/maps/-/CCUcvWxV2B,"Иркутская ГЭС, филиал Иркутскэнерго","Иркутск, плотина Иркутской ГЭС","52.236404, 104.320250",52.236404,104.32025,,2,Иркутск
Маршрут «Иркутск – Листвянка» ,"Иркутская область, г. Иркутск, Ледокол «Ангара»","Иркутская область, г. Иркутск, Ледокол «Ангара»",https://yandex.ru/maps/-/CCUcv0ApcB,Ледокол Ангара,"просп. Маршала Жукова, 36А/1, Иркутск","52.250143, 104.343884",52.250143,104.343884,,3,Иркутск
Маршрут «Иркутск – Листвянка» ,"Иркутская область,  с. Никола","Иркутская область,  с. Никола",https://yandex.ru/maps/-/CCUcv0Qp~B,посёлок Никола,"посёлок Никола, Листвянское муниципальное образование, Иркутский район","51.894162, 104.827357",51.894162,104.827357,,4,Иркутск
Маршрут «Иркутск – Листвянка» ,"Иркутская область,  падь Крестовая","Иркутская область,  падь Крестовая",https://yandex.ru/maps/-/CCUgAHg0pB,река Крестовка,"река Крестовка, Листвянское муниципальное образование, Иркутский район","51.893356, 104.905095",51.893356,104.905095,,5,Иркутск
Маршрут «Иркутск – Листвянка» ,"Иркутская область,  п. Листвянка","Иркутская область,  п. Листвянка",https://yandex.ru/maps/-/CCUcvSWVOC,рабочий посёлок Листвянка,"рабочий посёлок Листвянка, Листвянское муниципальное образование, Иркутский район","51.859990, 104.863191",51.85999,104.863191,,6,Иркутск
Иркутск,"Иркутск, Александр III, Памятник",,,"Александр III, Памятник","ул. Карла Маркса, 2, Иркутск, Иркутская обл., 664003","52.2871305, 104.29007200281713",52.2871305,104.29007200281713,https://izi.travel/ru/43c2-irkutsk/ru,1,Иркутск
Иркутск,"Иркутск, Памятник Туристу",,,Памятник Туристу,"ул. Литвинова, Иркутск, Иркутская обл., 664003","52.2826219, 104.2912525",52.2826219,104.2912525,https://izi.travel/ru/43c2-irkutsk/ru,2,Иркутск
Иркутск,"Иркутск, Леонид Гайдай, Памятник",,,"Леонид Гайдай, Памятник","Пролетарская ул., 13, Иркутск, Иркутская обл., 664011","52.28784575, 104.28765885851789",52.28784575,104.28765885851789,https://izi.travel/ru/43c2-irkutsk/ru,3,Иркутск
Иркутск,"Иркутск, Памятник Адмиралу Александру Колчаку",,,Памятник адмиралу Колчаку ,"Ангарская ул., 14, Иркутск, Иркутская обл., 664001 ","52.3000181, 104.2950625 ",52.3000181,104.2950625,https://izi.travel/ru/43c2-irkutsk/ru,4,Иркутск
Анималистические скульптуры Иркутска,"Иркутск, Скульптура Иркутская кошка",,,Скульптура «Иркутская кошка»,"ул. Горького, 11, Иркутск, Иркутская обл., 664025","52.2821204, 104.2795631",52.2821204,104.2795631,https://izi.travel/ru/e7ec-animalisticheskie-skulptury-irkutska/ru,1,Иркутск
Анималистические скульптуры Иркутска,"Иркутск, Скамейка Три обезьяны",,,Скамейка «Три обезьяны»,"улица Ленина, 36, Иркутск, 664025 ","52.280194, 104.281848",52.280194,104.281848,https://izi.travel/ru/e7ec-animalisticheskie-skulptury-irkutska/ru,2,Иркутск
Анималистические скульптуры Иркутска,"Иркутск, Скульптура Корова",,,Скульптура «Корова» ,"улица Ленина, 38, Иркутск, 664025 ","52.280238, 104.281815",52.280238,104.281815,https://izi.travel/ru/e7ec-animalisticheskie-skulptury-irkutska/ru,3,Иркутск
Анималистические скульптуры Иркутска,"Иркутск, деревянная скульптура Медведь",,,Декоративное сооружение «Медведь»,"улица Декабристов, Иркутск ","52.277468, 104.2889 ",52.277468,104.2889,https://izi.travel/ru/e7ec-animalisticheskie-skulptury-irkutska/ru,4,Иркутск
Анималистические скульптуры Иркутска,"Иркутск, Скульптура Байкальская нерпа",,,Скульптура «Байкальская нерпа»,"бульвар Гагарина, Правобережный округ, Иркутск ","52.27414, 104.277274 ",52.27414,104.277274,https://izi.travel/ru/e7ec-animalisticheskie-skulptury-irkutska/ru,5,Иркутск
Анималистические скульптуры Иркутска,"Иркутск, Скульптуры Белые медведи",,,Памятник Собаке,"ул. Седова, 6, Иркутск, Иркутская обл., 664022","52.2753341, 104.2875679",52.2753341,104.2875679,https://izi.travel/ru/e7ec-animalisticheskie-skulptury-irkutska/ru,6,Иркутск
Анималистические скульптуры Иркутска,"Иркутск, Скульптура Бабр",,,Бабр,"​Октябрьский район, Иркутск, Иркутская обл., 664003","52.275999, 104.286567",52.275999,104.286567,https://izi.travel/ru/e7ec-animalisticheskie-skulptury-irkutska/ru,7,Иркутск
Маршруты Иркутска: страницы Победы,"Иркутск, Дом Ивана Ивановича Молчанова-Сибирского",,,Дом Ивана Ивановича Молчанова-Сибирского,"ул. Терешковой, 20, Иркутск","52.280150000000006, 104.25608689999999 ",52.280150000000006,104.2560869,https://izi.travel/ru/1dc4-marshruty-irkutska-stranicy-pobedy/ru,1,Иркутск
Маршруты Иркутска: страницы Победы,"Иркутск, Леонид Гайдай",,,"Леонид Гайдай, Памятник","Пролетарская ул., 13, Иркутск, Иркутская обл., 664011","52.28784575, 104.28765885851789",52.28784575,104.28765885851789,https://izi.travel/ru/1dc4-marshruty-irkutska-stranicy-pobedy/ru,2,Иркутск
Маршруты Иркутска: страницы Победы,"Иркутск, Улица Челнокова и бюст Н. В. Челнокова",,,Памятник Н.В. Челнокову ,"ул. Маяковского, Иркутск ","52.287636, 104.257189 ",52.287636,104.257189,https://izi.travel/ru/1dc4-marshruty-irkutska-stranicy-pobedy/ru,3,Иркутск
Маршруты Иркутска: страницы Победы,"Иркутск, Мемориал иркутянам, погибшим в Великой Отечественной войне",,,Вечный Огонь,"ул. Польских Повстанцев, Иркутск, Иркутская обл","52.2910065, 104.2802558 ",52.2910065,104.2802558,https://izi.travel/ru/1dc4-marshruty-irkutska-stranicy-pobedy/ru,4,Иркутск
Маршруты Иркутска: страницы Победы,"Иркутск, Здание Иркутского авиационного техникума",,,Иркутский авиационный техникум ,"улица Ленина, 5А, Иркутск, 664025 ","52.283148, 104.281361",52.283148,104.281361,https://izi.travel/ru/1dc4-marshruty-irkutska-stranicy-pobedy/ru,5,Иркутск
Маршруты Иркутска: страницы Победы,"Иркутск, Здание Байкальского государственного университета",,,Байкальский государственный университет,"улица Ленина, 11к3, Иркутск, 664003 ","52.281423, 104.283319",52.281423,104.283319,https://izi.travel/ru/1dc4-marshruty-irkutska-stranicy-pobedy/ru,6,Иркутск
Маршруты Иркутска: страницы Победы,"Иркутск, Факультетские клиники Иркутского медицинского университета",,,Факультетские клиники ИГМУ,"бул. Гагарина, 18, Иркутск, Иркутская обл., 664003","52.274246500000004, 104.2804912609155",52.2742465,104.2804912609155,https://izi.travel/ru/1dc4-marshruty-irkutska-stranicy-pobedy/ru,7,Иркутск
Маршруты Иркутска: страницы Победы,"Иркутск, Лицей № 3 города Иркутска",,,Лицей №3,"ул. Тимирязева, 14, Иркутск, Иркутская обл., 664003","52.2795905, 104.29518675855851",52.2795905,104.29518675855851,https://izi.travel/ru/1dc4-marshruty-irkutska-stranicy-pobedy/ru,8,Иркутск
Маршруты Иркутска: страницы Победы,"Иркутск, Ремесленное училище",,,Иркутский техникум машиностроения им Н.П.Трапезникова,"ул. Рабочего Штаба, 6, Иркутск, Иркутская обл., 664001","52.301034349999995, 104.29983541213188",52.30103435,104.29983541213188,https://izi.travel/ru/1dc4-marshruty-irkutska-stranicy-pobedy/ru,9,Иркутск
Маршруты Иркутска: страницы Победы,"Иркутск, Сквер памяти работникам ИЗТМ",,,Сквер памяти работникам ИЗТМ,"Иркутск, Иркутская обл., 664007","52.2891225, 104.279829",52.2891225,104.279829,https://izi.travel/ru/1dc4-marshruty-irkutska-stranicy-pobedy/ru,10,Иркутск
Маршруты Иркутска: страницы Победы,"Иркутск, Танк Т-34 «Иркутский комсомолец»",,,Танк Иркутский Комсомолец,"Советская ул., Иркутск, Иркутская обл., 664047","52.2778491, 104.3119466",52.2778491,104.3119466,https://izi.travel/ru/1dc4-marshruty-irkutska-stranicy-pobedy/ru,11,Иркутск
Маршруты Иркутска: страницы Победы,"Иркутск, Иркутский областной суд. Тополиная аллея у Иркутского областного суда. Улица Байкальская (бывш. Коминтерна, Большая Русиновская)",,,Иркутский областной суд,"Байкальская ул., 121, Иркутск, Иркутская обл., 664046","52.2644938, 104.31142",52.2644938,104.31142,https://izi.travel/ru/1dc4-marshruty-irkutska-stranicy-pobedy/ru,12,Иркутск
Достропримечательности города Зима,"Зима, Парк Победы",,,Парк Победы,"Зима, Иркутская обл., 665383","53.929397272467774, 102.06260669697404",53.929397272467774,102.06260669697404,https://www.izi.travel/ru/99b9-dostroprimechatelnosti-goroda-zima/ru,1,Зима
Достропримечательности города Зима,"Зима, Водонапорная башня",,,Водонапорная башня,"Зима, Иркутская обл., 665383","53.926750, 102.052500",53.92675,102.0525,https://www.izi.travel/ru/99b9-dostroprimechatelnosti-goroda-zima/ru,2,Зима
Достропримечательности города Зима,"Зима, Памятник зиминским погибшим железнодорожникам в годы Великой Отечественной войны.",,,Памятник зиминским погибшим железнодорожникам в годы Великой Отечественной войны.,"ул. Островского, 1, Зима, Иркутская обл., 665383","53.92083779739689, 102.06362276480631",53.92083779739689,102.06362276480633,https://www.izi.travel/ru/99b9-dostroprimechatelnosti-goroda-zima/ru,3,Зима
Достропримечательности города Зима,"Зима, Памятник А.Н.Гринчику",,,Памятник А.Н.Гринчику,"микрорайон Транспортный, Зима, Иркутская обл. ","53.925265, 102.056046",53.925265,102.056046,https://www.izi.travel/ru/99b9-dostroprimechatelnosti-goroda-zima/ru,4,Зима
Достропримечательности города Зима,"Зима, Памятник Ямщику",,,Памятник Ямщику,"ул. Клименко, Зима","53.92113562605941, 102.0492328281544",53.92113562605941,102.0492328281544,https://www.izi.travel/ru/99b9-dostroprimechatelnosti-goroda-zima/ru,5,Зима
Достропримечательности города Зима,"Зима, Памятник покорителям космоса",,,Памятник покорителям космоса,"ул. Ленина, Зима","53.91954099827906, 102.0440589998108",53.91954099827906,102.0440589998108,https://www.izi.travel/ru/99b9-dostroprimechatelnosti-goroda-zima/ru,6,Зима
Достропримечательности города Зима,"Зима, Дом-музей поэзии",,,Дом-музей поэзии имени Евгения Евтушенко,"ул. Карла Маркса, 21, Зима, Иркутская область ","53.916679, 102.045948",53.916679,102.045948,https://www.izi.travel/ru/99b9-dostroprimechatelnosti-goroda-zima/ru,7,Зима
Достропримечательности города Зима,"Зима, Памятник Е.А Евтушенко",,,Памятник Е.А Евтушенко,"микрорайон Ангарский, Зима, Иркутская область ","53.914047, 102.025781",53.914047,102.025781,https://www.izi.travel/ru/99b9-dostroprimechatelnosti-goroda-zima/ru,8,Зима
Достропримечательности города Зима,"Зима, Памятник погибшим жителям станции Зима в годы Гражданской войны",,,Памятник погибшим жителям станции Зима в годы Гражданской войны,"ул. 5 Армии, Зима, Иркутская обл., 665385","53.8965896118512, 102.04084819189775",53.8965896118512,102.04084819189777,https://www.izi.travel/ru/99b9-dostroprimechatelnosti-goroda-zima/ru,9,Зима
Культурный маршрут по городу Усть-Илимску,"Усть-Илимск, Дворец культуры им. И.И. Наймушина",,,ДК имени И. И. Наймушина,"ул. Чайковского, 1, Усть-Илимск, Иркутская обл., 666673","57.9894372510311, 102.66291551116117",57.9894372510311,102.66291551116116,https://www.izi.travel/ru/0335-kulturnyy-marshrut-po-gorodu-ust-ilimsku/ru,1,Усть-Илимск
Культурный маршрут по городу Усть-Илимску,"Усть-Илимск, Детская библиотека «Родничок»",,,"Детская библиотека ""Родничок""","ул. 50 лет ВЛКСМ, 20, Усть-Илимск, Иркутская обл., 666673","57.99362781564836, 102.66327833677923",57.99362781564836,102.66327833677924,https://www.izi.travel/ru/0335-kulturnyy-marshrut-po-gorodu-ust-ilimsku/ru,2,Усть-Илимск
Культурный маршрут по городу Усть-Илимску,"Усть-Илимск, Центральная городская библиотека им. Н.С.Клестова-Ангарского",,,Центральная городская библиотека им. Клестова-Ангарского,"Братская ул., 8, Усть-Илимск, Иркутская обл., 666673","58.00362041122704, 102.66264066246816",58.00362041122704,102.66264066246816,https://www.izi.travel/ru/0335-kulturnyy-marshrut-po-gorodu-ust-ilimsku/ru,3,Усть-Илимск
Культурный маршрут по городу Усть-Илимску,"Усть-Илимск, Библиотека имени Ю.Ф.Федотова",,,Библиотека имени Федотова,"ул. Героев Труда, 21, Усть-Илимск, Иркутская обл., 666682","57.95641951589457, 102.74289292704151",57.95641951589457,102.74289292704152,https://www.izi.travel/ru/0335-kulturnyy-marshrut-po-gorodu-ust-ilimsku/ru,4,Усть-Илимск
Культурный маршрут по городу Усть-Илимску,"Усть-Илимск, Центральная детская библиотека 'Первоцвет'",,,Первоцвет,"пр. Мира, 5, Усть-Илимск, Иркутская обл., 666682","57.956387688840124, 102.7388154533039",57.95638768884013,102.7388154533039,https://www.izi.travel/ru/0335-kulturnyy-marshrut-po-gorodu-ust-ilimsku/ru,5,Усть-Илимск
Культурный маршрут по городу Усть-Илимску,"Усть-Илимск, Библиотека искусств",,,Библиотека искусств,"пр. Мира, 5, Усть-Илимск, Иркутская обл., 666682","57.956433, 102.738812",57.956433,102.738812,https://www.izi.travel/ru/0335-kulturnyy-marshrut-po-gorodu-ust-ilimsku/ru,6,Усть-Илимск
Культурный маршрут по городу Усть-Илимску,"Усть-Илимск, Муниципальное бюджетное учреждение культуры «Картинная галерея»",,,Картинная галерея,"пр. Мира, 7, Усть-Илимск, Иркутская обл., 666679","57.95514389207934, 102.73858291873927",57.95514389207934,102.73858291873928,https://www.izi.travel/ru/0335-kulturnyy-marshrut-po-gorodu-ust-ilimsku/ru,7,Усть-Илимск
Культурный маршрут по городу Усть-Илимску,"Усть-Илимск, Школа искусств № 2 им. Т. Г. Сафиулиной",,,Школа Искуств 2,"ул. Димитрова, 4, Усть-Илимск, Иркутская обл., 666682","57.94874714653651, 102.74227142438035",57.94874714653651,102.74227142438036,https://www.izi.travel/ru/0335-kulturnyy-marshrut-po-gorodu-ust-ilimsku/ru,8,Усть-Илимск
Культурный маршрут по городу Усть-Илимску,"Усть-Илимск, Дворец Культуры «Дружба»",,,"ДК ""Дружба""","пр. Мира, 36, Усть-Илимск, Иркутская обл., 666682","57.94651057685148, 102.73487891634151",57.94651057685145,102.73487891634151,https://www.izi.travel/ru/0335-kulturnyy-marshrut-po-gorodu-ust-ilimsku/ru,9,Усть-Илимск
Культурный маршрут по городу Усть-Илимску,"Усть-Илимск, Краеведческий музей",,,Краеведческий Музей,"ул. Карла Маркса, 67, Усть-Илимск, Иркутская обл., 666686","57.93238853016649, 102.7158903915938",57.93238853016649,102.7158903915938,https://www.izi.travel/ru/0335-kulturnyy-marshrut-po-gorodu-ust-ilimsku/ru,10,Усть-Илимск
История в пару шагов,"Усть-Илимск, Памятник-бюст Георгию Димитрову",,,Памятник-бюст Георгию Димитрову,"улица Карла Маркса, 21, Усть-Илимск ","57.950498026426175, 102.72874756338622",57.950498026426175,102.72874756338622,https://www.izi.travel/ru/303e-istoriya-v-paru-shagov/ru,1,Усть-Илимск
История в пару шагов,"Усть-Илимск, Памятник 3 звезды",,,"Мемориальный комплекс ""Три Звезды"" ","ул. Мечтателей, 30, Усть-Илимск, Иркутская обл., 666681 ","57.95313034907709, 102.72816553368143",57.95313034907709,102.72816553368143,https://www.izi.travel/ru/303e-istoriya-v-paru-shagov/ru,2,Усть-Илимск
История в пару шагов,"Усть-Илимск, Памятник воевавшим в Афганистане и  Чечне",,,"Памятник воинам, погибшим при выполнении интернационального долга в Афганистане и Чечне","ул. Мечтателей, Усть-Илимск, Иркутская обл.","57.953387, 102.728819 ",57.953387,102.728819,https://www.izi.travel/ru/303e-istoriya-v-paru-shagov/ru,3,Усть-Илимск
История в пару шагов,"Усть-Илимск, Памятник полиции",,,Памятник полиции,"ул. Мечтателей, Усть-Илимск, Иркутская обл.","57.953072, 102.728946",57.953072,102.728946,https://www.izi.travel/ru/303e-istoriya-v-paru-shagov/ru,4,Усть-Илимск
История в пару шагов,"Усть-Илимск, Часовня",,,Часовня,"улица Мечтателей, Усть-Илимск","57.9535115, 102.7354815 ",57.9535115,102.7354815,https://www.izi.travel/ru/303e-istoriya-v-paru-shagov/ru,5,Усть-Илимск
История в пару шагов,"Усть-Илимск, Кандалы",,,"""Кандалы"" - памятный знак Радищеву","Усть-Илимск, Иркутская обл., 666682","57.953252, 102.742797",57.953252,102.742797,https://www.izi.travel/ru/303e-istoriya-v-paru-shagov/ru,6,Усть-Илимск
Черемхово,"Черемхово, Черемхово мемориальный комплекс «Слава Героям Великой Отечественной войны»",,,Мемориал Слава Героям ВОВ ,"сквер Слава Героям, Черемхово, Иркутская область ","53.142172, 103.084055",53.142172,103.084055,https://www.izi.travel/ru/4297-cheremkhovo/ru,1,Черемхово
Черемхово,"Черемхово, Памятник черемховским угольщикам",,,"Памятник черемховским угольщикам, погибшим в годы Великой Отечественной войны","ул. Маяковского, 124, Черемхово, Иркутская обл., 665413","53.1305958, 103.11479376458773",53.1305958,103.11479376458772,https://www.izi.travel/ru/4297-cheremkhovo/ru,2,Черемхово
Люди-памятники,"Саянск, Памятник В.И. Ленину",,,Памятник В.И. Ленину,"улица Ленина, Саянск, Иркутская область ","54.106795, 102.168708",54.106795,102.168708,https://www.izi.travel/ru/a3e4-lyudi-pamyatniki/ru,1,Саянск
Люди-памятники,"Саянск, Памятник Е.П. Славскому",,,Памятник Е.П. Славскому,"Сквер Первостроителей, Саянск","54.110266556142655, 102.15978432762728",54.110266556142655,102.15978432762728,https://www.izi.travel/ru/a3e4-lyudi-pamyatniki/ru,2,Саянск
Люди-памятники,"Саянск, Памятник В.Г. Распутину",,,Памятник В.Г. Распутину,"2, Центральный микрорайон, Саянск ","54.111152, 102.159743",54.111152,102.159743,https://www.izi.travel/ru/a3e4-lyudi-pamyatniki/ru,3,Саянск
Что посмотреть в Саянске,"Саянск, Стела 'Саянск-город большой химии'",,,Саянск город большой химии,"Саянск, Иркутская обл.","54.101188, 102.156346",54.101188,102.156346,https://www.izi.travel/ru/3e69-chto-posmotret-v-sayanske/ru,1,Саянск
Что посмотреть в Саянске,"Саянск, Картинная галерея",,,Картинная Галерея,"микрорайон Юбилейный, 65, Саянск, Иркутская обл., 666301","54.1026742, 102.156965",54.1026742,102.156965,https://www.izi.travel/ru/3e69-chto-posmotret-v-sayanske/ru,2,Саянск
Что посмотреть в Саянске,"Саянск, Икона Петра и Февронии Муромских",,,Памятник Петру и Февронии ,"микрорайон Юбилейный, Саянск, Иркутская обл.","54.101819656162974, 102.15596684835411",54.101819656162974,102.15596684835413,https://www.izi.travel/ru/3e69-chto-posmotret-v-sayanske/ru,3,Саянск
Что посмотреть в Саянске,"Саянск, Дворец культуры 'Юность'",,,"Дворец культуры ""Юность""","Саянский пер., 36, Саянск, Иркутская обл., 666301","54.10597805106583, 102.16185579698558",54.10597805106583,102.16185579698558,https://www.izi.travel/ru/3e69-chto-posmotret-v-sayanske/ru,4,Саянск
Что посмотреть в Саянске,"Саянск, Сквер имени 40-летия Победы в ВОВ, с памятником в честь подвига Советского народа в ВОВ",,,Памятник к 40-летию Победы в ВОВ ,"Юбилейный м-н, Саянск, Иркутская область ","54.108447, 102.164065",54.108447,102.164065,https://www.izi.travel/ru/3e69-chto-posmotret-v-sayanske/ru,5,Саянск
Что посмотреть в Саянске,"Саянск, Сквер Первостроителей",,,Сквер Первостроителей,"Саянск, Иркутская обл., 666301","54.110318205168376, 102.15973302905076",54.110318205168376,102.15973302905076,https://www.izi.travel/ru/3e69-chto-posmotret-v-sayanske/ru,6,Саянск
Что посмотреть в Саянске,"Саянск, Музей трудовой славы АО 'Саянскхимпласт'",,,"Музей АО ""Саянскхимпласт""","Саянск, Иркутская обл., 666302","54.11093508162634, 102.15322818807498",54.11093508162634,102.15322818807498,https://www.izi.travel/ru/3e69-chto-posmotret-v-sayanske/ru,7,Саянск
Что посмотреть в Саянске,"Саянск, Памятник Дмитрию Перову",,,Мемориальная доска Дмитрию Михайловичу Перову ,"Олимпийский микрорайон, 5, Саянск","54.108217, 102.172763",54.108217,102.172763,https://www.izi.travel/ru/3e69-chto-posmotret-v-sayanske/ru,8,Саянск
Что посмотреть в Саянске,"Саянск, Музей истории города",,,Музей Истории Города Саянск,"ул. Строителей микрорайон, 24, Саянск, Иркутская обл., 666303","54.11421348358943, 102.17426585465826",54.11421348358943,102.17426585465826,https://www.izi.travel/ru/3e69-chto-posmotret-v-sayanske/ru,9,Саянск
Что посмотреть в Саянске,"Саянск, Городской фонтан",,,"Зона отдыха ""Фонтан""","ул. Олимпийский микрорайон, Саянск, Иркутская обл., 666304","54.11201563207092, 102.16884283153759",54.11201563207092,102.1688428315376,https://www.izi.travel/ru/3e69-chto-posmotret-v-sayanske/ru,10,Саянск
Что посмотреть в Саянске,"Саянск, Парк Зеленый",,,Парк Зелёный,"Саянск, Иркутская обл.","54.112607093861804, 102.18368573364849",54.11260709386181,102.18368573364847,https://www.izi.travel/ru/3e69-chto-posmotret-v-sayanske/ru,11,Саянск
Что посмотреть в Саянске,"Саянск, Благовещенский храм",,,Церковь Благовещения Пресвятой Богородицы,"Благовещенский мкр, 4, Саянск, Иркутская обл., 666304","54.1060224491295, 102.18132909548852",54.1060224491295,102.18132909548852,https://www.izi.travel/ru/3e69-chto-posmotret-v-sayanske/ru,12,Саянск
Храмы Слюдянского района,"Слюдянка, Часовня святого пророка царя  Соломона",,,Часовня Соломона,"Выдрино, Иркутская обл. ","51.393577313461655, 104.64369947354126",51.393577313461655,104.64369947354126,https://www.izi.travel/ru/4810-khramy-slyudyanskogo-rayona/ru,1,Слюдянка
Храмы Слюдянского района,"Слюдянка, Часовня  Казанской иконы Божьей Матери",,,Часовня в честь Казанской иконы Божьей Матери,"Привокзальная улица, 14А, посёлок Солзан, Байкальское муниципальное образование, Слюдянский район, Иркутская область ","51.498987, 104.229528",51.498987,104.229528,https://www.izi.travel/ru/4810-khramy-slyudyanskogo-rayona/ru,2,Слюдянка
Храмы Слюдянского района,"Слюдянка, Храм Свято-Троицкий",,,Храм Свято-Троицкий,"3-й квартал, 23, микрорайон Южный, Байкальск, Байкальское муниципальное образование, Слюдянский район, Иркутская область ","51.510902, 104.145516",51.510902,104.145516,https://www.izi.travel/ru/4810-khramy-slyudyanskogo-rayona/ru,3,Слюдянка
Храмы Слюдянского района,"Слюдянка, Храм – часовня Архангела Михаила",,,Храм – часовня Архангела Михаила,"проезд Школьный, посёлок Утулик, Слюдянский район, Иркутская область ","51.537737, 104.055095",51.537737,104.055095,https://www.izi.travel/ru/4810-khramy-slyudyanskogo-rayona/ru,4,Слюдянка
Храмы Слюдянского района,"Слюдянка, Часовня святителя Николая Чудотворца",,,Часовня святителя Николая Чудотворца,"Сухо́й Руче́й, Иркутская обл., Россия, 665904","51.64450233610289, 103.75775420780896",51.64450233610289,103.75775420780896,https://www.izi.travel/ru/4810-khramy-slyudyanskogo-rayona/ru,5,Слюдянка
Храмы Слюдянского района,"Слюдянка, Храм Свято-Никольский",,,Церковь Николая Чудотворца,"ул. 40 лет Октября, 40, Слюдянка, Иркутская обл., 665904","51.6595381, 103.72586117733765",51.6595381,103.72586117733763,https://www.izi.travel/ru/4810-khramy-slyudyanskogo-rayona/ru,6,Слюдянка
Храмы Слюдянского района,"Слюдянка, Храм Святителя Николая",,,Храм Святителя Николая,"Култук, Иркутская обл., Россия, 665911","51.727331192578454, 103.70726320805247",51.72733119257845,103.70726320805248,https://www.izi.travel/ru/4810-khramy-slyudyanskogo-rayona/ru,7,Слюдянка
Храмы Слюдянского района,"Слюдянка, Часовня Свято – Никольская",,,Часовня Свято – Никольская,"Култук, Иркутская обл., Россия, 665911","51.72503985995949, 103.71346821763115",51.72503985995949,103.71346821763116,https://www.izi.travel/ru/4810-khramy-slyudyanskogo-rayona/ru,8,Слюдянка
Храмы Слюдянского района,"Слюдянка, Храм Сошествия Святого Духа  (строительство)",,,Храм Сошествия Святого Духа,"Быстрая, Иркутская обл., Россия, 665916","51.73594070615682, 103.45509032660394",51.73594070615682,103.45509032660394,https://www.izi.travel/ru/4810-khramy-slyudyanskogo-rayona/ru,9,Слюдянка
Храмы Слюдянского района,"Слюдянка, Храм пророка Илии (строительство)",,,Храм пророка Илии,"Тибельти, Иркутская обл., Россия, 665916","51.76870805895391, 103.24826344621101",51.76870805895391,103.248263446211,https://www.izi.travel/ru/4810-khramy-slyudyanskogo-rayona/ru,10,Слюдянка
Храмы Слюдянского района,"Слюдянка, Часовня Николая Чудотворца",,,Часовня Николая Чудотворца,"Ангасольская, Иркутская обл., Россия, 665917","51.7317927227672, 103.8303025024194",51.7317927227672,103.8303025024194,https://www.izi.travel/ru/4810-khramy-slyudyanskogo-rayona/ru,11,Слюдянка
Храмы Слюдянского района,"Слюдянка, Храм Преображения Господня",,,Храм Преображения Господня,"Иркутская обл., Россия, 665921","51.874027276965705, 104.79811199525663",51.874027276965705,104.79811199525663,https://www.izi.travel/ru/4810-khramy-slyudyanskogo-rayona/ru,12,Слюдянка
Прогулки по Старому Усть-Куту,"Усть-Кутский район, Детская библиотека №3",,,Детская библиотека №3,"ул. Островского, 13, Усть-Кут, Иркутская обл., Россия, 666787","56.75983023081532, 105.66884067070967",56.75983023081532,105.66884067070968,https://www.izi.travel/ru/7001-progulki-po-staromu-ust-kutu/ru,1,Усть-Кутский район
Прогулки по Старому Усть-Куту,"Усть-Кутский район, Дом купца Чертока Г.Д",,,Дом купца Чертока Г.Д,"Советская ул., 105, Усть-Кут, Иркутская обл., Россия, 666787","56.75990026905739, 105.66198011499688",56.75990026905739,105.66198011499688,https://www.izi.travel/ru/7001-progulki-po-staromu-ust-kutu/ru,2,Усть-Кутский район
Прогулки по Старому Усть-Куту,"Усть-Кутский район, Сквер расстрелянных партизан",,,Сквер расстрелянных партизан,"Усть-Кутский р-н, Иркутская обл.","56.75983220546513, 105.65973700510894",56.75983220546513,105.65973700510894,https://www.izi.travel/ru/7001-progulki-po-staromu-ust-kutu/ru,3,Усть-Кутский район
Прогулки по Старому Усть-Куту,"Усть-Кутский район, Дом Охотника",,,Дом Охотника,"ул. Советская, Иркутская обл., Россия, 666787","56.7600705053832, 105.65967892692835",56.7600705053832,105.65967892692836,https://www.izi.travel/ru/7001-progulki-po-staromu-ust-kutu/ru,4,Усть-Кутский район
Прогулки по Старому Усть-Куту,"Усть-Кутский район, Куркутовский дом",,,Куркутовский дом,"ул. Советская, Иркутская обл., Россия, 666787","56.760496065485924, 105.65677062817606",56.76049606548592,105.65677062817606,https://www.izi.travel/ru/7001-progulki-po-staromu-ust-kutu/ru,5,Усть-Кутский район
Железногорск-Илимский. Памятные места,"Железногорск-Илимский, Стела «Строителям Коршуновстроя»",,,Памятник Строителям Коршуновстроя,"Железногорск-Илимский, Иркутская обл., 665651","56.58138613103443, 104.11864289351708",56.58138613103443,104.11864289351708,https://www.izi.travel/ru/2579-zheleznogorsk-ilimskiy-pamyatnye-mesta/ru,1,Железногорск-Илимский
Железногорск-Илимский. Памятные места,"Железногорск-Илимский, Арка в честь 50-летия Коршуновского ГОКа",,,Арка Коршуновский ГОК,"Железногорск-Илимский, Иркутская обл., 665653","56.584079093788695, 104.1149626972164",56.584079093788695,104.1149626972164,https://www.izi.travel/ru/2579-zheleznogorsk-ilimskiy-pamyatnye-mesta/ru,2,Железногорск-Илимский
Железногорск-Илимский. Памятные места,"Железногорск-Илимский, Памятник Михаилу Кузьмичу Янгелю",,,Памятник Михаилу Кузьмичу Янгелю,"Железногорск-Илимский, Иркутская обл., 665653","56.585088413877195, 104.11496643452516",56.5850884138772,104.11496643452516,https://www.izi.travel/ru/2579-zheleznogorsk-ilimskiy-pamyatnye-mesta/ru,3,Железногорск-Илимский
Железногорск-Илимский. Памятные места,"Железногорск-Илимский, Мемориал погибшим в годы Великой Отечественной войны   воинам - илимчанам",,,Мемориал Воинской Славы,"7-й кв-л, 16, Железногорск-Илимский, Иркутская обл., Россия, 665654","56.58520552820824, 104.11792701817991",56.58520552820824,104.11792701817993,https://www.izi.travel/ru/2579-zheleznogorsk-ilimskiy-pamyatnye-mesta/ru,4,Железногорск-Илимский
Железногорск-Илимский. Памятные места,"Железногорск-Илимский, Барельеф Александра Кузьмича Янгеля",,,Барельеф Александра Кузьмича Янгеля,"Железногорск-Илимский, Иркутская обл., 665653","56.58497445463008, 104.11782114443594",56.58497445463008,104.11782114443594,https://www.izi.travel/ru/2579-zheleznogorsk-ilimskiy-pamyatnye-mesta/ru,5,Железногорск-Илимский
Железногорск-Илимский. Памятные места,"Железногорск-Илимский, Памятник воинам, погибшим при исполнении воинского и служебного долга",,,"Памятник воинам, погибшим при исполнении воинского и служебного долга","Железногорск-Илимский, Иркутская обл., 665653","56.58473514569791, 104.11817179474092",56.58473514569791,104.11817179474092,https://www.izi.travel/ru/2579-zheleznogorsk-ilimskiy-pamyatnye-mesta/ru,6,Железногорск-Илимский
Железногорск-Илимский. Памятные места,"Железногорск-Илимский, Памятный знак в честь 70-летия Нижнеилимского района",,,Памятный знак в честь 70-летия Нижнеилимского района,"Железногорск-Илимский, Иркутская обл., 665653","56.58476164040282, 104.11793111016664",56.58476164040282,104.11793111016664,https://www.izi.travel/ru/2579-zheleznogorsk-ilimskiy-pamyatnye-mesta/ru,7,Железногорск-Илимский
Железногорск-Илимский. Памятные места,"Железногорск-Илимский, Памятник партизанам Илимского края",,,Памятник погибшим партизанам.,"Железногорск-Илимский, Иркутская обл., 665651","56.57816856719766, 104.12586208233975",56.57816856719766,104.12586208233976,https://www.izi.travel/ru/2579-zheleznogorsk-ilimskiy-pamyatnye-mesta/ru,8,Железногорск-Илимский
Железногорск-Илимский. Памятные места,"Железногорск-Илимский, Памятник работникам КГОКа, отстоявшим свое предприятие",,,"Памятник работникам КГОКа, отстоявшим свое предприятие","ул. Иващенко, Железногорск-Илимский, Иркутская обл., Россия, 665651","56.57161131491326, 104.1293366310293",56.57161131491326,104.1293366310293,https://www.izi.travel/ru/2579-zheleznogorsk-ilimskiy-pamyatnye-mesta/ru,9,Железногорск-Илимский
Железногорск-Илимский. Памятные места,"Железногорск-Илимский, Стела Коршуновский ГОК",,,Стела Коршуновский ГОК,"ул. Промышленная, Железногорск-Илимский, Иркутская обл., Россия, 665651","56.55825515816865, 104.13546941948339",56.55825515816865,104.1354694194834,https://www.izi.travel/ru/2579-zheleznogorsk-ilimskiy-pamyatnye-mesta/ru,10,Железногорск-Илимский
